Región	Distrito	Municipio Escolar	Código	Escuela	Latitud	Longitud	Status	Nivel	Grado que ofrece	Montessori	Total M1Certificada	Total M1Activa	Estrellas	Puntuación	Clasificación ESSA	Tasa de Deserción	Teléfono	Dirección Física 	Pueblo	Estado	Zipcode	Email	Año_ID
Arecibo	Arecibo	Arecibo II	15784	Abelardo Martínez Otero	18.46253	-66.74019	Abierta	Secundario	9 10 11 12	No	384	383	4	61.8%	Others	1.63%	879-2614	Villa Los Santos Calle 14 Final	Arecibo	PR	6120000	D15784@de.pr.gov	2020-2021
Arecibo	Vega Alta	Vega Baja	74807	Agapito Rosario Rosario	18.43408	-66.40216	Abierta	Primario	K 1 2 3 4 5 EE	No	449	435	2	33.0%	Others	2.56%	858-2988	Calle S Esq T Urb. Alturas	Vega Baja	PR	6930000	D74807@de.pr.gov	2020-2021
Arecibo	Camuy	Camuy	17467	Amalia López de Ávila (Nueva)	18.46785	-66.84433	Abierta	Primario	K 1 2 3 4 5 EE	No	298	299	2	26.6%	Others	0.00%	898-4830	Carr. 119 Km 5.6 Int.Bo Puente, Sector Zarza	Camuy	PR	6270000	D17467@de.pr.gov	2020-2021
Arecibo	Vega Alta	Vega Baja	71886	Ángel Sandín Martínez	18.44348	-66.38388	Abierta	Primario	6 7 8 EI	No	359	357	1	18.2%	Others	0.27%	807-2120	4 Calle Julio Otero Esq Jose Acosta	Vega Baja	PR	6930000	D71886@de.pr.gov	2020-2021
Arecibo	Arecibo	Arecibo I	10637	Angélica Gómez de Betancourt	18.47902	-66.69367	Abierta	Primario	K 1 2 3 4 5 6 7 8 EE EI	No	183	183	3	48.6%	Targeted	1.58%	878-1675	Carr. 681 Hm 3 Bo Islote	Arecibo	PR	6120000	D10637@de.pr.gov	2020-2021
Arecibo	Arecibo	Hatillo	17772	Aníbal Reyes Belén	18.36489	-66.80053	Abierta	Secundario	9 10 11 12	No	707	705	2	30.0%	Others	3.85%	820-4022	Carr. 130 K12 4 Bo Campo Alegre	Hatillo	PR	6590000	D17772@de.pr.gov	2020-2021
Arecibo	Vega Alta	Vega Alta	71738	Antonio Paoli	18.41179	-66.31669	Abierta	Primario	PK K 1 2 3 4 5	Sí	204	215	4	76.8%	Others	3.00%	883-4945	Urb. Santa Rita Calle 9 V. Alta	Vega Alta	PR	9620000	D71738@de.pr.gov	2020-2021
Arecibo	Camuy	Camuy	11023	Antonio Reyes	18.45143	-66.85406	Abierta	Primario	6 7 8 EI	No	331	333	2	32.9%	Others	1.47%	820-1472	Carr. 486 Km 2 Hm 6 Bo Zanja	Camuy	PR	6270000	D11023@de.pr.gov	2020-2021
Arecibo	Manatí	Manatí	12187	Antonio Vélez Alvarado	18.435	-66.46613	Abierta	Primario	PK K 1 2 3 4 5 EE	No	236	237	4	73.0%	Others	2.81%	854-4160	Carr. 2 Km 46 Hm 8 Bo Campo Alegre	Manatí	PR	6740000	D12187@de.pr.gov	2020-2021
Arecibo	Vega Alta	Vega Alta	71761	Apolo San Antonio	18.41254	-66.33316	Abierta	Primario	6 7 8 EI	No	424	426	2	24.8%	Additional Targeted	4.00%	883-4878	Calle Luis Muñoz Rivera	Vega Alta	PR	9620000	D71761@de.pr.gov	2020-2021
Arecibo	Arecibo	Arecibo I	17343	Bellas Artes	18.4418	-66.67123	Abierta	Todos Los Niveles	SHARED	No					N/A		881-2882	Carr. 662 Sect Los Llanos Bo Santana	Arecibo	PR	6120000	D17343@de.pr.gov	2020-2021
Arecibo	Arecibo	Hatillo	11411	Carmen Noelia Peraza Toledo	18.45667	-66.77591	Abierta	Primario	PK K 1 2 3 4 5	No	321	318	4	76.2%	Others	3.59%	898-0001	Carr. 492 Km 3 Hm 1 Bo Corcovados	Hatillo	PR	6590000	D11411@de.pr.gov	2020-2021
Arecibo	Vega Alta	Vega Baja	73494	Centro De Adiestramiento	18.43259	-66.42994	Abierta	Todos Los Niveles	EI ES	No	92	90	3	50.0%	Comprehensive	4.85%	855-1360	Carr. 155 Km 6 Hm 5 Bo Pugnado Afuera	Vega Baja	PR	6930000	D73494@de.pr.gov	2020-2021
Arecibo	Vega Alta	Vega Baja	7315	Christian Military Academy Alliance Alianza	18.4469967871097	-66.417646250044	Abierta	Primario	K 1	No	31	33			N/A	0.00%	(787) 855-3188	Carr. 687 Km 7 Tortuguero	Vega Baja	PR	693		2020-2021
Arecibo	Arecibo	Arecibo II	10173	Cotto (Anexo)	18.46298	-66.73596	Abierta	Todos Los Niveles	EE EI ES	No	31	31			N/A	6.06%	878-8160	Ave. Constitucion Bo Cotto	Arecibo	PR	6120000	D10173@de.pr.gov	2020-2021
Arecibo	Vega Alta	Dorado	76562	Cristóbal Santana Melecio (Nueva)	18.396	-66.25971	Abierta	Primario	K 1 2 3 4 5 6 7 8 EE	No	330	330	3	47.1%	Others	3.72%	870-3416	Calle 8 Rio Lajas	Dorado	PR	6460000	D76562@de.pr.gov	2020-2021
Arecibo	Camuy	Lares	17673	Daniel Vélez Soto	18.29956	-66.88233	Abierta	Primario	PK K 1 2 3 4 5 EE	No	313	307	2	33.7%	Others	1.85%	897-3060	Carr. 111 Km 2 Hm 0	Lares	PR	6690000	D17673@de.pr.gov	2020-2021
Arecibo	Camuy	Lares	11643	Domingo Aponte Collazo	18.29666	-66.87977	Abierta	Secundario	9 10 11 12 ES	No	886	861	2	31.6%	Others	3.50%	897-1570	Carr. 111 Calle Ramon De Jesus Sierra	Lares	PR	6690000	D11643@de.pr.gov	2020-2021
Arecibo	Arecibo	Arecibo II	10439	Dr. Cayetano Coll y Toste	18.42251	-66.64628	Abierta	Primario	K 1 2 3 4 5 6 7 8 EE EI	No	547	548	5	81.2%	Others	2.13%	881-6002	Carr. 638 Hm 5 Bo Miraflores	Arecibo	PR	6120000	D10439@de.pr.gov	2020-2021
Arecibo	Camuy	Quebradillas	12872	Dr. Pedro Albizu Campos	18.46849	-66.93915	Abierta	Primario	6 7 8 EI ES	No	144	149	2	23.7%	Targeted	0.00%	895-2780	Carr. 113 Calle Linares	Quebradillas	PR	6780000	D12872@de.pr.gov	2020-2021
Arecibo	Arecibo	Arecibo II	15024	Elba Lugo Carrion	18.45402	-66.74012	Abierta	Primario	K 1 2 3 4 5 EE	No	329	318	3	59.5%	Others	4.93%	879-4825	Urb. Villa Serena Calle Orquidea	Arecibo	PR	6120000	D15024@de.pr.gov	2020-2021
Arecibo	Vega Alta	Dorado	18259	Elemental Bo. Higuillar (Ecológica)	18.432552	-66.301143	Abierta	Primario	K 1 2 3 4 5 6 7 8 EE EI	No	542	527	2	35.0%	Others	2.18%	278-0321	Carr. 695 Km 1 Hm 16 Bo Higuillar	Dorado	PR	6460000	D18259@de.pr.gov	2020-2021
Arecibo	Vega Alta	Vega Alta	71720	Elemental Urbana	18.41309	-66.3293	Abierta	Primario	K 1 2 3 4 5 EE	No	173	184	3	49.6%	Others	1.08%	883-2770	Calle Teodomiro Ramirez	Vega Alta	PR	9620000	D71720@de.pr.gov	2020-2021
Arecibo	Manatí	Barceloneta	18176	Eli Ramos Rosario	18.44712	-66.55274	Abierta	Primario	PK K 1 2 3 4 5 EE	No	309	319	2	37.1%	Others	0.30%	846-3165	Carr 140 Bo Fortuna	Barceloneta	PR	6170000	D18176@de.pr.gov	2020-2021
Arecibo	Vega Alta	Vega Alta	71795	Elisa Dávila Vázquez	18.40217	-66.3027	Abierta	Primario	K 1 2 3 4 5	No	164	168	4	76.5%	Others	1.15%	883-1165	Carr 679 Km 2 Hm 3 Sect Fortuna Bo Espinosa	Vega Alta	PR	9620000	D71795@de.pr.gov	2020-2021
Arecibo	Arecibo	Arecibo I	10272	Eugenio María de Hostos	18.45702	-66.60817	Abierta	Primario	PK K 1 2 3 4 5 6 7 8	No	238	232	2	36.8%	Others	1.22%	881-3540	Carr 682 Km 7 Hm 5 Bo Garrochales	Arecibo	PR	6120000	D10272@de.pr.gov	2020-2021
Arecibo	Arecibo	Hatillo	11403	Eugenio María de Hostos	18.45603	-66.80989	Abierta	Primario	K 1 2 3 4 5 EE	No	259	248	2	22.3%	Others	0.00%	898-1586	Carr 2 Km 84 Hm 5 Calle B Bo Carrizales	Hatillo	PR	6590000	D11403@de.pr.gov	2020-2021
Arecibo	Manatí	Manatí	12138	Evaristo Camacho	18.38165	-66.46826	Abierta	Primario	K 1 2 3 4 5	No	105	104	4	74.4%	Others	0.93%	854-6315	Carr 643 Km 2 Hm 1 Bo Pugnado	Manatí	PR	6740000	D12138@de.pr.gov	2020-2021
Arecibo	Arecibo	Arecibo I	17780	Factor 5	18.4445	-66.63999	Abierta	Primario	K 1 2 3 4 5 EE	No	370	357	3	60.0%	Others	3.64%	881-3090	1 Secc Animas Bo Factor	Arecibo	PR	6120000	D17780@de.pr.gov	2020-2021
Arecibo	Manatí	Manatí	12070	Félix Córdova Dávila	18.43551	-66.4838	Abierta	Primario	K 1 2 3 4 5 EE	No	312	311	5	84.7%	Others	3.65%	854-4255	Carr 668 Km 1 Hm 8 Bda Cordova Davila	Manatí	PR	6740000	D12070@de.pr.gov	2020-2021
Arecibo	Manatí	Manatí	12088	Fernando Callejo	18.4277048099401	-66.4875351405873	Abierta	Secundario	9 10 11 12 ES	No	383	362	2	22.9%	Others	8.72%	854-2629	Calle Vending Esq Rosario	Manatí	PR	6740000	D12088@de.pr.gov	2020-2021
Arecibo	Manatí	Barceloneta	10702	Fernando Suria Chávez	18.4518108519861	-66.5386494651408	Abierta	Secundario	9 10 11 12 ES	No	620	557	2	39.7%	Others	6.59%	846-6750	Calle Georgetti Bo Pueblo	Barceloneta	PR	6170000	D10702@de.pr.gov	2020-2021
Arecibo	Manatí	Manatí	12062	Francisco Menéndez Balbañe	18.4130835231676	-66.5302004339302	Abierta	Primario	K 1 2 3 4 5	No	79	82	5	80.7%	Others	1.18%	854-3063	Carr 667 Km 4 Hm 6 Bo Cortes	Manatí	PR	6740000	D12062@de.pr.gov	2020-2021
Arecibo	Arecibo	Arecibo II	14787	Francisco Pachín Marín	18.4704112960203	-66.7546594021719	Abierta	Primario	K 1 2 3 4 5	No	307	298	3	49.8%	Others	3.96%	878-2019	Urb Vista Azul Calle 17	Arecibo	PR	6120000	D14787@de.pr.gov	2020-2021
Arecibo	Camuy	Lares	11593	Gabriela Mistral	18.1783912359536	-66.830715466734	Abierta	Todos Los Niveles	7 8 9 10 11 12	No	179	176	1	14.6%	Others	5.18%	829-1198	Carr 135 Km 65.6	Lares	PR	6690000	D11593@de.pr.gov	2020-2021
Arecibo	Camuy	Lares	12005	George Washington	18.3023132366433	-66.899608358477	Abierta	Primario	K 1 2 3 4 5	No	173	176	5	80.2%	Others	1.11%	897-4095	Carr 111 Km 33 Hm 9 Bo Pueblo Sect Serruquillo	Lares	PR	6690000	D12005@de.pr.gov	2020-2021
Arecibo	Manatí	Ciales	11239	Hato Viejo Cumbre	18.3606982236472	-66.4924852762132	Abierta	Primario	K 1 2 3 4 5	No	103	101	4	76.1%	Others	0.00%	871-3616	Carr 632 Km 2 Bo Hato Viejo	Ciales	PR	6380000	D11239@de.pr.gov	2020-2021
Arecibo	Camuy	Lares	18226	Héctor Hernández Arana	18.3181743523045	-66.8731038191634	Abierta	Primario	K 1 2 3 4 5 EE	No	405	400	5	86.6%	Others	1.42%	897-8100	Carr 129 Km 24.7	Lares	PR	6690000	D18226@de.pr.gov	2020-2021
Arecibo	Vega Alta	Vega Alta	71753	Ignacio Miranda	18.41052	-66.32616	Abierta	Primario	K 1 2 3 4 5	No	295	287	4	74.8%	Others	4.72%	883-2775	Calle B Urb Las Colinas	Vega Alta	PR	6930000	D71753@de.pr.gov	2020-2021
Arecibo	Vega Alta	Vega Alta	79038	Ileana De Gracia (Superior Nueva)	18.41993	-66.33517	Abierta	Secundario	9 10 11 12 ES	No	632	399	2	39.4%	Others	8.12%	270-3355	Carr 2 Km 31 Hm 8 Sect Bajuras	Vega Alta	PR	9620000	D79038@de.pr.gov	2020-2021
Arecibo	Manatí	Barceloneta	10744	Imbery	18.43753	-66.55764	Abierta	Primario	K 1 2 3 4 5 EE	No	343	340	3	47.4%	Others	0.28%	846-0361	Parcelas Imbery Calle 6 Esq 5	Barceloneta	PR	6170000	D10744@de.pr.gov	2020-2021
Arecibo	Manatí	Manatí	17392	Instituto Tec Recinto De Manati	18.4329039553549	-66.4723069869734	Abierta	PS - Instituto	SHARED	No					N/A		854-2050	Carr 2 Km 4 Hm 3	Manatí	PR	6740000	D17392@de.pr.gov	2020-2021
Arecibo	Vega Alta	Dorado	71076	Jacinto López Martínez	18.46031	-66.26129	Abierta	Primario	K 1 2 3 4 5 EE	No	350	343	2	34.1%	Others	2.75%	796-1255	Calle Norte #200	Dorado	PR	6460000	D71076@de.pr.gov	2020-2021
Arecibo	Manatí	Ciales	17889	Jaime Coira Ortiz	18.27293	-66.48243	Abierta	Primario	PK K 1 2 3 4 5 6 7 8	No	194	195	4	71.6%	Others	0.00%	871-4692	Carr 149 Ramal 615 Km 7	Ciales	PR	6380000	D17889@de.pr.gov	2020-2021
Arecibo	Manatí	Manatí	12096	Jesús T. Piñero	18.42624	-66.49088	Abierta	Primario	6 7 8 EI	No	239	241	1	15.6%	Targeted	3.89%	854-2259	Ave Rosas Esq Patriota Pozo	Manatí	PR	6740000	D12096@de.pr.gov	2020-2021
Arecibo	Arecibo	Arecibo II	10355	John W. Harris	18.46304	-66.73129	Abierta	Todos Los Niveles	PK K 1 2 3 4 5 EE EI ES	No	231	231	3	41.7%	Others	1.63%	878-1514	Ave Constitucion Bo Cotto	Arecibo	PR	6120000	D10355@de.pr.gov	2020-2021
Arecibo	Vega Alta	Vega Alta	18267	Jose Pagan de Jesús	18.43816	-66.33306	Abierta	Primario	K 1 2 3 4 5 6 7 8 EE	No	527	510	2	37.3%	Others	1.49%	270-8030	Carr 690 Kh.2.2 Bo Sabana Hoyos	Vega Alta	PR	9620962	D18267@de.pr.gov	2020-2021
Arecibo	Vega Alta	Dorado	71092	José Santos Alegría	18.46249	-66.26696	Abierta	Secundario	9 10 11 12 ES	No	749	717	2	34.5%	Others	5.63%	796-1520	Pedro J Rijos Final	Dorado	PR	6460001	D71092@de.pr.gov	2020-2021
Arecibo	Manatí	Ciales	17319	Juan A. Corretjer	18.34071	-66.47404	Abierta	Secundario	9 10 11 12 ES	No	543	517	2	22.6%	Others	3.73%	871-5405	Carr 146 Km 2 Bo Cordillera	Ciales	PR	6380000	D17319@de.pr.gov	2020-2021
Arecibo	Manatí	Manatí	14779	Juan A. Sánchez Dávila	18.42371	-66.48107	Abierta	Primario	K 1 2 3 4 5 EE	No	218	222	3	46.5%	Others	2.47%	854-7747	Carr 670 Km 1 Hm 2	Manatí	PR	6740000	D14779@de.pr.gov	2020-2021
Arecibo	Camuy	Quebradillas	12930	Juan Alejo Arizmendi	18.47474	-66.93604	Abierta	Secundario	9 10 11 12	No	367	358	2	22.4%	Others	0.80%	895-2180	Calle Francisco Avila	Quebradillas	PR	6780000	D12930@de.pr.gov	2020-2021
Arecibo	Manatí	Florida	10827	Juan Ponce De León II	18.35825	-66.56795	Abierta	Secundario	9 10 11 12 ES	No	545	514	3	43.9%	Others	5.09%	822-2050	Carr 631 Km 5 Bo Ceiba	Florida	PR	6500000	D10827@de.pr.gov	2020-2021
Arecibo	Vega Alta	Vega Baja	75267	Juan Quirindongo Morell	18.43197	-66.39969	Abierta	Secundario	9 10 11 12	No	499	445	2	32.1%	Others	7.20%	858-7844	Calle Q Fernal Urb El Rosario	Vega Baja	PR	6930000	D75267@de.pr.gov	2020-2021
Arecibo	Manatí	Florida	10710	Juanita Ramírez González	18.36364	-66.55081	Abierta	Primario	K 1 2 3 4 5 EE	No	322	314	3	54.0%	Others	1.19%	822-2190	Carr 642 Km 10 Hm 3 Comunidad Arroyo	Florida	PR	6500000	D10710@de.pr.gov	2020-2021
Arecibo	Camuy	Lares	11908	Julio Lebrón Soto	18.18159	-66.83379	Abierta	Primario	PK K 1 2 3 4 5 6 EE	No	220	221	3	41.2%	Others	0.45%	829-3916	Carr 135 Km 60 Bo Castañer	Lares	PR	6690000	D11908@de.pr.gov	2020-2021
Arecibo	Arecibo	Arecibo II	10314	Julio Seijo	18.44455	-66.75505	Abierta	Primario	PK K 1 2 3 4 5	No	175	174	4	78.5%	Others	3.80%	878-2062	Carr 129 Km 28 Hm 3 Bo Hato Arriba	Arecibo	PR	6120000	D10314@de.pr.gov	2020-2021
Arecibo	Vega Alta	Vega Alta	71779	Ladislao Martínez	18.40969	-66.32461	Abierta	Secundario	9 10 11 12	No	376	478	2	29.1%	Others	6.26%	883-5105	Calle C Urb Las Colinas	Vega Alta	PR	9620000	D71779@de.pr.gov	2020-2021
Arecibo	Manatí	Florida	17764	Leonardo Valentín Tirado	18.37234	-66.56535	Abierta	Primario	6 7 8	No	300	306	2	29.6%	Others	4.88%	822-2263	Carr 140 Calle Ramon Torres #12	Florida	PR	6500000	D17764@de.pr.gov	2020-2021
Arecibo	Arecibo	Arecibo I	14316	Libre De Musica	18.47243	-66.71874	Abierta	Todos Los Niveles	SHARED	No					N/A		879-3567	Carr 662 Sector Los Llanos Bo Santana	Arecibo	PR	6120000	D14316@de.pr.gov	2020-2021
Arecibo	Vega Alta	Vega Baja	71894	Lino Padrón Rivera	18.44501	-66.38459	Abierta	Secundario	9 10 11 12 ES	No	732	692	2	22.3%	Others	7.65%	858-2110	Calle Tulio Otero	Vega Baja	PR	6930000	D71894@de.pr.gov	2020-2021
Arecibo	Arecibo	Hatillo	11528	Lorenzo Coballes Gandía	18.48155	-66.82068	Abierta	Todos Los Niveles	6 7 8 9 10 11 12 ES	No	392	385	1	16.7%	Comprehensive	5.98%	898-4300	Carr 130 Km. 0.1 Sect. Los Alvarez	Hatillo	PR	6590000	D11528@de.pr.gov	2020-2021
Arecibo	Camuy	Camuy	17384	Luis F. Crespo	18.46535	-66.85207	Abierta	Secundario	9 10 11 12 ES	No	699	664	2	35.4%	Others	8.06%	262-8421	Carr 486 Km 3 Bo Puente	Camuy	PR	6270000	D17384@de.pr.gov	2020-2021
Arecibo	Camuy	Camuy	11756	Luis Felipe Rodríguez García	18.43254	-66.89158	Abierta	Primario	K 1 2 3 4 5 6 7 8 EE	No	543	544	3	53.7%	Others	1.07%	898-0990	Carr #483 Km 13 Hm 1 Bo Piedra Gorda Sector El Calvario	Arecibo	PR	6270000	D11756@de.pr.gov	2020-2021
Arecibo	Arecibo	Hatillo	11387	Luis Meléndez Rodríguez	18.4066106434772	-66.7813563817338	Abierta	Primario	K 1 2 3 4 5 6 7 8 EE EI	No	517	522	3	40.9%	Others	0.56%	898-9497	Carr 130 Km 11 Hm 1 Bo Campo Alegre	Hatillo	PR	6590000	D11387@de.pr.gov	2020-2021
Arecibo	Arecibo	Arecibo II	17111	Luis Muñoz Marín	18.4662	-66.74674	Abierta	Primario	K 1 2 3 4 5 6 7 8 EE EI	No	305	310	2	36.4%	Others	3.69%	880-0757	Carr 53 Km 1 Hm 5 Sect Barrancas	Arecibo	PR	6120000	D17111@de.pr.gov	2020-2021
Arecibo	Arecibo	Hatillo	11395	Luis Muñoz Rivera	18.45915	-66.80866	Abierta	Primario	K 1 2 3 4 5	No	335	328	4	65.1%	Others	1.46%	898-1830	Carr 130 Km 3 Hm 5 Bo Capaez	Hatillo	PR	6590000	D11395@de.pr.gov	2020-2021
Arecibo	Vega Alta	Dorado	71134	Luisa M. Valderrama (San Antonio)	18.44889	-66.29355	Abierta	Primario	K 1 2 3 4 5 EE	No	241	247	4	60.3%	Others	3.79%	796-4410	Carr 696 Km 1Hm 5 Bo Higillar	Dorado	PR	6460000	D71134@de.pr.gov	2020-2021
Arecibo	Vega Alta	Vega Baja	72082	Manuel Martínez Dávila	18.42951	-66.40829	Abierta	Primario	K 1 2 3 4 5 6 7 8 EE EI	No	545	541	2	26.8%	Others	2.43%	858-1152	Carr 155 Bo Pugnado	Vega Baja	PR	6930000	D72082@de.pr.gov	2020-2021
Arecibo	Arecibo	Arecibo II	18192	María Cadilla de Martínez	18.4413	-66.75795	Abierta	Secundario	9 10 11 12	No	388	376	2	37.9%	Others	5.10%	878-3480	Carr 129 Sector Las Cunetas, Int Carr 490 Frente Urb Villa Toledo	Arecibo	PR	6120000	D18192@de.pr.gov	2020-2021
Arecibo	Manatí	Manatí	17418	Nueva Juan S. Marchand	18.46071	-66.48679	Abierta	Primario	K 1 2 3 4 5 6 7 8	No	433	441	2	39.0%	Others	3.22%	854-4541	Carr 685 Sect Los Rabanos Bo Boquillas	Manatí	PR	6740000	D17418@de.pr.gov	2020-2021
Arecibo	Vega Alta	Vega Baja	13912	Nueva Brígida Álvarez Rodríguez	18.445451	-66.389915	Abierta	Todos Los Niveles	K 1 2 3 4 5 6 7 8 9 10 11 12 EE	No	732	675	5	80.7%	Others	8.60%	858-9649	Calle Betances Num.75	Vega Baja	PR	6930000	D13912@de.pr.gov	2020-2021
Arecibo	Manatí	Barceloneta	18184	Nueva Intermedia	18.4454	-66.55698	Abierta	Primario	6 7 8 EI	No	320	332	2	27.9%	Targeted	2.54%	846-2460	Carr 140 Bo Llanadas	Barceloneta	PR	6170000	D18184@de.pr.gov	2020-2021
Arecibo	Manatí	Ciales	18291	Nueva Urbana de Ciales	18.33875	-66.46743	Abierta	Primario	PK K 1 2 3 4 5 6 7 8 EE EI	Sí	653	667	2	25.8%	Others	3.13%	(787) 871-3165	Ext Corchado Salida Bo Pueblo	Ciales	PR	6380000	D18291@de.pr.gov	2020-2021
Arecibo	Camuy	Camuy	11080	Pedro Amador	18.48358	-66.88499	Abierta	Primario	K 1 2 3 4 5 EE	No	172	172	3	59.0%	Others	0.56%	898-1337	Carr 485 Km 2 Hm 2 Sect Bajura Bo Yaguada	Camuy	PR	6270000	D11080@de.pr.gov	2020-2021
Arecibo	Manatí	Manatí	17350	Petra Corretjer de O'Neill	18.42493	-66.46694	Abierta	Secundario	9 10 11 12 ES	No	569	520	3	50.4%	Others	5.56%	854-6601	Carr 670 Km 2 Hm 7	Manatí	PR	6740000	D17350@de.pr.gov	2020-2021
Arecibo	Camuy	Lares	11940	Profesor Rafael Alicea Vazquez (Josefina Linares)	18.2910909245233	-66.8385197609653	Abierta	Todos Los Niveles	2 3 4 5 6 7 8 9 10 11 12 EI ES	No	215	204	2	40.0%	Others	4.46%	897-1865	Carr 111 Km 12.5 Bo. Lares	Lares	PR	6690000	D11940@de.pr.gov	2020-2021
Arecibo	Vega Alta	Vega Alta	71746	Rafael Hernández	18.41734	-66.30981	Abierta	Primario	K 1 2 3 4 5	No	269	269	4	71.9%	Others	1.08%	883-1025	Calle 3 Urb Santa Ana	Vega Alta	PR	6920000	D71746@de.pr.gov	2020-2021
Arecibo	Vega Alta	Vega Baja	72058	Rafael Hernández	18.44813	-66.40785	Abierta	Primario	K 1 2 3 4 5 EE	No	244	242	3	47.8%	Others	3.38%	858-1994	Calle 12 I 100 Urb Jardines De Vega Baja	Vega Baja	PR	6930000	D72058@de.pr.gov	2020-2021
Arecibo	Camuy	Camuy	10967	Ralph W. Emerson	18.47208	-66.8733	Abierta	Primario	K 1 2 3 4 5 EE	No	409	401	3	55.5%	Others	0.72%	898-2037	Carr 2 Km 92.5 Hm 3 Bo Membrillo	Camuy	PR	6270000	D10967@de.pr.gov	2020-2021
Arecibo	Camuy	Lares	15917	Ramón de Jesús Sierra	18.2979316278074	-66.8802644789522	Abierta	Primario	6 7 8	No	451	448	2	31.0%	Others	0.22%	897-2590	Ave Los Patriotas	Lares	PR	6690000	D15917@de.pr.gov	2020-2021
Arecibo	Camuy	Quebradillas	12799	Ramón Emeterio Betances	18.47587	-66.93838	Abierta	Primario	PK K 1 2 3 4 5 EE	No	280	277	3	56.9%	Others	0.70%	895-2575	236 Calle San Justo	Quebradillas	PR	6780000	D12799@de.pr.gov	2020-2021
Arecibo	Vega Alta	Dorado	71084	Ricardo Arroyo Laracuente	18.46326	-66.26681	Abierta	Primario	6 7 8 EI	No	276	277	2	23.8%	Targeted	3.40%	796-1222	Calle Pedro J Carrionl #10	Dorado	PR	6460000	D71084@de.pr.gov	2020-2021
Arecibo	Manatí	Florida	17459	Ricardo Rodríguez Torres	18.36411	-66.57161	Abierta	Primario	PK K 1 2 3 4 5 EE	No	248	251	4	67.3%	Others	1.16%	822-1005	Carr 645 Km 12 Hm 3 Calle Antonio Alcarza	Florida	PR	6270000	D17459@de.pr.gov	2020-2021
Arecibo	Vega Alta	Vega Baja	71878	San Vicente	18.45529	-66.38282	Abierta	Primario	K 1 2 3 4 5	No	316	331	3	49.7%	Others	2.36%	807-6034	Urb San Vicente 82 Calle 10	Vega Baja	PR	6930000	D71878@de.pr.gov	2020-2021
Arecibo	Vega Alta	Vega Baja	72090	S. U. Almirante Norte	18.40873	-66.36765	Abierta	Primario	PK K 1 2 3 4 5 6 7 8 EE EI	No	471	480	2	22.5%	Others	1.60%	855-0931	Carr 160 Km 4 Hm 3 Bo Almirante Norte	Vega Baja	PR	6930000	D72090@de.pr.gov	2020-2021
Arecibo	Camuy	Lares	11932	S. U. Angélica Delgado	18.26961	-66.85241	Abierta	Primario	PK K 1 2 3 4 5 6 7 8 EE EI	No	401	405	3	57.9%	Others	0.97%	897-1905	Carr 129 Km 135 Barrio Buenos Aires Sec La America	Lares	PR	6690000	D11932@de.pr.gov	2020-2021
Arecibo	Arecibo	Arecibo II	17749	S. U. Barrio Sabana Hoyos (Nueva)	18.40143	-66.60302	Abierta	Primario	K 1 2 3 4 5 6 7 8 EE EI	No	595	600	2	38.5%	Others	2.46%	815-9087	Carr 639 Km 3 Hm 2 Bo. Sabana Hoyos	Arecibo	PR	6880000	D17749@de.pr.gov	2020-2021
Arecibo	Arecibo	Arecibo I	10322	S. U. Enrique de Jesús Borrás	18.40842	-66.69891	Abierta	Todos Los Niveles	K 1 2 3 4 5 6 7 8 EE EI ES	No	214	217	4	76.0%	Others	1.37%	878-7699	Carr 10 Km 78 Hm 9 Bo Hato Viejo	Arecibo	PR	6120000	D10322@de.pr.gov	2020-2021
Arecibo	Arecibo	Arecibo I	10546	S. U. Federico Degetau	18.44575	-66.665	Abierta	Primario	K 1 2 3 4 5 6 7 8 EE	No	538	534	2	28.8%	Others	1.50%	881-1524	Carr 2 Km 68 Bo Santana	Arecibo	PR	6120000	D10546@de.pr.gov	2020-2021
Arecibo	Vega Alta	Vega Alta	76349	S. U. Francisco Felicie Martínez	18.44576	-66.34864	Abierta	Primario	K 1 2 3 4 5 6 7 8 EE	No	525	527	3	40.5%	Others	1.09%	883-4535	Carr 693 Calle 2 Km 14 Hm 4 Bo Breñas	Vega Alta	PR	6920000	D76349@de.pr.gov	2020-2021
Arecibo	Manatí	Ciales	11320	Superior Francisco Serrano	18.2958	-66.49264	Abierta	Primario	PK K 1 2 3 4 5 6 7 8	No	322	332	2	27.4%	Others	2.07%	871-3385	Carr 149 Km 20 Hm 9 Bo Pesa	Ciales	PR	6380000	D11320@de.pr.gov	2020-2021
Arecibo	Camuy	Quebradillas	12914	S. U. Honorio Hernández	18.44124	-66.93173	Abierta	Primario	K 1 2 3 4 5 6 7 8 EE	No	336	341	3	41.5%	Targeted	0.00%	895-2962	Carr 113 Km 3 Hm 8 Bo San Antonio	Quebradillas	PR	6780000	D12914@de.pr.gov	2020-2021
Arecibo	Camuy	Camuy	10892	S. U. Joaquín Vázquez Cruz	18.37569	-66.87954	Abierta	Primario	K 1 2 3 4 5 6 7 8 EE	No	278	280	3	42.0%	Others	0.35%	820-2909	Carr 456 Km 4 Hm 9 Bo Cibao	Camuy	PR	6270000	D10892@de.pr.gov	2020-2021
Arecibo	Camuy	Quebradillas	12922	S. U. Luis Muñoz Rivera	18.45915	-66.91701	Abierta	Primario	PK K 1 2 3 4 5 6 7 8 EE	No	562	577	3	47.1%	Others	1.34%	895-2146	Carr 2 Ramal 484 Bo Cocos	Quebradillas	PR	6780000	D12922@de.pr.gov	2020-2021
Arecibo	Arecibo	Arecibo II	10512	S. U. Manuel Ruiz Gandía	18.42089	-66.74932	Abierta	Primario	K 1 2 3 4 5 6 7 8 EE	No	481	489	2	32.2%	Others	1.81%	879-0851	Carr 635 Km 2 Bo Dominguito	Arecibo	PR	6120000	D10512@de.pr.gov	2020-2021
Arecibo	Arecibo	Hatillo	11494	S. U. Rafael Zamot Cruz	18.36888	-66.79268	Abierta	Todos Los Niveles	K 1 2 3 4 5 6 7 8 EE EI ES	No	218	226	3	45.8%	Others	4.24%	820-0841	Carr 134 Km 27 Hm 21 Bo Bayaney	Hatillo	PR	6590000	D11494@de.pr.gov	2020-2021
Arecibo	Camuy	Camuy	11031	S. U. Santiago R. Palmer	18.36773	-66.83357	Abierta	Primario	K 1 2 3 4 5 6 7 8 EE	No	264	269	4	77.7%	Others	0.00%	898-7976	Carr 129 Km 1 Hm 6 Bo Quebrada	Camuy	PR	6270000	D11031@de.pr.gov	2020-2021
Arecibo	Manatí	Ciales	11312	S.U. Toribio Rivera	18.30385	-66.5552	Abierta	Primario	K 1 2 3 4 5 6 7 8	No	194	201	3	44.8%	Others	1.00%	871-4738	Carr 146 Km 14 Hm 6 Sec Sabana Bo Fronton	Ciales	PR	6380000	D11312@de.pr.gov	2020-2021
Arecibo	Camuy	Quebradillas	17368	Superior Manuel Ramos Hernández	18.47761	-66.93574	Abierta	Secundario	9 10 11 12	No	377	368	2	39.6%	Others	1.05%	895-7117	Carr 2 Km 101 Hm 3	Quebradillas	PR	6780000	D17368@de.pr.gov	2020-2021
Arecibo	Camuy	Camuy	17327	Superior Miguel F. Santiago Echegaray	18.3673178275867	-66.8340073662832	Abierta	Secundario	9 10 11 12 ES	No	250	243	3	41.6%	Others	4.23%	898-9299	Carr 486 Km 1 Hm 0 Bo Quebrada	Camuy	PR	6270000	D17327@de.pr.gov	2020-2021
Arecibo	Arecibo	Arecibo I	17558	Superior Vocacional	18.44175	-66.67191	Abierta	Secundario	9 10 11 12 ES	No	1211	1190	3	47.0%	Others	2.15%	880-6696	12 Bo Santana Sect Los Llanos	Arecibo	PR	6120000	D17558@de.pr.gov	2020-2021
Arecibo	Manatí	Manatí	12229	Teodomiro Taboas	18.42867	-66.48747	Abierta	Primario	K 1 2 3 4 5 EE	No	122	119	3	53.8%	Others	1.55%	854-2255	Calle Vendig Esq Georgetti	Manatí	PR	6740000	D12229@de.pr.gov	2020-2021
Arecibo	Arecibo	Hatillo	11502	Timoteo Delgado	18.42818	-66.78992	Abierta	Primario	6 7 8 EI	No	498	486	2	31.2%	Others	1.73%	898-9566	Carr 130 Km 8 Hm 3 Bo Pajuil	Hatillo	PR	6590000	D11502@de.pr.gov	2020-2021
Arecibo	Arecibo	Arecibo I	14241	Trina Padilla De Sanz	18.46557	-66.74341	Abierta	Todos Los Niveles	6 7 8 9 10 11 12 ES	No	360	352	1	13.9%	Comprehensive	3.23%	878-1365	Urb Villa Los Santos Carr 653 Km 1	Arecibo	PR	6120000	D14241@de.pr.gov	2020-2021
Arecibo	Manatí	Barceloneta	18234	Vicente Acevedo Ballester	18.4206060490488	-66.576333412116	Abierta	Primario	K 1 2 3 4 5 6 7 8	No	492	472	2	32.4%	Others	0.60%	846-0029	Carr 664 Km 1 Hm 0 Bo Magueyes	Barceloneta	PR	6170000	D18234@de.pr.gov	2020-2021
Arecibo	Arecibo	Arecibo II	10611	Víctor Rojas I	18.45843	-66.7394	Abierta	Todos Los Niveles	EE EI ES	No	51	52	3	50.0%	Comprehensive	6.90%	880-3551	Calle C Bda Victor Rojas I	Arecibo	PR	6120000	D10611@de.pr.gov	2020-2021
Arecibo	Camuy	Camuy	15156	Vocacional Agrícola Soller	18.3723	-66.89515	Abierta	PS - Otros	SHARED	No					N/A		898-6549	Carr 453 Km 6 Hm 6 Sect Soler Bo Cibao	Camuy	PR	6270000	D15156@de.pr.gov	2020-2021
Bayamón	Toa Baja	Toa Alta	74864	Abelardo Díaz Alfaro	18.36274	-66.21927	Abierta	Todos Los Niveles	6 7 8 EEI EES	No	395	388	2	30.9%	Others	5.66%	797-0315	Carr. 828 Au. Ramal Bo. Piñas	Toa Alta	PR	9530000	D74864@de.pr.gov	2020-2021
Bayamón	Toa Baja	Toa Baja	5987	Academia De Ciencias Y Tecnologia Alianza	18.4012092042512	-66.1799430369286	Abierta	Primario	K 1 2 3 4 5 6 7 8	No	131				N/A	0.00%	(787) 459-4580	Urb Rosaleda II Calle Tulipan RB20	Toa Baja	PR	949		2020-2021
Bayamón	Toa Baja	Toa Alta	78931	Adela Rolón Fuentes	18.3609	-66.21538	Abierta	Secundario	9 10 11 12 ES	No	631	605	2	29.2%	Others	1.83%	279-8282	Ave Principal, Toa Alta Heights	Toa Alta	PR	9540000	D78931@de.pr.gov	2020-2021
Bayamón	Toa Baja	Toa Baja	71514	Adolfina Irizarry De Puig	18.4397350592491	-66.2536156697863	Abierta	Secundario	9 10 11 12	No	398	397	2	26.9%	Comprehensive	5.68%	794-2018	Ave Luis Muñoz Rivera Final #2	Toa Baja	PR	9510000	D71514@de.pr.gov	2020-2021
Bayamón	Toa Baja	Toa Alta	74286	Agrícola de Bucarabones	18.38543	-66.21732	Abierta	PS - Otros	SHARED	No					N/A		780-0615	Carr 819 Km 1.1 Bucarabones	Toa Alta	PR	9530000	D74286@de.pr.gov	2020-2021
Bayamón	Orocovis	Orocovis	14340	Alberto Meléndez	18.2238955265333	-66.3927263857165	Abierta	Secundario	9 10 11 12	No	321	298	2	38.8%	Others	5.09%	867-3353	Calle Juan D Rivera De Santiago	Orocovis	PR	00720-0000	D14340@de.pr.gov	2020-2021
Bayamón	Toa Baja	Toa Alta	71449	Alejandro Jr. Cruz	18.36625	-66.25677	Abierta	Primario	K 1 2 3 4 5 EE	No	155	148	4	64.4%	Others	0.00%	870-1662	Carr 165 Km4 Bo Galateo	Toa Alta	PR	9540000	D71449@de.pr.gov	2020-2021
Bayamón	Toa Baja	Toa Baja	71530	Altinencia Valle	18.42334	-66.23427	Abierta	Primario	K 1 2 3 4 5 6 7 8 EE	No	590	586	2	31.6%	Others	1.98%	794-1460	Bo Campanilla Calle Palma 2	Toa Baja	PR	9510000	D71530@de.pr.gov	2020-2021
Bayamón	Bayamón	Bayamón II	70672	Andrés C. González	18.31756	-66.1648	Abierta	Primario	K 1 2 3 4 5 6 7 8 EI	No	132	140	2	26.5%	Additional Targeted	1.42%	797-6580	Carr 829 Km 5 Hm 5 Bo Santa  Oyala	Bayamón	PR	9570000	D70672@de.pr.gov	2020-2021
Bayamón	Orocovis	Morovis	17186	Ángel G. Quintero	18.35816	-66.44581	Abierta	Primario	6 7 8 EI	No	348	345	3	42.4%	Others	1.13%	862-1716	Carr 633 Km 4 Hm 7 Bo Barahona	Morovis	PR	00687-0000	D17186@de.pr.gov	2020-2021
Bayamón	Orocovis	Orocovis	12740	Ángel Rafael Díaz Colón	18.2043156838638	-66.4225778479512	Abierta	Todos Los Niveles	K 1 2 3 4 5 6 7 8 9 10 11 12 EE EI	No	210	212	5	83.0%	Others	0.00%	867-4686	Carr 566 Km 2 Hm I Bo Saltos	Orocovis	PR	00720-0000	D12740@de.pr.gov	2020-2021
Bayamón	Toa Baja	Toa Baja	71654	Basilio Milán Hernández	18.43839	-66.17358	Abierta	Primario	6 7 8 EI	No	429	409	2	22.3%	Others	5.96%	795-6570	Ave Jose De Diego Esq Sabana Seca	Toa Baja	PR	9500000	D71654@de.pr.gov	2020-2021
Bayamón	Corozal	Naranjito	71290	Bernarda Robles De Hevia	18.29585	-66.21263	Abierta	Primario	PK K 1 2 3 4 5	Sí	134	125	2	30.8%	Others	2.88%	869-1433	Carr 167 Km 7 Hm 7 Bo Parcelas	Naranjito	PR	7190000	D71290@de.pr.gov	2020-2021
Bayamón	Bayamón	Bayamón II	70409	Bernardo Huyke	18.35867	-66.16102	Abierta	Primario	PK K 1 2 3 4 5 6	Sí	314	307	3	41.0%	Others	2.45%	786-5275	8Va Secc Urb Santa Juanita Calle Pensacola	Bayamón	PR	9560000	D70409@de.pr.gov	2020-2021
Bayamón	Bayamón	Bayamón I	70078	Cacique Agüeybana	18.4071392477442	-66.1715281486216	Abierta	Todos Los Niveles	6 7 8 9 10 11 12 EI	No	545	541	3	42.7%	Others	0.36%	780-9906	Urb Sierra Bayamon Calle 61	Bayamón	PR	9607061	D70078@de.pr.gov	2020-2021
Bayamón	Bayamón	Bayamón II	70433	Carlos Orama Padilla	18.37668	-66.16742	Abierta	Primario	PK K 1 2 3 4 5	No	367	347	3	58.3%	Others	1.84%	785-5630	Calle 10 Urb Magnolia Gardens	Bayamón	PR	9560000	D70433@de.pr.gov	2020-2021
Bayamón	Toa Baja	Toa Baja	71662	Carmen Barroso Morales	18.43399	-66.17268	Abierta	Primario	K 1 2 3 4 5	No	258	250	4	76.1%	Others	4.44%	795-8885	Calle Ramon Morla 6Ta Secc. Levittown	Toa Baja	PR	9490000	D71662@de.pr.gov	2020-2021
Bayamón	Bayamón	Bayamón I	70540	Carmen Gómez Tejera	18.39044	-66.14161	Abierta	Primario	K 1 2 3 4 5 EE	No	324	311	2	30.3%	Others	2.96%	269-5963	Ave Main Santa Rosa	Bayamón	PR	9560000	D70540@de.pr.gov	2020-2021
Bayamón	Corozal	Naranjito	74237	Coleen Vázquez Urrutia	18.29895	-66.25257	Abierta	Primario	K 1 2 3 4 5 6 7 8 EE EI	No	311	311	3	42.1%	Comprehensive	0.95%	869-1309	Carr 164 Km 7 Hm 1 Bo Achiote	Naranjito	PR	7190000	D74237@de.pr.gov	2020-2021
Bayamón	Bayamón	Bayamón II	70425	Cristóbal Colón	18.37521	-66.15804	Abierta	Primario	K 1 2 3 4 5 EE	No	217	238	3	46.0%	Others	3.63%	785-1190	Urb Lomas Verdes Calle Tulipan Esq Sauce	Bayamón	PR	9560000	D70425@de.pr.gov	2020-2021
Bayamón	Toa Baja	Toa Baja	71639	Delia Dávila De Caban	18.43506	-66.18149	Abierta	Primario	PK K 1 2 3 4 5 6	Sí	221	221	3	41.3%	Others	5.51%	261-1340	Calle Lago Las Curias Final 5Ta Seccion Levittown	Toa Baja	PR	9490000	D71639@de.pr.gov	2020-2021
Bayamón	Toa Baja	Toa Baja	71647	Dr. Efrain Sánchez Hidalgo	18.44162	-66.16943	Abierta	Primario	K 1 2 3 4 5 EE	No	349	326	3	52.2%	Others	5.93%	784-5570	Mariano Abril Costalo 6To Sec Levittown	Toa Baja	PR	9500000	D71647@de.pr.gov	2020-2021
Bayamón	Bayamón	Bayamón III	70136	Dr. Hiram Gonzólez	18.3842089189294	-66.1749004869738	Abierta	Primario	PK K 1 2 3 4 5 EE	No	356	335	2	36.0%	Others	7.61%	785-2536	Urb San Fernando 9 Interior Calle Los Millones	Bayamón	PR	9570000	D70136@de.pr.gov	2020-2021
Bayamón	Bayamón	Bayamón II	70565	Dr. José Padín	18.37319	-66.15324	Abierta	Todos Los Niveles	EI ES	No	77	75			N/A	13.33%	785-0010	Urb Lomas Verdes Calle Jacinto Esq Dragon	Bayamón	PR	9560000	D70565@de.pr.gov	2020-2021
Bayamón	Corozal	Corozal	71043	Dr. José Padín	18.29035	-66.35331	Abierta	Todos Los Niveles	K 1 2 3 4 5 6 7 8 9 10 11 12 EE EI	No	496	485	3	43.3%	Comprehensive	2.36%	859-0304	Carr 565 Km 6 Bo Cuchillas	Corozal	PR	7830000	D71043@de.pr.gov	2020-2021
Bayamón	Toa Baja	Toa Baja	71670	Dr. Pedro Albizu Campos	18.44928	-66.18166	Abierta	Secundario	9 10 11 12	No	599	578	2	27.3%	Others	5.74%	784-4605	Ave Boulevard 4Ta Secc Levittown	Toa Baja	PR	9490000	D71670@de.pr.gov	2020-2021
Bayamón	Bayamón	Bayamón I	70516	Dr. Agustín Stahl	18.3992	-66.15863	Abierta	Secundario	9 10 11 12	No	392	367	2	27.7%	Others	3.47%	785-2329	Calle Parque Esq Betances	Bayamón	PR	9560000	D70516@de.pr.gov	2020-2021
Bayamón	Bayamón	Bayamón I	70490	Dr. José Antonio Dávila	18.39262	-66.15916	Abierta	Primario	6 7 8 EI	No	396	386	2	30.2%	Comprehensive	4.15%	785-2292	Carr 167 Km 5 Salida Bayamon A Comerio	Bayamón	PR	9560000	D70490@de.pr.gov	2020-2021
Bayamón	Corozal	Corozal	70888	Emilio R. Delgado	18.3403	-66.32194	Abierta	Secundario	9 10 11 12 ES	No	685	655	3	48.6%	Others	6.07%	859-2037	Carr 159 Km 13	Corozal	PR	7830000	D70888@de.pr.gov	2020-2021
Bayamón	Bayamón	Bayamón III	70144	Epifanio Fernández Vanga	18.38921	-66.17887	Abierta	Primario	K 1 2 3 4 5 EE	No	253	250	3	50.6%	Others	0.00%	785-8373	Urb Santa Monica Calle 8 A	Bayamón	PR	9600000	D70144@de.pr.gov	2020-2021
Bayamón	Toa Baja	Toa Baja	71571	Ernestina Bracero	18.41632	-66.21055	Abierta	Primario	PK K 1 2 3 4 5 6 EE	Sí	230	232	4	72.0%	Others	8.68%	784-5540	Candelaria Arenas Carr 865 Km 03	Toa Baja	PR	9510000	D71571@de.pr.gov	2020-2021
Bayamón	Orocovis	Morovis	12260	Esperanza González	18.30802	-66.39342	Abierta	Primario	PK K 1 2 3 4 5	No	201	205	3	47.6%	Others	0.48%	862-2792	Carr 159 Km 9 Ramal 618 Bo Cuchillas	Morovis	PR	00687-0000	D12260@de.pr.gov	2020-2021
Bayamón	Bayamón	Bayamón I	70599	Faustino Santiago	18.39319	-66.13266	Abierta	Primario	K 1 2 3 4 5 6 EE	No	205	212	1	19.8%	Others	2.25%	787-3251	Urb Jardines De Caparra Ave Colectora Central	Bayamón	PR	9590000	D70599@de.pr.gov	2020-2021
Bayamón	Corozal	Corozal	70904	Fidel López Colon	18.3411151181601	-66.3082369186044	Abierta	Primario	K 1 2 3 4 5	No	359	366	2	31.3%	Others	1.01%	859-4592	Bo Pueblo	Corozal	PR	7830000	D70904@de.pr.gov	2020-2021
Bayamón	Toa Baja	Toa Baja	71704	Francisca Dávila Semprit	18.4268	-66.18486	Abierta	Todos Los Niveles	K 1 2 3 4 5 6 7 8 EI ES	No	293	290	2	31.3%	Comprehensive	4.72%	784-3455	Carr 866 Ave. Principal Bo Sabana Seca	Toa Baja	PR	9490000	D71704@de.pr.gov	2020-2021
Bayamón	Bayamón	Bayamón III	78733	Francisco Gaztambide Vega	18.33498	-66.20119	Abierta	Secundario	9 10 11 12	No	443	433	2	34.0%	Others	3.25%	799-0563	Carr 167 Km 13 Hm 8 Buena Vista	Bayamón	PR	9590000	D78733@de.pr.gov	2020-2021
Bayamón	Corozal	Naranjito	78956	Francisco López Cruz	18.298222	-66.240345	Abierta	Todos Los Niveles	K 1 2 3 4 5 EE ES	No	368	373	2	31.0%	Others	2.33%	869-3230	Carr #164 Km 3 Hm 1	Naranjito	PR	7190000	D78956@de.pr.gov	2020-2021
Bayamón	Bayamón	Bayamón III	70284	Francisco Manrique Cabrera	18.36872	-66.19271	Abierta	Todos Los Niveles	6 7 8 9 10 11 12 EI ES	No	765	758	2	26.1%	Others	3.23%	797-8110	Urb Rexville Calle 41 Final	Bayamón	PR	9570000	D70284@de.pr.gov	2020-2021
Bayamón	Corozal	Naranjito	71225	Francisco Morales	18.29953	-66.24925	Abierta	Secundario	9 10 11 12	No	329	325	1	17.7%	Others	4.82%	869-5277	Carr 152 Calle Georgetti Interior	Naranjito	PR	7190000	D71225@de.pr.gov	2020-2021
Bayamón	Toa Baja	Cataño	70813	Francisco Oller	18.442503598744	-66.1284424888196	Abierta	Secundario	9 10 11 12	No	598	543	2	26.1%	Others	1.77%	788-1696	Ave Las Nereidas	Cataño	PR	9620000	D70813@de.pr.gov	2020-2021
Bayamón	Orocovis	Morovis	12245	Francisco Rivera Claudio	18.32594	-66.40145	Abierta	Primario	6 7 8 EI	No	325	320	2	22.1%	Others	0.60%	862-8217	Carr 159Km 1 Hm O Ave. Corozal	Morovis	PR	00687-0000	D12245@de.pr.gov	2020-2021
Bayamón	Corozal	Naranjito	76356	Francisco Roque Muñoz	18.28085	-66.24554	Abierta	Primario	PK K 1 2 3 4 5 EE	No	137	136	4	65.6%	Others	1.39%	869-3121	Carr 814 Km 4 Bo Anones	Naranjito	PR	7190000	D76356@de.pr.gov	2020-2021
Bayamón	Corozal	Corozal	70912	Genaro Bou	18.34841	-66.33589	Abierta	Primario	K 1 2 3 4 5 EE	No	176	176	2	23.4%	Others	2.13%	859-1566	Carr 818 Interior Bo Cibuco	Corozal	PR	7830000	D70912@de.pr.gov	2020-2021
Bayamón	Bayamón	Bayamón II	70664	Herminia Rivera Fernández	18.31667	-66.1437	Abierta	Primario	K 1 2 3 4 5 6 7 8 EE EI	No	326	318	2	35.0%	Others	2.08%	787-9774	Carr 174 Km 10 Hm 9 Bo Guaraguao	Bayamón	PR	9560000	D70664@de.pr.gov	2020-2021
Bayamón	Bayamón	Bayamón I	70458	Inés María Mendoza	18.38724	-66.15097	Abierta	Primario	K 1 2 3 4 5 EE	No	336	334	2	21.9%	Others	0.29%	780-8232	Ave Teniente Martinez Alturas De Flamboyan	Bayamón	PR	9650000	D70458@de.pr.gov	2020-2021
Bayamón	Toa Baja	Toa Alta	77461	Int. Bo. Quebrada Arenas	18.3455034422294	-66.2799542158093	Abierta	Primario	K 1 2 3 4 5 6 7 8 EI	No	723	719	4	67.5%	Others	5.16%	(787) 870-2500	Carr 159 Km 19.0 Bo Quebrada Arenas	Toa Alta	PR	9530000	D77461@de.pr.gov	2020-2021
Bayamón	Toa Baja	Cataño	70755	Isaac Del Rosario	18.42984	-66.14369	Abierta	Primario	PK K 1 2 3 4 5 EE	No	517	516	2	33.6%	Others	2.42%	788-7210	Ave Flor Del Valle Urb Las Vegas	Cataño	PR	9620000	D70755@de.pr.gov	2020-2021
Bayamón	Orocovis	Morovis	12377	Jaime A. Collazo del Río	18.32492	-66.40455	Abierta	Secundario	9 10 11 12	No	596	571	2	35.9%	Others	1.66%	862-2300	Carr 159 Km  O Hm 7 Ave Corozal Bo Pueblo	Morovis	PR	00687-0000	D12377@de.pr.gov	2020-2021
Bayamón	Bayamón	Bayamón II	70508	Jesús Sánchez Erazo	18.35848	-66.15721	Abierta	Primario	6 7 8	No	492	488	3	43.5%	Targeted	2.61%	787-4831	Urb Santa Juanita Calle Martiz Secc 9	Bayamón	PR	9560000	D70508@de.pr.gov	2020-2021
Bayamón	Orocovis	Morovis	12369	Jorge L. Marrero Padilla (Elemental Urbana)	18.3263439719763	-66.4090154002119	Abierta	Primario	K 1 2 3 4 5 EE	No	287	281	3	58.8%	Others	1.01%	862-0000	Calle Del Carmen Final Bo Pueblo	Morovis	PR	00687-0000	D12369@de.pr.gov	2020-2021
Bayamón	Bayamón	Bayamón II	70482	José Campeche	18.35157	-66.16018	Abierta	Primario	K 1 2 3 4 5 EE	No	217	214	2	37.8%	Others	2.58%	786-1580	Urb Santa Juanita Calle Roble Secc 11	Bayamón	PR	9560000	D70482@de.pr.gov	2020-2021
Bayamón	Toa Baja	Toa Alta	71399	José M. del Valle	18.3869	-66.21663	Abierta	Primario	K 1 2 3 4 5	No	266	267	2	28.4%	Others	2.89%	798-5375	Carr 819 Km 1Hm 6 Bo Bucarabones Ii	Toa Alta	PR	9530000	D71399@de.pr.gov	2020-2021
Bayamón	Bayamón	Bayamón III	70680	José M. Torres	18.30055	-66.1867	Abierta	Primario	K 1 2 3 4 5 6 7 8 EE	No	116	118	2	33.3%	Others	1.65%	730-0090	Carr 167 Ramal 812 Km 3 Hm 1 Bo Dajaos	Bayamón	PR	9560000	D70680@de.pr.gov	2020-2021
Bayamón	Toa Baja	Toa Baja	71548	José Nevárez López	18.40243	-66.25396	Abierta	Primario	PK K 1 2 3 4 5 EE	No	146	146	2	39.3%	Others	6.37%	(787) 870-1855	Calle 33 Nueva Bo San Jose	Toa Baja	PR	9510000	D71548@de.pr.gov	2020-2021
Bayamón	Toa Baja	Toa Alta	71373	José Pablo Morales	18.39091	-66.2489	Abierta	Primario	6 7 8 EI	No	231	241	2	29.4%	Others	1.64%	870-2135	Calle Barcelo #50	Toa Alta	PR	9530000	D71373@de.pr.gov	2020-2021
Bayamón	Toa Baja	Toa Baja	71522	José Robles Otero	18.4442	-66.22946	Abierta	Primario	PK K 1 2 3 4 5 EE	Sí	201	200	3	43.8%	Others	3.38%	794-3470	Carr 867 Km 5 Bo Ingenio	Toa Baja	PR	9490000	D71522@de.pr.gov	2020-2021
Bayamón	Orocovis	Orocovis	14357	José Rojas Cortes	18.2214024468635	-66.3903048116605	Abierta	Secundario	9 10 11 12 ES	No	513	481	2	38.8%	Others	0.77%	867-2630	Calle Juan D Rivera Y Santiago	Orocovis	PR	00720-0000	D14357@de.pr.gov	2020-2021
Bayamón	Orocovis	Morovis	18242	Josefa del Río Guerrero	18.3349577394698	-66.4296879581391	Abierta	Secundario	9 10 11 12 ES	No	396	382	2	30.4%	Comprehensive	3.51%	862-3305	Carr 155 Km 1.6 Bo Pueblo	Morovis	PR		D18242@de.pr.gov	2020-2021
Bayamón	Bayamón	Bayamón II	70532	Josefita Monserrate De Selles	18.38037	-66.14879	Abierta	Primario	K 1 2 3 4 5 EE	No	213	201	3	50.8%	Others	3.21%	785-2238	Pmb 263 Uu-1  C/39	Bayamón	PR	9560000	D70532@de.pr.gov	2020-2021
Bayamón	Bayamón	Bayamón III	70177	Juan Morell Campos	18.397	-66.1717	Abierta	Primario	K 1 2 3 4 5 EE	No	305	300	2	20.3%	Others	3.09%	786-5520	Urb Ext Villa Rica Calle 4 Esq 5	Bayamón	PR	9590000	D70177@de.pr.gov	2020-2021
Bayamón	Bayamón	Bayamón I	70060	Juan Ramón Jiménez	18.40438	-66.18355	Abierta	Primario	6 7 8 EI	No	336	324	2	25.3%	Comprehensive	2.92%	798-5428	Carr 864 Bo Hato Tejas	Bayamón	PR	9560000	D70060@de.pr.gov	2020-2021
Bayamón	Orocovis	Morovis	12278	Juana G. Avilés (Fránquez)	18.35627	-66.40972	Abierta	Primario	K 1 2 3 4 5	No	264	263	3	54.6%	Others	2.15%	862-2440	Carr 155 Km 2 Hm 1 Ramal 634 Bo Franquez	Morovis	PR	6870479	D12278@de.pr.gov	2020-2021
Bayamón	Bayamón	Bayamón II	70292	Julio Ressy	18.34489	-66.17287	Abierta	Primario	K 1 2 3 4 5	No	312	306	3	59.3%	Others	0.93%	799-4950	Carr 830 Km 2 Hm 2 Cerro Gordo	Bayamón	PR	9560000	D70292@de.pr.gov	2020-2021
Bayamón	Bayamón	Bayamón I	70094	Ludovico Costoso	18.40615	-66.17691	Abierta	Todos Los Niveles	EE EI ES	No	92	89	4	67.3%	Others	4.08%	787-9792	Ave Cementerio Nacional Hato Tejas	Bayamón	PR	9608246	D70094@de.pr.gov	2020-2021
Bayamón	Toa Baja	Toa Baja	71498	Luis M. Santiago	18.44053	-66.25291	Abierta	Primario	K 1 2 3 4 5 6 7 8 EE EI	No	250	261	3	45.4%	Comprehensive	3.61%	794-1445	Calle Luis Muñoz Rivera #6	Toa Baja	PR	9490000	D71498@de.pr.gov	2020-2021
Bayamón	Bayamón	Bayamón I	70581	Luis Palés Matos	18.39051	-66.14257	Abierta	Todos Los Niveles	6 7 8 9 10 11 12	No	405	375	2	23.1%	Others	5.18%	288-1075	Urb Santa Rosa Calle 11 Esq 17	Bayamón	PR	9590000	D70581@de.pr.gov	2020-2021
Bayamón	Corozal	Corozal	70870	Manuel Bou Gali	18.34263	-66.32008	Abierta	Primario	K 1 2 3 4 5 6 7 8 EI	No	485	489	2	25.9%	Targeted	2.10%	859-4656	Carr 891 Km 13 Hm 2	Corozal	PR	7830000	D70870@de.pr.gov	2020-2021
Bayamón	Toa Baja	Toa Alta	71472	Manuel Velilla	18.36956	-66.21746	Abierta	Primario	K 1 2 3 4 5 6 7 8 EE	No	299	307	3	43.8%	Others	4.32%	797-3558	Carr 861 Km 5.9 Bo Piñas	Toa Alta	PR	9530000	D71472@de.pr.gov	2020-2021
Bayamón	Toa Baja	Toa Alta	73890	María C. Osorio	18.36425	-66.21204	Abierta	Primario	PK K 1 2 3 4 5 EE	No	386	382	3	45.6%	Others	1.49%	799-3562	Urb Toa Alta Heights Calle 19 Bo Piñas	Toa Alta	PR	9530000	D73890@de.pr.gov	2020-2021
Bayamón	Bayamón	Bayamón II	70557	María E. Bas de Vázquez	18.37452	-66.14577	Abierta	Primario	K 1 2 3 4 5 EE	No	268	266	2	36.7%	Others	2.10%	786-5586	Carr 831 Urb Lomas Verdes	Bayamón	PR	9560000	D70557@de.pr.gov	2020-2021
Bayamón	Toa Baja	Toa Baja	74476	María J. Corredor Rivera	18.40004	-66.20003	Abierta	Primario	K 1 2 3 4 5 EE	No	202	200	4	66.5%	Others	2.86%	740-2225	Calle Campo Amor Esq. Pelayo Urb Covadonga	Toa Baja	PR	9490000	D74476@de.pr.gov	2020-2021
Bayamón	Toa Baja	Toa Baja	74039	María Teresa Piñeiro	18.42989	-66.18531	Abierta	Secundario	9 10 11 12 ES	No	342	331	2	36.6%	Others	5.04%	784-4140	Calle Los Marquez Final Bo Sabana	Toa Baja	PR	9490000	D74039@de.pr.gov	2020-2021
Bayamón	Bayamón	Bayamón III	70367	María Vázquez de Umpierre	18.3432	-66.19601	Abierta	Primario	K 1 2 3 4 5 6 7 8 EI	No	380	380	2	25.5%	Others	1.23%	797-5360	Carr 167 Km 15 Hm 3 Parc Vans Coy Bo Buena Vista	Bayamón	PR	9570000	D70367@de.pr.gov	2020-2021
Bayamón	Bayamón	Bayamón II	70573	Mariano Feliu Balseiro	18.37307	-66.14604	Abierta	Primario	6 7 8 EI	No	252	264	2	30.6%	Comprehensive	5.71%	785-9185	Urb Lomas Verdes Carr 831	Bayamón	PR	9560000	D70573@de.pr.gov	2020-2021
Bayamón	Bayamón	Bayamón III	70250	Marta Vélez De Fajardo	18.35196	-66.1865	Abierta	Primario	K 1 2 3 4 5 6 7 8	No	547	542	3	54.3%	Others	3.45%	797-1775	Urb Cana 100 Calle 11	Bayamón	PR	9570000	D70250@de.pr.gov	2020-2021
Bayamón	Toa Baja	Toa Baja	78832	Martín García Giusti	18.39932	-66.20876	Abierta	Todos Los Niveles	K 1 2 3 4 5 6 7 8 EE EI ES	No	352	343	2	27.3%	Others	3.29%	251-2231	Carr 863 Km 0 Hm 9 Bo Pajaros	Toa Baja	PR	9490000	D78832@de.pr.gov	2020-2021
Bayamón	Toa Baja	Cataño	73668	Mercedes García de Colorado	18.4355	-66.14768	Abierta	Primario	6 7 8 EI	No	259	248	1	14.4%	Others	0.75%	788-4025	Ave Flor Del Valle Final Urb Las Vegas	Cataño	PR	9620000	D73668@de.pr.gov	2020-2021
Bayamón	Corozal	Naranjito	71217	Mercedes Rosado	18.301513510484	-66.2485375888209	Abierta	Todos Los Niveles	6 7 8 EI ES	No	378	377	2	39.5%	Targeted	1.27%	869-3130	Carr 152 Calle Georgetty	Naranjito	PR	7190000	D71217@de.pr.gov	2020-2021
Bayamón	Bayamón	Bayamón II	70615	Miguel de Cervantes Saavedra	18.36926	-66.14894	Abierta	Secundario	9 10 11 12 ES	No	331	316	2	32.0%	Others	5.13%	785-0241	Carr 831 Urb Lomas Verdes	Bayamón	PR	9600000	D70615@de.pr.gov	2020-2021
Bayamón	Bayamón	Bayamón II	70276	Miguel Meléndez Muñoz	18.36999	-66.17751	Abierta	Secundario	9 10 11 12	No	604	597	3	46.0%	Others	2.11%	799-7300	Carr 840 Km 1 Hm 1 Sector La Aldea	Bayamón	PR	9570000	D70276@de.pr.gov	2020-2021
Bayamón	Orocovis	Orocovis	17871	Nélida Meléndez Meléndez	18.22935	-66.39222	Abierta	Primario	K 1 2 3 4 5 6 7 8 EE	No	428	418	4	72.3%	Others	0.69%	867-2840	Carr 155 Int Ave Luis M Marin	Orocovis	PR	7200000	D17871@de.pr.gov	2020-2021
Bayamón	Toa Baja	Toa Alta	71381	Nicolás Sevilla	18.39144	-66.24862	Abierta	Secundario	9 10 11 12 ES	No	556	546	1	14.2%	Others	5.79%	870-2570	Urb Jard De Toa Alta Calle 1	Toa Alta	PR	9530000	D71381@de.pr.gov	2020-2021
Bayamón	Bayamón	Bayamón III	76257	Nueva Escuela S.U. Antonio Rivera	18.27695	-66.19346	Abierta	Primario	K 1 2 3 4 5 6 7 8 EE EI	No	175	164	1	19.5%	Others	0.56%	730-6588	Carr 167 Ramal 816 Km 6 Bo Nuevo	Bayamón	PR	9560000	D76257@de.pr.gov	2020-2021
Bayamón	Toa Baja	Cataño	70805	Onofre Carballeira	18.4423312106593	-66.1280516311491	Abierta	Todos Los Niveles	6 7 8 EI ES	No	246	244	1	19.6%	Comprehensive	1.16%	788-8975	Ave Las Nereidas	Cataño	PR	9620000	D70805@de.pr.gov	2020-2021
Bayamón	Orocovis	Morovis	12435	Oscar Rodríguez Rivera (Barahona)	18.3549667644971	-66.442652575326	Abierta	Primario	PK K 1 2 3 4 5 EE	No	287	283	4	63.4%	Others	1.69%	862-2010	Carr 33 Km 4 Hm O Bo Barahona	Morovis	PR	00687-0000	D12435@de.pr.gov	2020-2021
Bayamón	Bayamón	Bayamón III	70201	Pablo Casals	18.37854	-66.18717	Abierta	Todos Los Niveles	6 7 8 9 10 11 12	No	463	459	4	60.5%	Others	1.90%	799-0820	Urb Bayamon Gardens Calle D	Bayamón	PR	9560000	D70201@de.pr.gov	2020-2021
Bayamón	Corozal	Corozal	77669	Pablo David Burgos Marrero (Nueva Superior con Departamento Vocacional)	18.3496454441717	-66.3038722470422	Abierta	Secundario	9 10 11 12 ES	No	424	420	4	64.0%	Others	1.39%	(787) 859-2800	Pr-159 Int Camino Albino Bo Abras	Corozal	PR	7830000	D77669@de.pr.gov	2020-2021
Bayamón	Bayamón	Bayamón III	77552	Papa Juan XXIII	18.39451	-66.17412	Abierta	Todos Los Niveles	6 7 8 9 10 11 12	No	670	663	4	74.2%	Others	5.06%	798-4611	Isla Nena 10 Esq Ao Villa Rica	Bayamón	PR	9590000	D77552@de.pr.gov	2020-2021
Bayamón	Bayamón	Bayamón I	73650	Pedro P. Casablanca	18.39477	-66.12655	Abierta	Todos Los Niveles	7 8 9 10 11 12 EE EI ES	No	220	225	2	26.4%	Comprehensive	4.10%	782-1562	Urb Jardines De Caparra Calle 21 #200	Bayamón	PR	9590000	D73650@de.pr.gov	2020-2021
Bayamón	Bayamón	Bayamón II	70417	Rafael Colón Salgado	18.36303	-66.17162	Abierta	Primario	K 1 2 3 4 5 6 7 8 EE EI	No	535	514	3	45.5%	Others	2.72%	799-0333	Urb Royal Town Calle 3 Final	Bayamón	PR	9560000	D70417@de.pr.gov	2020-2021
Bayamón	Toa Baja	Cataño	70763	Rafael Cordero	18.43734	-66.12502	Abierta	Primario	K 1 2 3 4 5 EE	No	475	461	2	35.4%	Others	1.79%	788-1557	Calle Marginal Ave Los Caños	Cataño	PR	9620000	D70763@de.pr.gov	2020-2021
Bayamón	Bayamón	Bayamón I	70045	Ramón Morales Peña	18.41609	-66.17196	Abierta	Primario	K 1 2 3 4 5 EE	No	409	401	2	34.6%	Others	1.91%	798-3773	Urb Riverview Calle 7 Blq F	Bayamón	PR	9610000	D70045@de.pr.gov	2020-2021
Bayamón	Orocovis	Morovis	12336	Ramón Torres Rivera	18.30338	-66.43418	Abierta	Primario	K 1 2 3 4 5 6 7 8	No	110	101	4	77.7%	Others	0.00%	862-3406	Carr 155 Km 5 Hm 9 Ramal 567 Bo San Lorenzo	Morovis	PR	00687-0000	D12336@de.pr.gov	2020-2021
Bayamón	Bayamón	Bayamón III	70243	Rexville Elemental	18.37127	-66.19056	Abierta	Primario	K 1 2 3 4 5 EE	No	417	401	4	69.3%	Others	2.75%	797-5004	Urb Rexville Calle 13 Esq 21	Bayamón	PR	9560000	D70243@de.pr.gov	2020-2021
Bayamón	Corozal	Naranjito	71308	Rosa Luz Zayas	18.26084	-66.26208	Abierta	Primario	K 1 2 3 4 5	No	173	171	3	55.3%	Others	1.58%	869-3976	Carr 809 Km 2 Hm 9 Bo Cedro Arriba	Naranjito	PR	7190000	D71308@de.pr.gov	2020-2021
Bayamón	Corozal	Naranjito	78857	Rubén Rodríguez Figueroa	18.30806	-66.26339	Abierta	Secundario	9 10 11 12 ES	Sí	860	837	3	42.4%	Others	1.37%	(787) 869-9126	Carr #164 Bo Nuevo	Naranjito	PR	7190000	D78857@de.pr.gov	2020-2021
Bayamón	Corozal	Naranjito	75234	Silvestre Martinez	18.32214	-66.22565	Abierta	Primario	K 1 2 3 4 5 6	No	395	397	2	38.1%	Others	1.95%	869-1266	Carr 826 Km 12 Hm 1 Bo Guadiana Com Lago La Plata	Naranjito	PR	7190000	D75234@de.pr.gov	2020-2021
Bayamón	Corozal	Naranjito	71340	S. U. Adolfo García	18.32437	-66.26702	Abierta	Primario	K 1 2 3 4 5 6 7 8 EE EI	No	313	316	2	38.1%	Targeted	0.90%	869-4008	Carr 165 Km 1 Hm 9 Bo Lomas	Naranjito	PR	7190000	D71340@de.pr.gov	2020-2021
Bayamón	Orocovis	Orocovis	12724	S. U. Ana Joaquina Ortíz Ortíz	18.21376	-66.35607	Abierta	Primario	K 1 2 3 4 5 6 7 8 EE EI	No	164	162	5	88.0%	Others	1.20%	867-2180	Carr 156 Km 6 Hm 2 Bo Botijas 2	Orocovis	PR	00720-0000	D12724@de.pr.gov	2020-2021
Bayamón	Orocovis	Orocovis	12518	S. U. Bonifacio Alvarado	18.17448	-66.43287	Abierta	Primario	K 1 2 3 4 5 6 7 8	No	175	171	4	70.6%	Others	0.00%	867-4633	Carr 143 Km 41 Hm 8 Bo Bermejales	Orocovis	PR	00720-0000	D12518@de.pr.gov	2020-2021
Bayamón	Orocovis	Orocovis	12716	S. U. Botijas I	18.24139	-66.36643	Abierta	Primario	K 1 2 3 4 5 6 7 8 EE EI	No	169	169	4	76.9%	Others	3.41%	867-2260	Carr 568 Km 5 Hm 5 Bo Botijas I	Orocovis	PR	00720-0000	D12716@de.pr.gov	2020-2021
Bayamón	Bayamón	Bayamón III	70334	S. U. Cacique Majagua	18.32943	-66.18746	Abierta	Primario	K 1 2 3 4 5 6 7 8	No	183	183	2	29.8%	Others	5.70%	797-5480	Carr 167 Ramal 829 Km 1.4 Bo Buena Vista	Bayamón	PR	9569676	D70334@de.pr.gov	2020-2021
Bayamón	Corozal	Corozal	71068	S. U. Demetrio Rivera	18.26875	-66.34011	Abierta	Primario	K 1 2 3 4 5 6 7 8 EE EI	No	294	295	3	56.7%	Others	0.67%	859-4111	Carr 802 Bo Palmarito	Corozal	PR	7830000	D71068@de.pr.gov	2020-2021
Bayamón	Orocovis	Morovis	12401	S. U. José R. Barreras	18.33573	-66.37341	Abierta	Primario	K 1 2 3 4 5 6 7 8 EE	No	285	298	2	38.5%	Others	2.93%	862-2814	Carr 159 Km 5 Hm 6	Morovis	PR	00687-0000	D12401@de.pr.gov	2020-2021
Bayamón	Corozal	Corozal	71035	S. U. Julián Marrero	18.32109	-66.29714	Abierta	Todos Los Niveles	K 1 2 3 4 5 6 7 8 EE EI ES	No	340	339	2	36.3%	Others	2.74%	859-3027	Carr 164 Km 14 Bo Palmarejo	Corozal	PR	7830000	D71035@de.pr.gov	2020-2021
Bayamón	Orocovis	Orocovis	12666	S. U. Matrullas	18.20073	-66.48761	Abierta	Primario	K 1 2 3 4 5 6 7 8 EE	No	138	139	2	38.5%	Others	0.00%	867-3966	Carr 564 Km 4 Hm 3 Bo Matrullas	Orocovis	PR	00720-0000	D12666@de.pr.gov	2020-2021
Bayamón	Corozal	Corozal	71050	S. U. Nicolás Rodríguez	18.32204	-66.34438	Abierta	Primario	PK K 1 2 3 4 5 6 7 8 EE EI	No	360	352	2	30.7%	Others	1.08%	859-3250	Carr 568 Km 30 Hm 1 Bo Padilla	Corozal	PR	7830000	D71050@de.pr.gov	2020-2021
Bayamón	Corozal	Naranjito	71357	S. U. Pedro Fernández	18.24762	-66.28345	Abierta	Primario	K 1 2 3 4 5 6 7 8	No	286	288	2	28.5%	Others	1.38%	869-4787	Carr 152 Km 10 Hm 5 Bo Cedro Arriba	Naranjito	PR	7190000	D71357@de.pr.gov	2020-2021
Bayamón	Orocovis	Orocovis	12765	S. U. Sanamuertos	18.23956	-66.40468	Abierta	Primario	K 1 2 3 4 5 6 7 8	No	250	253	4	62.6%	Others	1.56%	867-2870	Carr 157 Km 23 Bo Barros	Orocovis	PR	7202124	D12765@de.pr.gov	2020-2021
Bayamón	Bayamón	Bayamón II	70623	Tomas C. Ongay	18.37658	-66.14432	Abierta	Secundario	9 10 11 12 ES	No	752	719	2	26.7%	Others	7.40%	785-3414	Urb Industrial Minillas Carr 174	Bayamón	PR	9560000	D70623@de.pr.gov	2020-2021
Bayamón	Toa Baja	Toa Alta	77651	Tomás Maso Rivera  Morales	18.37363	-66.20931	Abierta	Secundario	9 10 11 12 ES	No	488	450	2	30.4%	Others	10.59%	799-3020	Carr 861 Km 5.5 Bo Piñas, Toa Alta	Toa Alta	PR	9540000	D77651@de.pr.gov	2020-2021
Bayamón	Bayamón	Bayamón II	70698	Troqueleria y Herramentaje	18.37647	-66.14497	Abierta	PS - Instituto	SHARED	No					N/A		786-1834	Carr 174 Calle C21 Urb Industrial Minillas	Bayamón	PR	9560000	D70698@de.pr.gov	2020-2021
Bayamón	Toa Baja	Toa Alta	71365	Violanta Jiménez	18.39035	-66.2475	Abierta	Primario	PK K 1 2 3 4 5 EE	No	295	312	2	35.3%	Others	1.86%	870-1378	Calle Profesora Adela Rolon Final	Toa Alta	PR	9530000	D71365@de.pr.gov	2020-2021
Bayamón	Bayamón	Bayamón I	70011	Virgilio Dávila	18.40566	-66.18798	Abierta	Primario	K 1 2 3 4 5 EE	No	256	260	3	54.9%	Others	1.87%	785-2378	Carr 864 Calle Hato Tejas	Bayamón	PR	9560000	D70011@de.pr.gov	2020-2021
Bayamón	Orocovis	Orocovis	12633	Visitación Pagán	18.26601	-66.39914	Abierta	Primario	K 1 2 3 4 5 EE	No	240	240	5	92.0%	Others	0.00%	867-5383	Carr 155 Km 34 Hm 1 Bo Gato	Orocovis	PR	00720-0000	D12633@de.pr.gov	2020-2021
Caguas	Gurabo	Caguas I	20578	Abelardo Díaz Morales	18.23615	-66.01383	Abierta	Primario	K 1 2 3 4 5 PKEE EE	No	437	427	3	48.4%	Targeted	4.07%	743-9056	Urb. Santa Elvira Calle Santa Gertrudis	Caguas	PR	7250000	D20578@de.pr.gov	2020-2021
Caguas	Guayama	Arroyo	27714	Adalberto Sánchez Morales	17.98963	-66.05327	Abierta	Primario	PK K 1 2 3 4 5 EE	No	282	285	5	80.0%	Others	0.33%	271-2973	Bo Ancones	Arroyo	PR	7140000	D27714@de.pr.gov	2020-2021
Caguas	Guayama	Guayama	26336	Adela Brenes Texidor	17.95553	-66.16153	Abierta	Todos Los Niveles	6 7 8 9 10 11 12 ES	No	299	298	2	23.5%	Comprehensive	4.60%	864-7700	Carr 3 Km. 143 Hm 8	Guayama	PR	7840000	D26336@de.pr.gov	2020-2021
Caguas	Cidra	Aguas Buenas	20065	Alfonso López O'Neill	18.28765	-66.07612	Abierta	Primario	K 1 2 3 4 5	No	115	117	4	60.8%	Others	0.85%	747-5895	Carr 797 Km 2 Hm 4 Bo. Jagueyes Abajo	Aguas Buenas	PR	7030000	D20065@de.pr.gov	2020-2021
Caguas	Cidra	Cidra	26013	Ana J. Candelas	18.17064	-66.16219	Abierta	Secundario	9 10 11 12	No	273	262	1	19.9%	Comprehensive	1.42%	739-8070	Carr 171 Km 0 Hm 3 Bo Sud	Cidra	PR	7390000	D26013@de.pr.gov	2020-2021
Caguas	Gurabo	Caguas I	26492	Antonio Domínguez Nieves	18.28626	-66.04754	Abierta	Todos Los Niveles	6 7 8 9 10 11 12 EI ES	No	373	367	2	34.8%	Others	6.48%	747-2026	Bo Rio Cañas Calle 1 Sect Reparto Solano	Caguas	PR	7250000	D26492@de.pr.gov	2020-2021
Caguas	Gurabo	Caguas I	23440	Antonio S Paoli (Musica)	18.23582	-66.02826	Abierta	Todos Los Niveles	SHARED	No					N/A		746-6644	Ave Jose Villares Esq Rafael Cordero	Caguas	PR	7250000	D23440@de.pr.gov	2020-2021
Caguas	Gurabo	Caguas II	20776	Antonio S. Pedreira (Pre-Tec)	18.2148	-66.04121	Abierta	Primario	6 7 8 EI	No	411	382	2	26.7%	Others	3.61%	743-4868	Calle 4 Urb. Villa Del Carmen	Caguas	PR	7250000	D20776@de.pr.gov	2020-2021
Caguas	Barranquitas	Barranquitas	20537	Antonio Vazquez Ramos - S. U. La Loma	18.1846671055673	-66.2774229888219	Abierta	Primario	K 1 2 3 4 5 6 7 8 EE EI	No	151	146	5	89.9%	Others	3.11%	857-3611	Carr 156 Km 20 Hm 1 Bo Quebrada Grande	Barranquitas	PR	7940000	D20537@de.pr.gov	2020-2021
Caguas	Cidra	Cayey	21097	Benigno Carrión	18.1151502051591	-66.1681002734817	Abierta	Primario	K 1 2 3 4 5	No	385	364	4	66.4%	Others	0.52%	738-3087	Calle Luis Barreras Final	Cayey	PR	7360000	D21097@de.pr.gov	2020-2021
Caguas	Cidra	Cayey	21089	Benigno Fernández García	18.11489	-66.16773	Abierta	Primario	6 7 8 EI	No	344	340	2	24.1%	Others	1.15%	738-2626	Calle Barbosa Final	Cayey	PR	7360000	D21089@de.pr.gov	2020-2021
Caguas	Gurabo	Caguas I	20685	Benita González Quiñones	18.23555	-66.02191	Abierta	Primario	K 1 2 3 4 5 EE	No	202	199	4	67.2%	Others	1.90%	743-4467	Urb. Jose Delgado Calle 5	Caguas	PR	7250000	D20685@de.pr.gov	2020-2021
Caguas	Cidra	Cayey	21105	Benjamín Harrison	18.11429	-66.16996	Abierta	Secundario	9 10 11 12 ES	No	722	695	4	60.3%	Others	0.69%	738-2616	249 Ave Jose De Diego	Cayey	PR	7360000	D21105@de.pr.gov	2020-2021
Caguas	Barranquitas	Aibonito	27565	Bonifacio Sánchez Jiménez	18.1400123647611	-66.264681749068	Abierta	Secundario	9 10 11 12	Sí	311	294	2	31.4%	Others	0.32%	735-4631	Calle San Jose 119	Aibonito	PR	7050000	D27565@de.pr.gov	2020-2021
Caguas	Guayama	Arroyo	24687	Carmen Bozello de Huyke	17.9668313953091	-66.0629467430165	Abierta	Primario	PK K 1 2 3 4 5 6 7 8	No	416	411	5	92.4%	N/A	0.24%	839-2655	Frente Caserio Isidro Cora	Arroyo	PR	7140000	D24687@de.pr.gov	2020-2021
Caguas	Cidra	Aguas Buenas	20180	Carmen D. Ortíz Ortíz (S. U. Sumidero)	18.22399	-66.13132	Abierta	Primario	K 1 2 3 4 5 6 7 8 EE EI	No	547	540	2	34.9%	Others	1.94%	732-2530	Carr 173 Km7 Kh0 Bo Sumidero	Aguas Buenas	PR	7030000	D20180@de.pr.gov	2020-2021
Caguas	Cidra	Cayey	23887	Centro Adiestramiento Vocacional	18.11716	-66.15637	Abierta	Todos Los Niveles	EI ES	No	72	63	2	24.0%	Comprehensive	18.82%	263-1480	Ave Antonio R Barcelo Esq El Veterano	Cayey	PR	7360000	D23887@de.pr.gov	2020-2021
Caguas	Gurabo	Caguas II	23259	Charles E. Miner	18.20853	-66.05572	Abierta	Primario	K 1 2 3 4 5	No	132	140	3	46.7%	Others	7.79%	744-7779	Urb Villa Nueva Calle 25	Caguas	PR	7250000	D23259@de.pr.gov	2020-2021
Caguas	Gurabo	Caguas II	20727	Cipriano Manrique	18.17479	-66.04161	Abierta	Primario	K 1 2 3 4 5	No	172	170	5	89.2%	Others	0.57%	747-3600	Carr 765 Km3 Hm 1 Bo. Borinquen, Parcelas Viejas	Caguas	PR	7250000	D20727@de.pr.gov	2020-2021
Caguas	Barranquitas	Comerío	28100	Claudio Ferrer Cotto	18.21106	-66.23603	Abierta	Primario	K 1 2 3 4 5 EE	No	147	149	4	76.2%	Others	1.31%	875-3265	Carr 156 Urb Sabana Del Palmar 826 Palma Real	Comerío	PR	7824817	D28100@de.pr.gov	2020-2021
Caguas	Cidra	Cidra	21493	Clemencia Meléndez	18.16227	-66.19183	Abierta	Primario	K 1 2 3 4 5 6 7 8 EE EI	No	372	365	4	63.9%	Targeted	0.79%	739-8913	Carr 173 Km 7 Hm 9 Bo Rabanal	Cidra	PR	7390000	D21493@de.pr.gov	2020-2021
Caguas	Gurabo	Caguas II	23143	Concepción Méndez Cano	18.21915	-66.05384	Abierta	Primario	K 1 2 3 4 5 EE	No	206	201	2	36.6%	Others	1.43%	744-3583	Urb Turabo Gardens Calle 25 2Da Secc	Caguas	PR	7250000	D23143@de.pr.gov	2020-2021
Caguas	Guayama	Salinas	52886	Coquí (Intermedia)	17.9715259845928	-66.2255594599884	Abierta	Primario	K 1 2 3 4 5 EE	No	216	224	5	86.5%	Others	0.85%	853-4800	Carr 3 Km 156 Hm 0 Bo Coqui	Salinas	PR	7510000	D52886@de.pr.gov	2020-2021
Caguas	Gurabo	Caguas I	20735	Diego Vázquez	18.23283	-66.04072	Abierta	Primario	K 1 2 3 4 5 6 7 8 EE	No	165	157	3	46.4%	Others	0.56%	743-3695	Calle D Final Bda. Morales	Caguas	PR	7250000	D20735@de.pr.gov	2020-2021
Caguas	Guayama	Arroyo	26153	Dolores González	17.97405	-66.06448	Abierta	Primario	K 1 2 3 4 5 EE	No	130	132	3	45.4%	Others	3.47%	839-5177	Calle A Urb Jardines De Arroyo	Arroyo	PR	7140000	D26153@de.pr.gov	2020-2021
Caguas	Barranquitas	Aibonito	20362	Dr. José N. Gándara	18.13952	-66.26427	Abierta	Secundario	9 10 11 12 ES	No	480	454	2	27.5%	Others	4.73%	735-7290	315 Calle Degetau Sur	Aibonito	PR	7050000	D20362@de.pr.gov	2020-2021
Caguas	Gurabo	Caguas II	20818	Dr. Juan José Osuna	18.20382	-66.05255	Abierta	Secundario	9 10 11 12 EI ES	No	261	250	2	20.8%	Others	6.69%	747-8629	Carr 1 Km 38 Hm 5, Bo. Turabo, Sector Villa Espera	Caguas	PR	7250000	D20818@de.pr.gov	2020-2021
Caguas	Cidra	Aguas Buenas	27540	Dr. Pedro Albizu Campos	18.25266	-66.10144	Abierta	Primario	6 7 8 EI	No	211	208	3	55.2%	Targeted	4.95%	732-1040	Carr 156 Ramal 794 Bo.Caguitas Sector Camino Verde	Aguas Buenas	PR	7030000	D27540@de.pr.gov	2020-2021
Caguas	Guayama	Guayama	24810	Dr. Rafael López Landrón	17.97951	-66.1176	Abierta	Todos Los Niveles	6 7 8 9 10 11 12 EI ES	No	501	468	1	17.0%	Others	7.10%	864-4366	Urb. Vives, Calle Paseo Del Pueblo	Guayama	PR	7840000	D24810@de.pr.gov	2020-2021
Caguas	Cidra	Cayey	25627	Dr. Ramón Emeterio Betances	18.11601	-66.15779	Abierta	Primario	6 7 8 EI	No	385	389	2	33.0%	Others	2.24%	738-3745	Ave Antonio R Barcelo	Cayey	PR	7360000	D25627@de.pr.gov	2020-2021
Caguas	Barranquitas	Aibonito	28076	Dra. Carmendelia Colón Martínez	18.15234	-66.3012	Abierta	Primario	K 1 2 3 4 5 6 7 8 EE	No	350	344	2	35.8%	Others	0.56%	991-0040	Carr 725 Barrio Llanos Sector El Juicio	Aibonito	PR	7050000	D28076@de.pr.gov	2020-2021
Caguas	Gurabo	Gurabo	26773	Dra. Conchita Cuevas	18.25141	-65.97458	Abierta	Secundario	9 10 11 12 ES	No	511	462	2	35.9%	Others	4.56%	737-2700	Pr 30 Int Pr 189 Ramal 9944	Gurabo	PR	7780000	D26773@de.pr.gov	2020-2021
Caguas	Guayama	Guayama	28563	Dra. María Socorro Lacot	17.972003	-66.0983187	Abierta	Secundario	9 10 11 12 EE ES	No	1135	1092	3	49.1%	Others	2.44%	(787) 866-8505	Ave Albizu Campos	Guayama	PR	7840000	D28563@de.pr.gov	2020-2021
Caguas	Cidra	Cidra	21576	Educación Bilingüe Luis Muñoz Iglesias	18.17855	-66.15972	Abierta	Todos Los Niveles	K 1 2 3 4 5 6 7 8 9 10 11 12	No	466	464	5	87.0%	Others	0.42%	739-2535	Urb Fernandez Calle  Luis Lugo Esq. Haddock	Cidra	PR	7390000	D21576@de.pr.gov	2020-2021
Caguas	Barranquitas	Barranquitas	20412	El Farallón	18.23878	-66.28919	Abierta	Primario	K 1 2 3 4 5	No	140	136	2	31.9%	Others	2.03%	857-2435	Carr 152 Km 7 Hm 6 Bo Quebradillas	Barranquitas	PR	7940000	D20412@de.pr.gov	2020-2021
Caguas	Gurabo	Caguas I	25601	Eloisa Pascual	18.25417	-66.04178	Abierta	Secundario	9 10 11 12 ES	No	342	323	2	30.1%	Others	2.81%	745-0790	Res Bairoa Ave Astro Calle 11	Caguas	PR	7250000	D25601@de.pr.gov	2020-2021
Caguas	Cidra	Cayey	21188	Emérita León Elemental	18.10815	-66.16219	Abierta	Primario	PK K 1 2 3 4 5 6 PKM EE	Sí	369	373	4	73.3%	Others	0.77%	(787) 738-2410	Urb Villa Verde 118 Calle Luis Morales	Cayey	PR	7360000	D21188@de.pr.gov	2020-2021
Caguas	Cidra	Cidra	28555	Ernesto Vicente Carattini	18.2169812310127	-66.1654051994546	Abierta	Primario	K 1 2 3 4 5 6	No	184	181	3	57.2%	Others	1.60%	(787) 739-4360	Carr 782 Km 6 Hm 2 Bo Ceiba	Cidra	PR	7390000	D28555@de.pr.gov	2020-2021
Caguas	Barranquitas	Comerío	21832	Escuela Especializada de Béisbol-Manuel Cruz Maceira	18.214812277226	-66.2286856023161	Abierta	Secundario	9 10 11 12	No	94	90	3	50.6%	Others	0.00%	875-5806	Urb La Plata Calle 6 Bo Piñas Abajo	Comerío	PR	7820000	D21832@de.pr.gov	2020-2021
Caguas	Cidra	Cayey	22772	Especializada de Bellas Artes	18.116236	-66.167245	Abierta	Todos Los Niveles	7 8 9 10 11 12 ES	No	258	253	4	68.3%	Others	0.78%	(787) 738-3321	Desvio Matias Soto #57	Cayey	PR	7360000	D22772@de.pr.gov	2020-2021
Caguas	Guayama	Salinas	57281	Eugenio Guerra Cruz	18.03119	-66.23112	Abierta	Todos Los Niveles	7 8 9 10 11 12	No	298	289	3	54.8%	Others	3.55%	824-1534	Carr 712 Km 3 Hm 0 Bo Quebrada Yegua	Salinas	PR	7510000	D57281@de.pr.gov	2020-2021
Caguas	Barranquitas	Barranquitas	20552	Federico Degetau	18.18951	-66.34152	Abierta	Primario	K 1 2 3 4 5 6 7 8 EI	No	443	448	3	55.7%	Others	1.76%	857-0646	Carr 156 Km 11 Hm 4 Bo Palo Hincado	Barranquitas	PR	7940000	D20552@de.pr.gov	2020-2021
Caguas	Barranquitas	Aibonito	27599	Federico Degetau II	18.13952	-66.26427	Abierta	Primario	K 1 2 3 4 5 EE EI ES	No	274	264	3	50.7%	Others	5.32%	735-7628	Calle San Jose Esq. Ignacio Lopez	Aibonito	PR	7050000	D27599@de.pr.gov	2020-2021
Caguas	Gurabo	Caguas I	25619	Felipe Rivera Centeno	18.24914	-66.02688	Abierta	Primario	6 7 8 EE	No	395	392	2	39.9%	Others	0.75%	746-5660	Urb Santa Juana Calle 1	Caguas	PR	7250000	D25619@de.pr.gov	2020-2021
Caguas	Guayama	Salinas	52795	Félix Garay Ortiz	18.00184	-66.26368	Abierta	Primario	K 1 2 3 4 5 EE	No	184	188	4	76.8%	Others	2.56%	824-4265	Calle Antonia Saez Bo Coco	Salinas	PR	7510000	D52795@de.pr.gov	2020-2021
Caguas	Guayama	Guayama	27318	Francisco García Boyrie	17.97575	-66.09809	Abierta	Primario	K 1 2 3 4 5 6 7 8 EI	No	386	385	2	39.2%	Targeted	1.01%	864-3879	Urb. Costa Azul Calle 9	Guayama	PR	7840000	D27318@de.pr.gov	2020-2021
Caguas	Gurabo	Caguas I	21006	Francisco Valdés Rola	18.2919590889004	-66.0504219158097	Abierta	Primario	K 1 2 3 4 5 EE	No	161	159	3	43.5%	Others	0.61%	747-9464	Carr 798 Km 12 Hm 5 Bo. Rio Cañas	Caguas	PR	7250000	D21006@de.pr.gov	2020-2021
Caguas	Guayama	Guayama	24786	Génaro Cautiño	17.99037	-66.11254	Abierta	Todos Los Niveles	6 7 8 9 10 11 12	No	366	365	4	76.6%	Others	1.33%	866-4034	Calle Ashford Esq. San Agustin	Guayama	PR	7840000	D24786@de.pr.gov	2020-2021
Caguas	Gurabo	Caguas II	23598	Gerardo Selles Solá	18.22684	-66.03575	Abierta	Todos Los Niveles	6 7 8 9 10 11 12	No	338	323	4	61.5%	Others	3.55%	743-3276	Ave Jose Mercado Urb El Verde	Caguas	PR	7250000	D23598@de.pr.gov	2020-2021
Caguas	Gurabo	Caguas II	23119	Haydee Caballero	18.21488	-66.0533	Abierta	Primario	6 7 8 EI	No	206	208	2	37.9%	Comprehensive	2.79%	744-4575	Urb Villa Del Rey Calle 12 A 4Ta Secc	Caguas	PR	7250000	D23119@de.pr.gov	2020-2021
Caguas	Barranquitas	Comerío	23655	Inés María Mendoza	18.22601	-66.21714	Abierta	Primario	PK K 1 2 3 4 5 6	Sí	165	156	3	58.7%	Others	2.92%	875-2084	Carr 156 Km 26 Bo. Palomas Sector Manuel Espina	Comerío	PR	7820000	D23655@de.pr.gov	2020-2021
Caguas	Gurabo	Caguas II	27078	Inés María Mendoza	18.21628	-66.0097	Abierta	Primario	K 1 2 3 4 5 EE	No	182	170	3	51.4%	Others	1.02%	(939) 418-9288	Urb Villas De Castro Calle 10 Esq 11	Caguas	PR	7250000	D27078@de.pr.gov	2020-2021
Caguas	Barranquitas	Barranquitas	20479	Inocencio Cintrón Zayas	18.24555	-66.31086	Abierta	Primario	PK K 1 2 3 4 5 6	Sí	158	159	3	49.0%	Others	2.91%	857-3581	Carr 771 Km 9 Hm 2 Sector Mana Abajo Bo Barranca	Barranquitas	PR	9740000	D20479@de.pr.gov	2020-2021
Caguas	Guayama	Guayama	27623	Instituto Tec Recinto De Guayama	17.97802	-66.11837	Abierta	PS - Instituto	SHARED	No					N/A		864-0354	Urb. Vives Bo Machete	Guayama	PR	7840000	D27623@de.pr.gov	2020-2021
Caguas	Barranquitas	Barranquitas	28456	Intermedia Bo. Quebradillas	18.234232	-66.285279	Abierta	Primario	K 1 2 3 4 5 6 7 8 EI	No	460	463	3	58.6%	Others	2.31%	(787) 857-7795	Carr 152 Km 7.5 Bo Quebradillas	Barranquitas	PR	7940000	D28456@de.pr.gov	2020-2021
Caguas	Cidra	Cidra	21550	Jesús T. Piñero	18.28231	-66.0579	Abierta	Todos Los Niveles	6 7 8 9 10 11 12 EEI EES EEA	No	456	447	4	79.6%	Others	1.31%	739-2481	Calle Jose De Diego Final, Salida Arenas	Cidra	PR	7390000	D21550@de.pr.gov	2020-2021
Caguas	Gurabo	Caguas I	20784	Jesús T. Piñero	18.17438	-66.1591	Abierta	Primario	PK K 1 2 3 4 5	Sí	137	134	2	27.1%	Others	2.82%	747-1992	Carr 795 Km 0 Hm 2 Bo. La Barra	Caguas	PR	7250000	D20784@de.pr.gov	2020-2021
Caguas	Barranquitas	Barranquitas	20396	José Colón González	18.1799580028394	-66.294528360468	Abierta	Primario	K 1 2 3 4 5 6 7 EE	No	520	512	5	88.4%	Others	2.62%	857-3686	Carr 156 Km 17 Hm 7 Sector El Porton Bo Honduras	Barranquitas	PR	7940000	D20396@de.pr.gov	2020-2021
Caguas	Gurabo	Caguas II	20800	José Gautier Benítez	18.22767	-66.03634	Abierta	Secundario	9 10 11 12 ES	No	497	475	2	37.0%	Comprehensive	3.85%	743-6101	Calle Gautier Benitez, Esq. Cristobal Colon	Caguas	PR	7250000	D20800@de.pr.gov	2020-2021
Caguas	Guayama	Arroyo	24752	José Horacio Cora	17.99222	-66.05509	Abierta	Primario	6 7 8 EI	No	215	211	2	25.9%	Additional Targeted	2.71%	839-4030	Carr 753 Km 2 Hm 2.2 Bda  Marin	Arroyo	PR	7140000	D24752@de.pr.gov	2020-2021
Caguas	Guayama	Arroyo	24661	José M. Massari	17.97133	-66.05954	Abierta	Primario	K 1 2 3 4 5 6 7 8 EE	No	221	226	1	13.9%	Others	0.83%	839-3140	Calle Morse #162	Arroyo	PR	7140000	D24661@de.pr.gov	2020-2021
Caguas	Gurabo	Caguas II	20719	José Mercado	18.21861	-66.01573	Abierta	Primario	K 1 2 3 4 5 6 7 8 EE	No	204	207	4	71.4%	Others	5.19%	746-7860	Urb. Jose Mercado Calle Woodrow Wilson	Caguas	PR	7250000	D20719@de.pr.gov	2020-2021
Caguas	Guayama	Salinas	52894	José Padín	18.02498	-66.2512	Abierta	Primario	K 1 2 3 4 5	No	163	164	4	72.3%	Others	3.39%	824-7955	Carr 1 Km 83 Hm 0 Hacia Albergue Olimpico	Salinas	PR	7510000	D52894@de.pr.gov	2020-2021
Caguas	Barranquitas	Comerío	21758	Juana Colón	18.22355	-66.2187	Abierta	Secundario	9 10 11 12 ES	Sí	381	354	2	28.8%	Others	2.06%	875-2130	Carr 778 Bda. Pasarell. Sector Industrial	Comerío	PR	7820000	D21758@de.pr.gov	2020-2021
Caguas	Gurabo	Caguas II	23515	Justina Vázquez Mendoza	18.21653	-66.03645	Abierta	Primario	K 1 2 3 4 5 EE	No	177	182	3	52.9%	Others	4.21%	743-6069	Urb Mariolga Calle San Antonio Esq San Jose	Caguas	PR	7250000	D23515@de.pr.gov	2020-2021
Caguas	Guayama	Salinas	52761	Las Mareas	17.9481	-66.26474	Abierta	Primario	K 1 2 3 4 5	No	105	110	2	38.4%	Others	0.90%	864-4727	Bo Las Mareas Calle Principal	Salinas	PR	7510000	D52761@de.pr.gov	2020-2021
Caguas	Barranquitas	Barranquitas	26021	Luis Muñoz Marín	18.1913743517888	-66.3076519476796	Abierta	Secundario	9 10 11 12	No	570	554	2	34.2%	Others	1.04%	857-3714	Calle A Sector Nuevo	Barranquitas	PR	7940000	D26021@de.pr.gov	2020-2021
Caguas	Barranquitas	Comerío	26005	Luis Muñoz Marín	18.21028	-66.22447	Abierta	Primario	6 7 8 EI	Sí	202	204	3	41.1%	Others	0.49%	875-3390	Carr.775 Ramal 7774 Km 0 Hm 4 Bo Piñas Sector La Mora	Comerío	PR	7820000	D26005@de.pr.gov	2020-2021
Caguas	Cidra	Aguas Buenas	25783	Luis Muñoz Marín	18.2526	-66.10552	Abierta	Primario	PK K 1 2 3 4 5 EE	No	239	241	3	53.2%	Targeted	0.81%	732-3521	Calle Monserrate Final Sector La Araña	Aguas Buenas	PR	7030000	D25783@de.pr.gov	2020-2021
Caguas	Gurabo	Caguas II	20834	Luis Muñoz Rivera	18.2312	-66.03687	Abierta	Primario	K 1 2 3 4 5 EE	No	249	244	2	37.1%	Others	1.17%	743-2303	65 Final Calle Muñoz Rivera	Caguas	PR	7250000	D20834@de.pr.gov	2020-2021
Caguas	Gurabo	Caguas II	20909	Luis Ramos González	18.22713	-66.03664	Abierta	Primario	6 7 8 EI	No	377	387	2	33.1%	Comprehensive	3.01%	258-2087	Ave Gautier Benitez Final	Caguas	PR	7250000	D20909@de.pr.gov	2020-2021
Caguas	Gurabo	Caguas I	21055	Manuela Toro Morice	18.24024	-66.02402	Abierta	Secundario	9 10 11 12	No	521	499	1	11.9%	Others	2.90%	744-2111	Urb. Caguas Norte 5 Calle Estanbur	Caguas	PR	7250000	D21055@de.pr.gov	2020-2021
Caguas	Gurabo	Gurabo	22053	Margarita Rivera de Janer	18.25695	-65.97421	Abierta	Primario	K 1 2 3 4 5 EE	No	411	409	3	40.1%	Others	3.94%	737-6594	Calle San Antonio	Gurabo	PR	7780000	D22053@de.pr.gov	2020-2021
Caguas	Gurabo	Gurabo	22012	Matías González García	18.25481	-65.97079	Abierta	Primario	6 7 8	No	455	454	2	26.4%	Others	3.14%	737-2056	Calle Andres Aruz Rivera Carr 189	Gurabo	PR	7780000	D22012@de.pr.gov	2020-2021
Caguas	Cidra	Cayey	23531	Miguel Meléndez Muñoz	18.116	-66.16099	Abierta	Secundario	9 10 11 12	No	520	516	2	32.7%	Others	2.51%	738-3078	Ave Antonio R Barcelo Frente Cuc	Cayey	PR	7360000	D23531@de.pr.gov	2020-2021
Caguas	Gurabo	Caguas II	23135	Myrna M. Fuentes	18.22953	-66.04733	Abierta	Primario	K 1 2 3 4 5 PKEE EEE	No	233	238	2	33.3%	Others	0.81%	744-2231	Calle 33 Bonneville Heigts	Caguas	PR	7250000	D23135@de.pr.gov	2020-2021
Caguas	Gurabo	Caguas I	20594	Nicolás Aguayo Aldea	18.23249	-66.03105	Abierta	Primario	K 1 2 3 4 5 6 7 8 EI	No	391	402	2	25.8%	Others	0.97%	(939) 253-7598	13 Calle Rafael Cordero Urb. Borinquen	Caguas	PR	7260000	D20594@de.pr.gov	2020-2021
Caguas	Guayama	Guayama	24950	Oscar Hernández Guevara	17.97367	-66.12427	Abierta	Primario	K 1 2 3 4 5 EE	No	300	301	2	26.3%	Others	0.32%	864-8242	Bda Blondet Calle  D	Guayama	PR	7840000	D24950@de.pr.gov	2020-2021
Caguas	Barranquitas	Barranquitas	20560	Pablo Colón Berdecía	18.1862509422555	-66.3012984965248	Abierta	Secundario	9 10 11 12 ES	No	538	508	2	21.9%	Others	5.01%	857-2897	Calle Barcelo Final Sector Nuevo	Barranquitas	PR	7940000	D20560@de.pr.gov	2020-2021
Caguas	Gurabo	Caguas II	20941	Paula Mojíca	18.22055	-66.04353	Abierta	Primario	PK K 1 2 3 4 5 EE	No	140	140	5	83.2%	Others	1.38%	743-2498	Calle Roble, Urb. Villa Turabo	Caguas	PR	7250000	D20941@de.pr.gov	2020-2021
Caguas	Gurabo	Caguas I	20669	Pedro Millán Rivera	18.25727	-66.04055	Abierta	Primario	K 1 2 3 4 5 EE	No	270	261	3	51.3%	Others	3.87%	744-4777	Y 6 Calle 7 Urb Res Bairoa	Caguas	PR	7250000	D20669@de.pr.gov	2020-2021
Caguas	Gurabo	Caguas I	25932	Pepita Arenas	18.24005	-66.04732	Abierta	Primario	K 1 2 3 4 5 EE	No	212	216	4	64.5%	Others	2.61%	746-4262	Urb. Valle Tolima Calle Milagros Carrillo, Blq. Q	Caguas	PR	7260000	D25932@de.pr.gov	2020-2021
Caguas	Gurabo	Caguas I	21063	Pepita Garriga	18.24623	-66.03261	Abierta	Primario	K 1 2 3 4 5	No	175	174	3	43.5%	Others	5.91%	743-3633	Calle Esmeralda #1 Esq Coral	Caguas	PR	7250000	D21063@de.pr.gov	2020-2021
Caguas	Barranquitas	Barranquitas	20404	Petroamérica Pagan	18.18624	-66.30603	Abierta	Primario	PK K 1 2 3 4 5 6 7 8 EE	No	398	394	3	49.5%	Others	1.48%	857-1888	Calle Muñoz Rivera #14	Barranquitas	PR	7940000	D20404@de.pr.gov	2020-2021
Caguas	Barranquitas	Aibonito	20305	Rabanal	18.13298	-66.24904	Abierta	Primario	K 1 2 3 4 5 EE	No	173	170	5	88.2%	Others	0.57%	735-8886	Carr 722 Bo Rabanal	Aibonito	PR	7050000	D20305@de.pr.gov	2020-2021
Caguas	Guayama	Guayama	24927	Rafael Antonio Delgado Mateo	18.0031	-66.11062	Abierta	Primario	PK K 1 2 3 4 5 6 EE	Sí	212	201	2	34.6%	Others	6.38%	864-3875	Bo Olimpo Calle 7	Guayama	PR	7840000	D24927@de.pr.gov	2020-2021
Caguas	Barranquitas	Aibonito	20255	Rafael Pont Flores	18.13971	-66.26321	Abierta	Todos Los Niveles	K 1 2 3 4 5 6 7 8 9 10 11 12 EE EI	No	538	532	4	67.3%	Others	1.28%	735-1865	Calle Ruiz Rivera Final Sector El Coqui	Aibonito	PR	7050000	D20255@de.pr.gov	2020-2021
Caguas	Cidra	Cidra	28365	Regino Vega Matinez	18.16578	-66.14784	Abierta	Primario	PK K 1 2 3 4 5 EE	No	301	294	4	60.7%	Others	0.95%	739-6626	Carr. 734 Km. 1 Hm 8	Cidra	PR	7390000	D28365@de.pr.gov	2020-2021
Caguas	Gurabo	Caguas I	20982	República de Costa Rica	18.23495	-66.02877	Abierta	Secundario	9 10 11 12 ES	No	802	780	3	47.3%	Others	1.42%	746-7565	390Calle Hector R Bunker	Caguas	PR	7250000	D20982@de.pr.gov	2020-2021
Caguas	Gurabo	Caguas II	20990	Rosa C. Benítez	18.21357	-66.04422	Abierta	Primario	K 1 2 3 4 5 EE	No	300	295	3	56.0%	Others	3.45%	743-8446	Urb. Villa Del Rey Calle Windsor 1Ra. Seccion	Caguas	PR	7250000	D20990@de.pr.gov	2020-2021
Caguas	Cidra	Cidra	27557	Ruth Evelyn Cruz Santos	18.16772	-66.16267	Abierta	Todos Los Niveles	PK 9 10 11 12	No	677	652	2	38.0%	Others	1.60%	739-3011	Carr 171 Km 1.0 Bo. Sud	Cidra	PR	7390000	D27557@de.pr.gov	2020-2021
Caguas	Cidra	Cayey	28084	Salvador Brau Elemental	18.11371	-66.15651	Abierta	Primario	K 1 2 3 4 5 EE	No	254	251	2	38.9%	Others	1.12%	738-3190	Jardines I Calle 13 Final	Cayey	PR	7360000	D28084@de.pr.gov	2020-2021
Caguas	Guayama	Guayama	25312	Simón Madera	17.98261	-66.11867	Abierta	Todos Los Niveles	K 1 2 3 4 5 6 7 8 9	No	365	361	4	64.2%	Others	1.31%	864-0766	Calle Mcarthur	Guayama	PR	7840000	D25312@de.pr.gov	2020-2021
Caguas	Guayama	Salinas	56820	Stella Marquez	17.9731	-66.29647	Abierta	Todos Los Niveles	6 7 8 9 10 11 12 ES	No	627	612	2	35.0%	Others	2.74%	824-3357	Calle Union Final	Salinas	PR	7510000	D56820@de.pr.gov	2020-2021
Caguas	Cidra	Aguas Buenas	20172	S. U. Bayamoncito	18.23688	-66.16217	Abierta	Primario	K 1 2 3 4 5 6 7 8 EE	No	264	268	3	41.2%	Others	0.00%	732-7160	Carr 156 Km 42 Hm 3, Bo. Bayamoncito	Aguas Buenas	PR	7030000	D20172@de.pr.gov	2020-2021
Caguas	Barranquitas	Aibonito	20339	S. U. Carmen Zenaida Vega (La Plata)	18.15173	-66.23225	Abierta	Primario	K 1 2 3 4 5 6 7 8	No	126	124	3	58.9%	Others	3.05%	735-1277	Carr 723 Ramal 728 Km 1 Hm 1 Bo. La Plata	Aibonito	PR	7050000	D20339@de.pr.gov	2020-2021
Caguas	Cidra	Cidra	21543	S. U. Certenejas II	18.1943	-66.10755	Abierta	Primario	K 1 2 3 4 5 6 7 8	No	438	445	3	43.7%	Others	0.22%	739-6195	Carr 172 Km 8 Hm 1 Bo Bayamon Sector Certenejas I	Cidra	PR	7390000	D21543@de.pr.gov	2020-2021
Caguas	Cidra	Cayey	21352	S. U. Eugenio María de Hostos	18.13522	-66.19514	Abierta	Primario	K 1 2 3 4 5 6 7 8 EE EI	No	215	217	4	70.9%	Others	2.24%	738-5866	Carr 14 Km 65 Hm 3 Bo Toita	Cayey	PR	7360000	D21352@de.pr.gov	2020-2021
Caguas	Cidra	Cayey	21212	S. U. Gerardo Selles Sola	18.14114	-66.09186	Abierta	Primario	K 1 2 3 4 5 6 7 8	No	367	377	2	33.0%	Others	1.56%	263-0490	Carr 184 Km 31 Hm 3 Bo Guavate	Cayey	PR	7360000	D21212@de.pr.gov	2020-2021
Caguas	Barranquitas	Aibonito	20321	S. U. José Celso Barbosa	18.1266	-66.29099	Abierta	Todos Los Niveles	K 1 2 3 4 5 6 7 8 EE EI	No	300	299	2	36.9%	Others	0.97%	735-8892	Carr 14 Km 46 Hm 5 Bo, Asomante	Aibonito	PR	7050000	D20321@de.pr.gov	2020-2021
Caguas	Gurabo	Gurabo	26765	S. U. Josefina Sitiriche	18.27146	-65.96642	Abierta	Primario	K 1 2 3 4 5 EE	No	231	243	3	44.8%	Others	2.37%	737-2626	Carr 181 Km 2 Hm 9 Bo Celada	Gurabo	PR	7780000	D26765@de.pr.gov	2020-2021
Caguas	Guayama	Guayama	25007	S. U. Juan Alemañy Silva	18.03609	-66.10884	Abierta	Primario	K 1 2 3 4 5 6 7 8	No	148	149	3	48.4%	Others	1.31%	864-3005	Bo Guamani Carr 179 K.4.4	Guayama	PR	7840000	D25007@de.pr.gov	2020-2021
Caguas	Cidra	Cidra	21659	S. U. Juan Stubbe	18.17477	-66.12404	Abierta	Primario	PK K 1 2 3 4 5 6 7 8 EE	No	452	449	3	53.1%	Others	1.29%	739-8545	Carr 787 Km 2 Hm 9 Bo. Bayamon	Cidra	PR	7390000	D21659@de.pr.gov	2020-2021
Caguas	Barranquitas	Barranquitas	20545	S. U. Lajitas (Ramón T Rivera)	18.22244	-66.31285	Abierta	Primario	K 1 2 3 4 5 6 7 8 EE EI	No	188	187	2	22.7%	Others	2.04%	857-5571	Carr 771 Km 5 Hm 4 Bo Barrancas	Barranquitas	PR	7940000	D20545@de.pr.gov	2020-2021
Caguas	Barranquitas	Comerío	21881	S. U. María C. Santiago	18.22274	-66.20223	Abierta	Primario	K 1 2 3 4 5 6 7 8 EE	No	303	302	2	36.0%	Others	0.00%	875-3613	Carr 172 Km 1 Hm 5, Bo. Naranjo Sector Sabana	Comerío	PR	7820000	D21881@de.pr.gov	2020-2021
Caguas	Barranquitas	Comerío	21873	S. U. Oscar Porrata Doria	18.21356	-66.24986	Abierta	Primario	K 1 2 3 4 5 6 7 8	No	206	204	5	93.7%	Others	1.40%	875-3220	Carr 156 Ramal 776 Bo Rio Hondo I	Comerío	PR	7820000	D21873@de.pr.gov	2020-2021
Caguas	Barranquitas	Aibonito	20214	S. U. Pasto	18.11625	-66.25487	Abierta	Todos Los Niveles	PK K 1 2 3 4 5 6 7 8 9	Sí	399	399	3	45.1%	Others	0.73%	735-8158	Carr 162 Km5 Hm 2, Bo Pasto	Aibonito	PR	7050000	D20214@de.pr.gov	2020-2021
Caguas	Barranquitas	Comerío	21865	S. U. Ramón Alejandro Ayala	18.2307	-66.24246	Abierta	Primario	K 1 2 3 4 5 6 7 8	No	401	396	3	60.0%	Others	0.24%	875-2929	Carr. 779 Km. 5 Hm 3 Bo Palomas	Comerío	PR	7820000	D21865@de.pr.gov	2020-2021
Caguas	Guayama	Salinas	58123	S. U. Sabana Llana	18.0260388163157	-66.2518008230303	Abierta	Primario	6 7 8 EI	No	220	221	2	23.2%	Others	4.24%	824-0896	Carr 3 Km 83 Hm 0 Hacia Albergue Olimpico	Salinas	PR	7510000	D58123@de.pr.gov	2020-2021
Caguas	Gurabo	Caguas II	21022	S. U. Sandalio Marcano	18.18385	-66.01957	Abierta	Primario	K 1 2 3 4 5 6 7 8 EE	No	209	214	3	47.2%	Others	2.65%	747-3110	Carr 788 Km 6 Hm 6 Bo Tomas De Castro I	Caguas	PR	7250000	D21022@de.pr.gov	2020-2021
Caguas	Guayama	Salinas	57835	S. U. Urbana Salinas	17.9731987198939	-66.2960525697902	Abierta	Primario	PK 1 2 3 4 5 PKEE EEE	No	260	258	3	59.5%	Others	1.49%	824-3306	Carr 3 Salida Hacia Guayama, Santos P. Amado Final	Salinas	PR	7510000	D57835@de.pr.gov	2020-2021
Caguas	Gurabo	Gurabo	22020	S. U. Vidal Serrano	18.24358	-66.01099	Abierta	Primario	K 1 2 3 4 5 6 7 8 EE EI	No	201	196	3	47.7%	Others	2.33%	747-2323	Carr 189 Ramal 931 Parcelas Navarro	Gurabo	PR	7780000	D22020@de.pr.gov	2020-2021
Caguas	Cidra	Aguas Buenas	28571	Superior Urbana	18.257231	-66.091892	Abierta	Secundario	9 10 11 12 ES	No	887	834	2	36.3%	Others	1.01%	(787) 510-3801	Carr 156 Km 52.5 Bo Caguitas	Aguas Buenas	PR	7030703	D28571@de.pr.gov	2020-2021
Caguas	Guayama	Salinas	28373	Superior Urbana	17.97323	-66.28168	Abierta	Secundario	9 10 11 12 ES	No	304	287	2	33.3%	Others	7.53%	824-2470	Carr. 3 Sector Godreau	Salinas	PR	7510000	D28373@de.pr.gov	2020-2021
Caguas	Guayama	Arroyo	36053	Superior Urbana Nueva	17.97448	-66.06915	Abierta	Secundario	9 10 11 12 ES	No	397	395	2	36.5%	Others	6.68%	839-2655	Pr 178 Km 2.9 Bo Guasima	Arroyo	PR	7140000	D36053@de.pr.gov	2020-2021
Caguas	Barranquitas	Comerío	28530	Superior Vocacional Nueva	18.22078	-66.22622	Abierta	Secundario	9 10 11 12 ES	No	339	328	3	45.8%	Others	1.18%	875-3382	Calle Georgetti Num.42	Comerío	PR	7820000	D28530@de.pr.gov	2020-2021
Caguas	Guayama	Guayama	24760	Vicente Palés Anes	17.98614	-66.11055	Abierta	Primario	K 1 2 3 4 5 EE	No	142	138	2	29.9%	Others	2.70%	864-0866	Calle 4 Esq. Vicente Pales	Guayama	PR	7840000	D24760@de.pr.gov	2020-2021
Caguas	Gurabo	Gurabo	24612	Villa Marina	18.2525	-65.97747	Abierta	Primario	K 1 2 3 4 5	No	271	266	3	44.7%	Others	3.08%	737-4344	Calle Bahia Oeste C-79	Gurabo	PR	7780000	D24612@de.pr.gov	2020-2021
Caguas	Cidra	Cidra	28548	Violeta Reyes Pérez	18.1756473934108	-66.1710479274589	Abierta	Primario	PK K 1 2 3 4 5 6 7 8 EE	No	550	558	2	30.3%	Others	1.04%	(787) 714-2035	Bo Rio Abajo Km 11 Hm 1	Cidra	PR	7390000	D28548@de.pr.gov	2020-2021
Caguas	Cidra	Cayey	27383	Virginia Vázquez Mendoza	18.13364	-66.14604	Abierta	Primario	K 1 2 3 4 5 EE	No	356	354	3	53.7%	Others	1.10%	263-4635	Urb La Plata 11 Calle Jade	Cayey	PR	7360000	D27383@de.pr.gov	2020-2021
Caguas	Guayama	Guayama	26500	Washington I	17.9825	-66.11485	Abierta	Primario	K 1 2 3 4 5 EE	No	301	286	4	71.7%	Others	0.32%	864-0566	Calle Hostos Sur	Guayama	PR	7840000	D26500@de.pr.gov	2020-2021
Humacao	Fajardo	Vieques	35295	20 de septiembre de 1988	18.14372	-65.44178	Abierta	Primario	6 7 8 EI	No	184	178	2	32.8%	Comprehensive	0.54%	741-3091	Carr Estatal 200 Esq Carr Estatal 993	Vieques	PR	7650000	D35295@de.pr.gov	2020-2021
Humacao	Fajardo	Vieques	32375	Adrianne Serrano	18.1091042279543	-65.4853445023169	Abierta	Todos Los Niveles	3 4 5 6 7 8 9 10 11 12	Sí	86	88	2	25.2%	Comprehensive	9.09%	741-8692	Carr Estatal 201 Km 5 Hm 4 Barrio Puerto Real	Vieques	PR	7659712	D32375@de.pr.gov	2020-2021
Humacao	Yabucoa	Maunabo	31542	Alfonso Casta Martínez	18.00734	-65.89685	Abierta	Secundario	9 10 11 12	No	274	260	2	32.5%	Others	4.63%	861-2300	Ave Calimano	Maunabo	PR	7070000	D31542@de.pr.gov	2020-2021
Humacao	Las Piedras	Juncos	32979	Alfonso Díaz Lebrón	18.22674	-65.91815	Abierta	Primario	6 7 8	No	300	295	1	18.7%	Targeted	1.28%	(787) 734-6806	Carr 31 Salida Hacia Naguabo	Juncos	PR	7770000	D32979@de.pr.gov	2020-2021
Humacao	Fajardo	Fajardo	35766	Ana Delia Flores Santana (Superior Vocacional)	18.30027	-65.64811	Abierta	Secundario	9 10 11 12 ES	No	840	831	2	36.3%	Others	2.55%	863-0424	Bo Quebrada Vuelta	Fajardo	PR	7380000	D35766@de.pr.gov	2020-2021
Humacao	Las Piedras	Humacao	30270	Ana Roque de Duprey	18.14917	-65.82054	Abierta	Secundario	9 10 11 12	No	504	474	3	48.4%	Others	1.59%	852-1115  /  852-0820	Calle Dr Vidal Carr #3; Al Lado De Santos Texaco	Humacao	PR	7910000	D30270@de.pr.gov	2020-2021
Humacao	Las Piedras	Humacao	36012	Anita Otero Hernández (Escuela de Bellas Artes)	18.1395482736083	-65.8233408671052	Abierta	Todos Los Niveles	6 7 8 9 10 11 12 EE	No	521	518	5	82.0%	Others	0.85%	285-5575	Zona Industrial Bo Cataño	Humacao	PR	7910000	D36012@de.pr.gov	2020-2021
Humacao	Canóvanas	Río Grande	33647	Antera Rosado Fuentes	18.38239	-65.8382	Abierta	Primario	PK K 1 2 3 4 5 EE	No	445	449	5	83.1%	Others	2.15%	887-2051	Calle 19 Urb Villas De Rio Grande	Río Grande	PR	7450000	D33647@de.pr.gov	2020-2021
Humacao	Yabucoa	San Lorenzo	28522	Antonio Fernós Isern	18.19892	-65.96228	Abierta	Secundario	9 10 11 12	No	800	788	5	81.9%	Others	2.58%	736-1823	Carr 181 Km 32.5 Bo Quebrada	San Lorenzo	PR	7540000	D28522@de.pr.gov	2020-2021
Humacao	Canóvanas	Canóvanas	31054	Antonio R. Barceló	18.37867	-65.90364	Abierta	Primario	K 1 2 3 4 5 6 7 8 EE	No	455	454	2	21.8%	Targeted	2.28%	876-4055	Calle Palmer Final	Canóvanas	PR	7290000	D31054@de.pr.gov	2020-2021
Humacao	Las Piedras	Humacao	35774	Antonio Rosa Guzmán (Nueva)	18.13437	-65.84329	Abierta	Primario	PK K 1 2 3 4 5	No	291	291	4	77.8%	Others	1.37%	(787) 852-3650	Carr 909 Km 2 Hm 2 Bo Mariana	Humacao	PR	7910000	D35774@de.pr.gov	2020-2021
Humacao	Fajardo	Fajardo	30148	Antonio Valero Bernabé	18.33243	-65.65245	Abierta	Primario	6 7 8 EI	No	240	235	2	32.0%	Comprehensive	1.20%	863-0024	Ave General Valero	Fajardo	PR	7380000	D30148@de.pr.gov	2020-2021
Humacao	Las Piedras	Humacao	35626	Avelino Peña Reyes	18.1487593538224	-65.8212256743682	Abierta	Todos Los Niveles	EI ES	No	41	43	2	27.5%	Targeted	0.00%	285-6542	Calle Dr Vidal #3	Humacao	PR	7910000	D35626@de.pr.gov	2020-2021
Humacao	Canóvanas	Loíza	31120	Belén Blanco de Zequeira	18.4328952284561	-65.8788761977544	Abierta	Todos Los Niveles	6 7 8 9 10 11 12 ES	No	372	363	2	26.8%	Comprehensive	3.37%	256-3060	Urb San Patricio 205 Calle Carlos Escobar	Loíza	PR	7720000	D31120@de.pr.gov	2020-2021
Humacao	Fajardo	Fajardo	33274	Berta Zalduondo	18.34936	-65.65086	Abierta	Primario	K 1 2 3 4 5	No	340	328	5	82.9%	Others	3.33%	863-3959	Urb Monte Brisas Ii Calle 104	Fajardo	PR	7380000	D33274@de.pr.gov	2020-2021
Humacao	Las Piedras	Humacao	30429	Braulio Ayala Pérez	18.19844	-65.81211	Abierta	Primario	K 1 2 3 4 5	No	117	119	4	73.4%	Others	0.83%	852-6452	Carr 924 Ramal 938 Bo Mambiche Blanco	Humacao	PR	7910000	D30429@de.pr.gov	2020-2021
Humacao	Canóvanas	Luquillo	33936	Camilo Valles Matienzo	18.37455	-65.72141	Abierta	Primario	K 1 2 3 4 5 EE	No	346	354	4	75.2%	Others	2.45%	889-1045	Urb Brisa Del Mar Calle 3	Luquillo	PR	7730000	D33936@de.pr.gov	2020-2021
Humacao	Las Piedras	Humacao	30304	Cándido Berrios	18.10009	-65.83008	Abierta	Primario	K 1 2 3 4 5	No	262	263	3	56.2%	Others	0.38%	850-1165  /  850-8239	Carr 3 Ramal Km 87 Hm 1 Bo Candelero Arriba	Humacao	PR	7910000	D30304@de.pr.gov	2020-2021
Humacao	Las Piedras	Humacao	33662	Carlos Rivera Ufret	18.1537	-65.83036	Abierta	Todos Los Niveles	6 7 8 EI	No	302	304	1	18.2%	Targeted	4.53%	285-0052	#80 Ave Roosevelt	Humacao	PR	9710000	D33662@de.pr.gov	2020-2021
Humacao	Las Piedras	Juncos	30791	Carmen Arzuaga de Rivera	18.22454	-65.91849	Abierta	Primario	K 1 2 3 4 5 EE	No	217	219	3	49.5%	Others	3.80%	734-8151	Urb Valencia I	Juncos	PR	7770000	D30791@de.pr.gov	2020-2021
Humacao	Las Piedras	Las Piedras	30841	Carmen Benítez	18.18365	-65.86781	Abierta	Primario	K 1 2 3 4 5 EE	No	340	349	2	31.3%	Others	1.13%	733-2660	Calle Jose C Barbosa #97	Las Piedras	PR	7710000	D30841@de.pr.gov	2020-2021
Humacao	Canóvanas	Río Grande	35964	Carmen Feliciano Carrera	18.36912	-65.7787	Abierta	Primario	6 7 8 EI	No	336	336	2	25.2%	Others	1.45%	809-0052	Calle Principal Carr 967 Bo Palmer	Río Grande	PR	7450000	D35964@de.pr.gov	2020-2021
Humacao	Las Piedras	Humacao	30502	Carmen Pilar Santos	18.14571	-65.83097	Abierta	Primario	PK K 1 2 3 4 5 6	Sí	195	191	3	44.8%	Additional Targeted	1.55%	852-2065	Calle Progreso #50, Bda Patagonia	Humacao	PR	7910000	D30502@de.pr.gov	2020-2021
Humacao	Canóvanas	Río Grande	32250	Casiano Cepeda (Intermedia)	18.361	-65.85306	Abierta	Todos Los Niveles	6 7 8 9 10 11 12	No	333	339	2	26.5%	Comprehensive	2.81%	887-4410	Carr 959 Km 2 Bo Cienaga Alta	Río Grande	PR	7450000	D32250@de.pr.gov	2020-2021
Humacao	Yabucoa	Patillas	25049	Cecilio Lebrón Ramos	18.00546	-66.01105	Abierta	Primario	K 1 2 3 4 5 EE	No	285	283	3	56.7%	Others	0.69%	839-3550	Calle Muñoz Rivera Final	Patillas	PR	7230000	D25049@de.pr.gov	2020-2021
Humacao	Canóvanas	Loíza	34793	Celso González Vaillant	18.42633	-65.88097	Abierta	Primario	K 1 2 3 4 5 EE	No	338	332	3	44.0%	Others	1.72%	876-8260	Carr 188 Km 7 Hm 2	Loíza	PR	7720000	D34793@de.pr.gov	2020-2021
Humacao	Yabucoa	Yabucoa	32714	Cristóbal del Campo	18.0778	-65.8944	Abierta	Primario	K 1 2 3 4 5 EE	No	250	252	4	73.0%	Others	1.55%	893-3332	Carr 962 Km 2 Hm 4 Bo Limones	Yabucoa	PR	7670000	D32714@de.pr.gov	2020-2021
Humacao	Fajardo	Ceiba	30167	Centro Residencial de Oportunidades Educativas de Ceiba (CROEC)	18.2179119175749	-65.6494907311511	Abierta	Secundario	9 10 11 12	No	183	181	5	90.0%	Others	0.55%	(787) 865-1020	Calle Roosevelt, Fd-Roosevelt Roads	Ceiba	PR	7350000	D30167@de.pr.gov	2020-2021
Humacao	Fajardo	Ceiba	35907	Don Luis Muñoz Marín	18.2604794901029	-65.6481442734803	Abierta	Primario	K 1 2 3 4 5 EE	No	386	398	3	50.3%	Others	0.50%	885-3091	Carr 779	Ceiba	PR	7350000	D35907@de.pr.gov	2020-2021
Humacao	Canóvanas	Canóvanas	31286	Dr. Pedro Albizu Campos	18.39341	-65.88726	Abierta	Primario	K 1 2 3 4 5 EE	No	264	254	3	43.1%	Additional Targeted	3.47%	876-4610	Carr 188 Hm 3 Bo San Isidro	Canóvanas	PR	7290000	D31286@de.pr.gov	2020-2021
Humacao	Fajardo	Fajardo	30247	Dr. Santiago Veve Calzada	18.33322	-65.64999	Abierta	Secundario	9 10 11 12 ES	No	286	246	2	22.7%	Others	4.89%	863-0125	Ave General Valero	Fajardo	PR	7380000	D30247@de.pr.gov	2020-2021
Humacao	Yabucoa	San Lorenzo	27607	Dra. María T. Delgado de Marcano	18.19121	-65.94123	Abierta	Primario	K 1 2 3 4 5 6 7 8 EI	No	527	526	3	46.5%	Others	1.12%	736-0470	Carr 9929 Km 0 Hm 2 Bo Florida	San Lorenzo	PR	7540000	D27607@de.pr.gov	2020-2021
Humacao	Fajardo	Culebra	37507	Ecológica de Culebra	18.30769	-65.30285	Abierta	Todos Los Niveles	K 1 2 3 4 5 6 7 8 9 10 11 12 EE	No	135	133	4	66.6%	Comprehensive	1.43%	742-3583	109 Calle Escudero	Culebra	PR	7750000	D37507@de.pr.gov	2020-2021
Humacao	Canóvanas	Río Grande	34314	Edmundo del Valle Cruz	18.37509	-65.84772	Abierta	Primario	K 1 2 3 4 5	No	251	252	2	39.9%	Others	0.00%	887-8950	Calle  20 Urb Alturas De Rio Grande	Río Grande	PR	7450000	D34314@de.pr.gov	2020-2021
Humacao	Canóvanas	Canóvanas	34926	Eduardo García Carrillo	18.32192	-65.88929	Abierta	Secundario	9 10 11 12 ES	No	231	217	2	34.0%	Comprehensive	2.06%	886-2200	Carr 186 Km 7 Hm 5 Bo Campo Rico	Canóvanas	PR	7290000	D34926@de.pr.gov	2020-2021
Humacao	Canóvanas	Canóvanas	35923	Elemental Barrio Las 400	18.26935	-65.91448	Abierta	Primario	K 1 2 3 4 5 6 7 8	No	189	180	3	42.0%	Additional Targeted	1.01%	876-7280	Carr 185 Km 15.8 Parcela Las 400	Canóvanas	PR	7290000	D35923@de.pr.gov	2020-2021
Humacao	Las Piedras	Humacao	35550	Escuela Libre De Musica	18.14852	-65.82192	Abierta	Todos Los Niveles	SHARED	No					N/A		285-7901	Callle Dr Vidal	Humacao	PR	7910000	D35550@de.pr.gov	2020-2021
Humacao	Fajardo	Naguabo	31617	Eugenio Brac	18.20984	-65.73354	Abierta	Primario	K 1 2 3 4 5 EE	No	232	230	4	65.6%	Others	0.41%	874-3295	2 Calle Antonio Rios	Naguabo	PR	7180000	D31617@de.pr.gov	2020-2021
Humacao	Canóvanas	Río Grande	35535	Félix Sánchez Cruz	18.38203	-65.79582	Abierta	Primario	K 1 2 3 4 5 EE	No	270	267	3	56.3%	Others	3.11%	888-7699	Calle 7 Norte Urb Rio Grande Estates	Río Grande	PR	7450000	D35535@de.pr.gov	2020-2021
Humacao	Fajardo	Naguabo	36350	Fermín Delgado Díaz	18.23646	-65.81325	Abierta	Todos Los Niveles	PK K 1 2 3 4 5 6 7 8 9	No	291	287	3	42.5%	Others	0.34%	(787) 874-6445	Carr #31 Int #850 Bo Peña Pobre Sec-Higuerillo	Naguabo	PR	7180000	D36350@de.pr.gov	2020-2021
Humacao	Fajardo	Naguabo	33225	Fidelina Meléndez Monsanto	18.21099	-65.73378	Abierta	Primario	6 7 8 EI	No	219	217	4	63.7%	Others	6.28%	874-3315	Calle Antonio Rios Lateral 7	Naguabo	PR	7180000	D33225@de.pr.gov	2020-2021
Humacao	Las Piedras	Las Piedras	35592	Florencia García	18.17793	-65.85994	Abierta	Secundario	9 10 11 12 ES	No	428	410	1	16.6%	Comprehensive	5.04%	716-0044  /  716-0075	Calle Jose C Barbosa Frente Centro Piezas	Las Piedras	PR	7710000	D35592@de.pr.gov	2020-2021
Humacao	Fajardo	Fajardo	30197	Gabino Soto	18.32381	-65.65645	Abierta	Primario	K 1 2 3 4 5 EE	No	198	194	4	69.1%	Others	0.46%	863-0724	Calle Igualdad 174	Fajardo	PR	7380000	D30197@de.pr.gov	2020-2021
Humacao	Yabucoa	San Lorenzo	23309	Generoso Morales Muñoz	18.1887	-65.96106	Abierta	Primario	6 7 8 EI	No	235	232	2	23.9%	Additional Targeted	0.43%	736-6658	Ave Jose De Diego 58	San Lorenzo	PR	7540000	D23309@de.pr.gov	2020-2021
Humacao	Canóvanas	Canóvanas	35048	Georgina Baquero	18.26638	-65.87392	Abierta	Todos Los Niveles	K 1 2 3 4 5 6 7 8 9 10 11 12 ES	No	311	311	1	18.6%	Others	2.50%	876-7807	Carr 186 Km 7 Mh 1 Bo Cubuy	Canóvanas	PR	7290000	D35048@de.pr.gov	2020-2021
Humacao	Fajardo	Vieques	33043	German Rieckehoff	18.15216	-65.43863	Abierta	Secundario	9 10 11 12 ES	No	246	227	3	51.1%	Others	7.81%	741-8340	Bo. Pueblo Nuevo	Vieques	PR	7650000	D33043@de.pr.gov	2020-2021
Humacao	Yabucoa	Patillas	25197	Guillermo Riefkhol	17.98027	-65.99573	Abierta	Primario	PK K 1 2 3 4 5 6	Sí	132	126	2	37.0%	Others	0.75%	839-8231	Carr 3 Km 118 Hm 3	Patillas	PR	7230000	D25197@de.pr.gov	2020-2021
Humacao	Canóvanas	Loíza	34272	Guillermina Rosado de Ayala	18.38393	-65.8683	Abierta	Primario	K 1 2 3 4 5 6 7 8 EE	No	610	619	3	52.6%	Others	1.73%	256-2050	Calle 25 Urb Villas De Loiza	Loíza	PR	7720000	D34272@de.pr.gov	2020-2021
Humacao	Fajardo	Fajardo	30189	Inés Encarnación	18.31877	-65.66831	Abierta	Primario	K 1 2 3 4 5 EE	No	177	178	3	59.7%	Others	0.55%	863-7570	Carr 985 Bo Florencio	Fajardo	PR	7380000	D30189@de.pr.gov	2020-2021
Humacao	Fajardo	Ceiba	34462	Irma Pedraza Ruiz (Intermedia Nueva)	18.2640233730532	-65.6461324827119	Abierta	Primario	6 7 8 EI	No	285	285	3	42.5%	Comprehensive	1.03%	885-3170	Urb Rossy Valley Calle Barcelona	Ceiba	PR	7350000	D34462@de.pr.gov	2020-2021
Humacao	Las Piedras	Juncos	34363	Isabel Flores	18.22734	-65.90938	Abierta	Secundario	9 10 11 12 ES	No	405	372	2	37.6%	Others	3.08%	734-6816	Urb Los Almendros	Juncos	PR	7770000	D34363@de.pr.gov	2020-2021
Humacao	Yabucoa	Yabucoa	32763	Jaime C. Rodríguez	18.04678	-65.88723	Abierta	Primario	PK K 1 2 3 4 5 6	Sí	138	139	2	33.2%	Others	2.72%	893-2010	Carr 900 Urb Jaime C Rodriguez	Yabucoa	PR	7670000	D32763@de.pr.gov	2020-2021
Humacao	Canóvanas	Loíza	31252	Jobos	18.42738	-65.86441	Abierta	Primario	PK K 1 2 3 4 5 EE	No	271	271	2	22.4%	Others	5.33%	256-4500	Carr 187 Km 9 Hm 8 Bo Mediania Alta	Loíza	PR	7720000	D31252@de.pr.gov	2020-2021
Humacao	Yabucoa	San Lorenzo	35972	Jorge Rosario del Valle	18.12068	-65.99334	Abierta	Todos Los Niveles	K 1 2 3 4 5 6 7 8 9 10 11 12 EI EE ES	No	414	409	2	32.4%	Additional Targeted	3.92%	736-5830	Carr 181 Km 12 Bo Espino	San Lorenzo	PR	7540000	D35972@de.pr.gov	2020-2021
Humacao	Yabucoa	Yabucoa	32573	José F. Cintrón y Anexo	18.22678	-65.92984	Abierta	Primario	K 1 2 3 4 5 EE	No	143	145	2	39.0%	Others	0.00%	266-2333	Calle Jose F Cintron Final	Yabucoa	PR	7670000	D32573@de.pr.gov	2020-2021
Humacao	Las Piedras	Juncos	34777	José A. López Castro	18.33612	-65.88934	Abierta	Primario	PK K 1 2 3 4 5 EE	No	161	165	2	30.6%	Targeted	0.00%	734-4544	Calle Algarin Final Bo Mamey	Juncos	PR	7770000	D34777@de.pr.gov	2020-2021
Humacao	Canóvanas	Canóvanas	31070	Jose Calzada Ferrer	18.19024	-65.96531	Abierta	Primario	PK K 1 2 3 4 5 6 7 8 EE	No	267	274	2	26.3%	Additional Targeted	5.41%	876-4359	Carr 185 Km 5 Hm 5 Bo Campo Rico	Canóvanas	PR	7290000	D31070@de.pr.gov	2020-2021
Humacao	Yabucoa	San Lorenzo	22582	José Campeche	18.22539	-65.90344	Abierta	Secundario	9 10 11 12 ES	No	468	472	2	23.3%	Others	3.78%	736-2701	Calle Emilio Buitrago	San Lorenzo	PR	7540000	D22582@de.pr.gov	2020-2021
Humacao	Las Piedras	Juncos	34785	José Collazo Colón	18.14595	-65.89412	Abierta	Secundario	9 10 11 12	No	607	580	3	45.5%	Others	2.27%	734-4345	Carr 935 Ramal Bo Ceiba Norte	Juncos	PR	7770000	D34785@de.pr.gov	2020-2021
Humacao	Las Piedras	Las Piedras	30874	José de Diego	18.05066	-65.87582	Abierta	Primario	PK K 1 2 3 4 5	Sí	238	235	3	49.1%	Others	3.17%	733-2132	Carr 183 Ramal 917 Km 4 Hm 7	Las Piedras	PR	7710000	D30874@de.pr.gov	2020-2021
Humacao	Canóvanas	Canóvanas	34207	José Santos Quiñones	18.3876	-65.88425	Abierta	Primario	6 7 8 EI	No	179	183	2	28.8%	Comprehensive	4.81%	876-4493	Calle 21 Jardines Palmarejo Bo San Isidro	Canóvanas	PR	7290000	D34207@de.pr.gov	2020-2021
Humacao	Fajardo	Fajardo	34348	Josefina Ferrero	18.34179	-65.65554	Abierta	Primario	6 7 8 EI	No	344	344	3	49.0%	Others	3.57%	863-6770	Ave Conquistador Esq Urb Monte Brisas	Fajardo	PR	7380000	D34348@de.pr.gov	2020-2021
Humacao	Yabucoa	Patillas	25031	Josefina Muñoz de Bernier	18.00749	-66.01649	Abierta	Primario	6 7 8 EI	No	223	226	2	24.5%	Targeted	0.00%	839-3630	Ave Jesus T Piñero	Patillas	PR	7230000	D25031@de.pr.gov	2020-2021
Humacao	Fajardo	Naguabo	35881	Juan José Maunez	18.24354	-65.89991	Abierta	Secundario	9 10 11 12 ES	No	341	330	3	47.8%	Others	3.41%	874-0416	Calle Buenos Aires Final	Naguabo	PR	7180000	D35881@de.pr.gov	2020-2021
Humacao	Las Piedras	Humacao	33704	Juan Ponce de León	18.2083	-65.73694	Abierta	Todos Los Niveles	6 7 8 9 10 11 12	No	349	348	4	63.9%	Others	0.74%	852-1242	Calle Dr Vidal	Humacao	PR	7910000	D33704@de.pr.gov	2020-2021
Humacao	Canóvanas	Canóvanas	33563	Juana Rodríguez Mundo	18.14893	-65.82277	Abierta	Primario	PK K 1 2 3 4 5 6	Sí	348	344	3	56.3%	Others	4.53%	876-4828	Urb Loiza Valley Calle Adonis	Canóvanas	PR	7290000	D33563@de.pr.gov	2020-2021
Humacao	Las Piedras	Juncos	30734	Juana Sánchez	18.3727	-65.91383	Abierta	Primario	PK K 1 2 3 4 5 6 7 8 EE	Sí	317	315	4	67.6%	Others	3.63%	734-4347	Carr 946 Km 0 Hm 9 Bo Placita	Juncos	PR	7770000	D30734@de.pr.gov	2020-2021
Humacao	Fajardo	Vieques	32300	Juanita Rivera Albert	18.09832	-65.47612	Abierta	Primario	PK K 1 2 3	Sí	70	69			N/A	5.13%	741-3060	Comunidad Esperanza Parcelas Nuevas Km3 Hm2 Int.	Vieques	PR	7650000	D32300@de.pr.gov	2020-2021
Humacao	Las Piedras	Las Piedras	30916	La Fermina	18.17576	-65.84837	Abierta	Primario	K 1 2 3 4 5 EE	No	286	286	2	32.3%	Others	1.02%	850-5155	Carr 189	Las Piedras	PR	7710000	D30916@de.pr.gov	2020-2021
Humacao	Las Piedras	Las Piedras	35493	Leonicio Meléndez	18.17711	-65.86748	Abierta	Primario	6 7 8 EI	No	389	387	2	33.7%	Others	1.27%	733-1050	Desvio Sur Anibal Garcia Peña	Las Piedras	PR	7711033	D35493@de.pr.gov	2020-2021
Humacao	Canóvanas	Río Grande	32227	Liberata Iraldo (Nueva)	18.37947	-65.84961	Abierta	Primario	6 7 8 EI	No	403	398	3	43.7%	Others	4.04%	888-3534	Calle Main Urb Alturas De Rio Grande	Río Grande	PR	7450000	D32227@de.pr.gov	2020-2021
Humacao	Las Piedras	Humacao	35360	Lidia Fiol Scarano	18.14178	-65.80006	Abierta	Primario	K 1 2 3 4 5 EE	No	320	316	5	83.1%	Others	3.63%	850-7080  /  285-0068	Calle 6 Villa Humacao	Humacao	PR	7910000	D35360@de.pr.gov	2020-2021
Humacao	Canóvanas	Canóvanas	33340	Luis Hernaiz Veronne	18.37639	-65.90108	Abierta	Secundario	9 10 11 12	No	355	336	2	24.5%	Others	5.73%	876-2395	Calle Autonomia Final	Canóvanas	PR	7290000	D33340@de.pr.gov	2020-2021
Humacao	Yabucoa	Yabucoa	34264	Luis Muñoz Marín	18.07654	-65.89445	Abierta	Todos Los Niveles	6 7 8 9 10 11 12	No	254	253	2	26.3%	Comprehensive	1.15%	893-2880	Carr 902 Km 2.2 Bo Limones	Yabucoa	PR	7670000	D34264@de.pr.gov	2020-2021
Humacao	Las Piedras	Las Piedras	30924	Luis Muñoz Rivera	18.20648	-65.8449	Abierta	Primario	K 1 2 3 4 5 EE	No	225	211	3	58.1%	Others	1.30%	733-1441	Carr 936 Bo Boqueron Int 937	Las Piedras	PR	7710000	D30924@de.pr.gov	2020-2021
Humacao	Yabucoa	San Lorenzo	22327	Luis Muñoz Rivera	18.18904	-65.96116	Abierta	Primario	K 1 2 3 4 5 EE	No	499	496	2	27.6%	Others	2.87%	736-5856	Calle Luis Muñoz Rivera	San Lorenzo	PR	7540000	D22327@de.pr.gov	2020-2021
Humacao	Fajardo	Naguabo	31583	Lutgarda Rivera Reyes	18.23751	-65.7822	Abierta	Primario	PK K 1 2 3 4 5 6 7 8	Sí	226	229	3	48.3%	Others	4.51%	874-0010	Carr 969 Km 2 Hm 0 Bo Florida	Naguabo	PR	7180000	D31583@de.pr.gov	2020-2021
Humacao	Las Piedras	Humacao	35071	Luz A. Cruz de Santana	18.14278	-65.83631	Abierta	Primario	K 1 2 3 4 5 EE	No	370	368	5	86.0%	Others	0.82%	850-6460  /  285-2886	Calle 15 Urb Villa Universitaria	Humacao	PR	7910000	D35071@de.pr.gov	2020-2021
Humacao	Yabucoa	Maunabo	31534	Manuel Ortíz Suya	18.0084453401684	-65.9328976713256	Abierta	Primario	K 1 2 3 4 5 EE	No	108	109	2	38.8%	Others	0.90%	861-4600	Carr 759 Ramal 7762 Palo Seco	Maunabo	PR	7070000	D31534@de.pr.gov	2020-2021
Humacao	Yabucoa	Patillas	25023	María Dávila Semidey	18.0057922066498	-66.0171886666059	Abierta	Primario	K 1 2 3 4 5 6 7 8	No	277	271	4	64.5%	Others	1.42%	839-6831	Edf. Maria Davila Semidey Carr 3 #300	Patillas	PR	7230000	D25023@de.pr.gov	2020-2021
Humacao	Fajardo	Fajardo	30221	María I. Dones	18.30089	-65.64413	Abierta	Primario	K 1 2 3 4 5 EE	No	98	104	3	52.0%	Others	3.57%	863-8240	Calle 5 Bo Quebrada Vueltas	Fajardo	PR	7389711	D30221@de.pr.gov	2020-2021
Humacao	Fajardo	Vieques	35840	María M. Simmons de Rivera	18.12417	-65.4533	Abierta	Primario	K 1 2 3 4 5 EE	No	190	191	2	24.9%	Targeted	0.00%	741-0895	Carr 993 Km 2	Vieques	PR	7650000	D35840@de.pr.gov	2020-2021
Humacao	Yabucoa	Yabucoa	32524	Marta Sánchez	18.04359	-65.90717	Abierta	Primario	PK K 1 2 3 4 5 EE	No	124	128	2	39.2%	Others	1.53%	893-3300	Carr 900 Bo Guayabo	Yabucoa	PR	7670000	D32524@de.pr.gov	2020-2021
Humacao	Canóvanas	Loíza	31245	Medianía Alta Elemental	18.4265384908438	-65.8425270198233	Abierta	Primario	K 1 2 3 4 5 EE	No	396	387	4	66.7%	Targeted	0.98%	876-1200	Carr 187 Km 5 Hm 6 Bo Mediania Alta	Loíza	PR	7720000	D31245@de.pr.gov	2020-2021
Humacao	Las Piedras	Juncos	30643	Pedro Bosch	18.21698	-65.89179	Abierta	Primario	K 1 2 3 4 5 6 7 8	No	336	337	2	28.2%	Others	0.29%	734-4346  /  733-6455	Carr 935 Km 2 Bo Ceiba Norte	Juncos	PR	7770000	D30643@de.pr.gov	2020-2021
Humacao	Canóvanas	Río Grande	33233	Pedro Falú Orellano	18.3801470087565	-65.8366617460585	Abierta	Secundario	9 10 11 12 ES	No	685	670	2	32.4%	Others	2.80%	887-2778	Calle Pimentel Sector Las Flores	Río Grande	PR	7450000	D33233@de.pr.gov	2020-2021
Humacao	Las Piedras	Humacao	34884	Petra Mercado Bougart	18.14719	-65.84094	Abierta	Secundario	9 10 11 12	No	406	396	2	36.8%	Others	4.30%	852-7780  /  852-2880	Carr 906 Ave Tejas Final	Humacao	PR	7910000	D34884@de.pr.gov	2020-2021
Humacao	Fajardo	Vieques	32367	Playa Grande	18.14139	-65.4513	Abierta	Primario	PK K 1 2 3 4 5	Sí	215	206	2	38.4%	Comprehensive	0.90%	741-2766	Carr. Estatal 993 Km1 Hm 3	Vieques	PR	7650000	D32367@de.pr.gov	2020-2021
Humacao	Canóvanas	Río Grande	35543	Pre-Vocacional Casiano Cepeda	18.36096	-65.85451	Abierta	Todos Los Niveles	EI	No	62	60	4	70.1%	Comprehensive	14.29%	887-5200	Carr 959 Km 2 Bo Cienaga Alta	Río Grande	PR	7450000	D35543@de.pr.gov	2020-2021
Humacao	Fajardo	Ceiba	36343	Puerto Rico Aviation Maintenance Institute	18.2452279915423	-65.6372089879966	Abierta	PS - Instituto	SHARED	No					N/A		865-1300	Forestal Drive Corner, Langley Drive	Ceiba	PR	7350000	D36343@de.pr.gov	2020-2021
Humacao	Fajardo	Naguabo	31609	Quebrada Grande	18.24141	-65.7462	Abierta	Primario	K 1 2 3 4 5	No	207	206	5	85.8%	Others	0.93%	874-0430	Calle 3 Bo Duque Esq 8 Parcelas Viejas	Naguabo	PR	7180000	D31609@de.pr.gov	2020-2021
Humacao	Canóvanas	Río Grande	32243	Rafael de Jesús	18.37979	-65.83289	Abierta	Primario	K 1 2 3 4 5 EE	No	238	241	4	62.0%	Others	0.80%	887-2785	Calle Pimentel Y Castro	Río Grande	PR	7450000	D32243@de.pr.gov	2020-2021
Humacao	Canóvanas	Luquillo	31302	Rafael N. Coca	18.3698958929089	-65.7131928898628	Abierta	Primario	6 7 8 EI	No	303	307	2	26.8%	Others	1.28%	889-3243	Calle Fernandez Garcia Final	Luquillo	PR	7730000	D31302@de.pr.gov	2020-2021
Humacao	Canóvanas	Río Grande	32268	Rafael Rexach Dueño	18.36935	-65.77384	Abierta	Primario	K 1 2 3 4 5	No	239	234	5	80.5%	Others	5.10%	887-2720	Calle Principal Bo Palmer	Río Grande	PR	7450000	D32268@de.pr.gov	2020-2021
Humacao	Yabucoa	Patillas	35816	Rafalina E. Lebrón Flores	18.00472	-66.01258	Abierta	Secundario	9 10 11 12	No	264	251	2	20.6%	Others	3.30%	839-3419	Urb San Martin Calle Pricipal Final	Patillas	PR	7230000	D35816@de.pr.gov	2020-2021
Humacao	Las Piedras	Las Piedras	30973	Ramón Power y Giralt	18.18197	-65.86987	Abierta	Secundario	9 10 11 12 ES	No	769	762	3	43.6%	Others	3.23%	733-2561	Calle Jesus T Piñero 22	Las Piedras	PR	7710000	D30973@de.pr.gov	2020-2021
Humacao	Yabucoa	Yabucoa	35782	Ramón Quiñones Medina	18.04474	-65.88209	Abierta	Secundario	9 10 11 12 ES	No	421	415	4	65.7%	Others	1.16%	893-2216	Urb Reparto Horizonte Frente Al Cementerio	Yabucoa	PR	7670000	D35782@de.pr.gov	2020-2021
Humacao	Fajardo	Fajardo	30239	Ramón Quiñones Pacheco	18.32564	-65.6511	Abierta	Primario	K 1 2 3 4 5	No	275	264	4	75.4%	Others	1.06%	863-0624	Calle Federico Garcia 155	Fajardo	PR	7380000	D30239@de.pr.gov	2020-2021
Humacao	Las Piedras	Juncos	36327	Roberto Silva Morales	18.225	-65.93629	Abierta	Primario	K 1 2 3 4 5 EE	No	299	280	3	53.6%	Others	1.96%	734-8553	Carr 929 Int Carr #9919	Juncos	PR	7770000	D36327@de.pr.gov	2020-2021
Humacao	Yabucoa	Yabucoa	32532	Rosa Costa Valdivieso	18.04398	-65.87623	Abierta	Primario	6 7 8 EI	No	136	138	1	16.6%	Additional Targeted	0.00%	893-3390	Calle Cristobal Colon Final	Yabucoa	PR	7670000	D32532@de.pr.gov	2020-2021
Humacao	Fajardo	Fajardo	34769	Rosa Pascuala Paris	18.34774	-65.66956	Abierta	Primario	K 1 2 3 4 5 EE	No	204	209	3	42.8%	Others	3.64%	863-8520	Urb Fajardo Gardens Calle 23	Fajardo	PR	7380000	D34769@de.pr.gov	2020-2021
Humacao	Las Piedras	Humacao	33308	Rufino Vigo	18.15195	-65.82404	Abierta	Primario	K 1 2 3 4 5 EE	No	220	220	3	59.2%	Others	0.00%	852-3215	Calle Duchesne #113	Humacao	PR	7910000	D33308@de.pr.gov	2020-2021
Humacao	Fajardo	Ceiba	30098	Santiago Iglesias Pantín	18.26489	-65.64617	Abierta	Secundario	9 10 11 12 ES	No	333	334	2	29.3%	Comprehensive	6.40%	885-3200	Urb Rossy Valley Calle Francisco Gautier	Ceiba	PR	7350000	D30098@de.pr.gov	2020-2021
Humacao	Las Piedras	Las Piedras	34355	Santiago Torres	18.17193	-65.87413	Abierta	Primario	6 7 8 EI	No	275	265	2	30.3%	Others	4.33%	733-1454	Bo Tejas,  Sector Montellanos ; Calle Eulogio Reyes, Urb April Garden	Las Piedras	PR	7710000	D34355@de.pr.gov	2020-2021
Humacao	Las Piedras	Humacao	34199	S. U. Agapito López Flores	18.161	-65.75979	Abierta	Primario	K 1 2 3 4 5 6 7 8	No	371	359	2	27.0%	Targeted	1.32%	852-6494	Urb Verde Mar Calle 6	Humacao	PR	7410911	D34199@de.pr.gov	2020-2021
Humacao	Yabucoa	Yabucoa	32680	S. U. Andrés Sandín	18.08559	-65.8468	Abierta	Primario	K 1 2 3 4 5 6 7 8 EI	No	544	542	2	33.7%	Others	0.75%	893-1070	Carr 906 Km 2.5 Bo Aguacate	Yabucoa	PR	7670000	D32680@de.pr.gov	2020-2021
Humacao	Yabucoa	Yabucoa	32433	S. U. Asunción Lugo	18.03649	-65.84665	Abierta	Primario	K 1 2 3 4 5 6 7 8 EE EI	No	223	222	3	41.1%	Additional Targeted	0.44%	893-2626	Carr 701 Bo Camino Nuevo	Yabucoa	PR	7670000	D32433@de.pr.gov	2020-2021
Humacao	Yabucoa	San Lorenzo	22566	S. U. Carlos Zayas	18.15569	-65.95272	Abierta	Primario	K 1 2 3 4 5 6 7 8	No	259	265	3	40.9%	Others	0.37%	736-9633	Carr 916 Km 4 Hm 4 Cerro Gordo	San Lorenzo	PR	7540000	D22566@de.pr.gov	2020-2021
Humacao	Las Piedras	Juncos	30742	S. U. Clara M. Aramburu	18.23526	-65.88013	Abierta	Primario	K 1 2 3 4 5 6 7 8 EE EI	No	414	416	2	34.5%	Others	0.70%	734-7444	Carr 31 Km 20.8	Juncos	PR	7770000	D30742@de.pr.gov	2020-2021
Humacao	Yabucoa	Maunabo	31427	S. U. Higinio Figueroa Villegas	17.99916	-65.88847	Abierta	Primario	K 1 2 3 4 5 6 7 8 EI	No	345	349	2	26.5%	Others	0.85%	861-2340	Sector Bordaleza Bo Emajaguas	Maunabo	PR	7070000	D31427@de.pr.gov	2020-2021
Humacao	Yabucoa	San Lorenzo	22459	S. U. Jagual Adentro	18.16177	-65.99346	Abierta	Primario	K 1 2 3 4 5 6 7 8 EE EI	No	285	283	2	38.8%	Others	0.69%	736-7877	Carr 181 Ramal 765 Km 2 Bo Jagual	San Lorenzo	PR	7540000	D22459@de.pr.gov	2020-2021
Humacao	Yabucoa	Yabucoa	32748	S. U. Jesús T. Sanabria Cruz	18.10954	-65.87152	Abierta	Primario	PK K 1 2 3 4 5 6 7 8	No	234	236	3	55.2%	Others	2.11%	893-4860	Carr 3 Ruta 905	Yabucoa	PR	7679503	D32748@de.pr.gov	2020-2021
Humacao	Yabucoa	Patillas	25239	S. U. Joaquín Parrilla	17.99333	-66.02498	Abierta	Primario	K 1 2 3 4 5 6 7 8 EE EI	No	274	265	3	44.4%	Others	2.11%	839-0357	Carr 184 Km 2 Hm 5	Patillas	PR	7230000	D25239@de.pr.gov	2020-2021
Humacao	Yabucoa	Yabucoa	32540	S. U. Manuel Ortiz	18.09006	-65.91421	Abierta	Primario	K 1 2 3 4 5 6 7 8	No	178	183	4	73.9%	Targeted	0.00%	893-5770	Carr 902 Km 5 Hm 8 Bo Jacanas Abajo	Yabucoa	PR	7670000	D32540@de.pr.gov	2020-2021
Humacao	Canóvanas	Loíza	36046	S. U. Nueva Bo. Medianía	18.4265819839958	-65.8469176983476	Abierta	Primario	6 7 8	No	333	330	2	22.0%	Comprehensive	0.87%	876-1377	Carr #187 Km 3 Hm 9 Bo Mediania Alta	Loíza	PR	7720000	D36046@de.pr.gov	2020-2021
Humacao	Las Piedras	Juncos	30759	S. U. Pedro Rivera Molina	18.17552	-65.91752	Abierta	Primario	K 1 2 3 4 5 6 7 8 EE	No	597	578	2	32.5%	Others	3.13%	736-4148  /  715-0066	Carr 183 Km 16.3 Valenciano  Abajo	Juncos	PR	7770000	D30759@de.pr.gov	2020-2021
Humacao	Yabucoa	Yabucoa	32458	S. U. Rogelio Rosado	18.04717	-65.92174	Abierta	Primario	K 1 2 3 4 5 6 7 8	No	194	194	2	35.7%	Additional Targeted	0.44%	893-3075	Ruta 900 Km 4.5	Yabucoa	PR	7670000	D32458@de.pr.gov	2020-2021
Humacao	Canóvanas	Luquillo	31393	S. U. Sabana (S. U. Alejandrina Ríos)	18.3469	-65.72552	Abierta	Primario	K 1 2 3 4 5 EE	No	171	174	4	71.3%	Others	1.12%	889-3750	Carr 984 Bo Sabana	Luquillo	PR	7730000	D31393@de.pr.gov	2020-2021
Humacao	Fajardo	Naguabo	35014	S. U. Silverio García	18.21901	-65.69011	Abierta	Primario	K 1 2 3 4 5 6 7 8 EI	No	272	271	2	36.4%	Others	1.75%	874-5520	Carr 3 Km 9 Hm 4 Bo Daguao	Naguabo	PR	7180000	D35014@de.pr.gov	2020-2021
Humacao	Las Piedras	Humacao	35501	Superior Vocacional Manuel Mediavilla	18.1406	-65.82297	Abierta	Secundario	9 10 11 12 ES	No	509	488	2	36.5%	Others	7.10%	852-1315  /  852-1415	58B Calle Carreras Parque Industrial	Humacao	PR	7910000	D35501@de.pr.gov	2020-2021
Humacao	Canóvanas	Luquillo	35618	Superior Isidro A. Sánchez	18.3777358359141	-65.7221638547964	Abierta	Secundario	9 10 11 12 ES	No	605	598	2	26.2%	Others	4.59%	889-4333	Urb Brisa Del Mar Calle 2	Luquillo	PR	7730000	D35618@de.pr.gov	2020-2021
Humacao	Canóvanas	Loíza	36335	Superior Vocacional Eladio Rivera Quiñones (Nueva Superior de Loíza)	18.4248409226623	-65.8426836293032	Abierta	Secundario	9 10 11 12 ES	No	476	482	2	36.9%	Others	1.59%	256-1075	Carr 187 Km 5 Hm 6 Bo Mediania	Loíza	PR	7720000	D36335@de.pr.gov	2020-2021
Humacao	Yabucoa	Yabucoa	32755	Teodoro Aguilar Mora	18.04463	-65.88017	Abierta	Secundario	9 10 11 12 ES	No	407	391	2	23.2%	Others	2.66%	266-4418	Calle Mendez	Yabucoa	PR	7670000	D32755@de.pr.gov	2020-2021
Humacao	Canóvanas	Canóvanas	36384	Superior Vocacional William Rivera Betancourt	18.3894016590686	-65.8874707446441	Abierta	Secundario	9 10 11 12 ES	No	479	476	4	79.7%	Others	1.64%	(787) 256-8700	Bo San Isidro Pr 188	Canóvanas	PR	7290000	D36384@de.pr.gov	2020-2021
Humacao	Yabucoa	Maunabo	35899	Wilfredo Lafuente Ortíz	18.00991948634	-65.9023013875502	Abierta	Primario	K 1 2 3 4 5 6 7 8 EE EI	No	223	233	2	38.4%	Comprehensive	1.27%	861-3500	Carr 750 Bo Atalante	Maunabo	PR	7070000	D35899@de.pr.gov	2020-2021
Mayagüez	San Sebastián	Moca	42473	Adolfo Babilonia	18.39537	-67.11244	Abierta	Primario	K 1 2 3 4 5 EE	No	351	343	3	57.6%	Others	0.57%	877-3170	230 Calle Isabela Pueblo	Moca	PR	6760000	D42473@de.pr.gov	2020-2021
Mayagüez	Aguadilla	Aguadilla	40493	Ana María Javariz	18.45022	-67.14958	Abierta	Primario	K 1 2 3 4 5 EE	No	271	272	4	64.7%	Others	4.81%	891-2260	Carr.107 Urb. El Prado	Aguadilla	PR	6030000	D40493@de.pr.gov	2020-2021
Mayagüez	Aguadilla	Aguada	40139	Anselmo Villarrubia	18.36258	-67.17037	Abierta	Primario	PK K 1 2 3 4 5	No	211	204	3	56.6%	Others	2.75%	868-8735	Ramal 4416 Km 1.8 Bo Malpaso	Aguada	PR	6020000	D40139@de.pr.gov	2020-2021
Mayagüez	Aguadilla	Aguadilla	46672	Antonio Badillo Hernández	18.48796	-67.09781	Abierta	Primario	K 1 2 3 4 5 6 7 8 EE	No	459	453	2	29.3%	Others	1.88%	890-3350	Carr. 459 Km. 7.04 Bo. Montaña	Aguadilla	PR	6030000	D46672@de.pr.gov	2020-2021
Mayagüez	San Sebastián	Isabela	15438	Antonio Geigel Paredes	18.46913	-67.03173	Abierta	Primario	K 1 2 3 4 5 EE	No	290	303	3	58.1%	Others	2.58%	872-1942	Carr 112 Km.3.5 Bo. Mora	Isabela	PR	6620000	D15438@de.pr.gov	2020-2021
Mayagüez	Aguadilla	Añasco	40527	Antonio González Suárez	18.28729	-67.13959	Abierta	Primario	K 1 2 3 4 5	No	311	307	4	75.4%	Others	0.32%	826-3625	Carr. 402  Km 6 Bo Daguey	Añasco	PR	6100000	D40527@de.pr.gov	2020-2021
Mayagüez	Aguadilla	Aguada	40147	Aquilino Cabán	18.37448	-67.14525	Abierta	Primario	PK K 1 2 3 4 5 6 7 8 EE	No	481	480	3	45.7%	Others	1.04%	868-0373	Carr 4417 Km 0 Hm 8 Bo Mamey	Aguada	PR	6020000	D40147@de.pr.gov	2020-2021
Mayagüez	San Sebastián	San Sebastián	43505	Áurea Fuentes Méndez	18.30833	-66.98146	Abierta	Primario	K 1 2 3 4 5	No	139	145	2	25.1%	Others	0.00%	896-4100	Carr 435 Km 2 Hm 3	San Sebastián	PR	6850000	D43505@de.pr.gov	2020-2021
Mayagüez	San Sebastián	San Sebastián	48025	Aurora Méndez Charneco	18.33826	-66.99505	Abierta	Primario	K 1 2 3 4 5 EE	No	277	285	2	30.9%	Others	2.67%	896-1072	Calle Pedro Albisus Campos	San Sebastián	PR	6850000	D48025@de.pr.gov	2020-2021
Mayagüez	Cabo Rojo	San Germán	43273	Bartolomé de las Casas	18.09406	-67.01142	Abierta	Primario	PK K 1 2 3 4 5 6	No	151	151	2	37.6%	Others	3.11%	892-5756	Carr 362 Km 4 Hm 3 Bo Guama	San Germán	PR	6830000	D43273@de.pr.gov	2020-2021
Mayagüez	Aguadilla	Aguadilla	46656	Benito Cerezo Vázquez	18.45848	-67.15498	Abierta	Secundario	9 10 11 12 EES	No	583	568	3	40.3%	Others	3.16%	891-5000	Carr. 107Int. 458 Bda. Borinquen	Aguadilla	PR	6030000	D46656@de.pr.gov	2020-2021
Mayagüez	Cabo Rojo	Sabana Grande	45393	Blanca Malaret	18.07807	-66.95798	Abierta	Primario	K 1 2 3 4 5 6 7 8 EE EI	No	574	579	3	41.6%	Others	4.62%	873-3980	Calle Pedro Rodriguez Acosta 1	Sabana Grande	PR	6370000	D45393@de.pr.gov	2020-2021
Mayagüez	Mayagüez	Las Marías	41632	Bryan	18.22649	-66.92717	Abierta	Primario	K 1 2 3 4 5 6	No	87	87	4	73.5%	Others	4.44%	827-3066	Carr. 124 Km.10 Bo.Cerrote	Las Marías	PR	6700000	D41632@de.pr.gov	2020-2021
Mayagüez	Aguadilla	Añasco	47613	Carmen Casasus Martí	18.28701	-67.13216	Abierta	Primario	K 1 2 3 4 5 EE	No	315	324	2	38.1%	Others	1.55%	826-5355	Carr. 405 Km.0 Hm. 9 Bo. Carreras	Añasco	PR	6100000	D47613@de.pr.gov	2020-2021
Mayagüez	Aguadilla	Aguadilla	47589	Centro de Adiestramiento y Bellas Artes	18.49775	-67.13452778	Abierta	Todos Los Niveles	SHARED	No					N/A		890-2008	Edif 608 Base Ramey	Aguadilla	PR	6040000	D47589@de.pr.gov	2020-2021
Mayagüez	Aguadilla	Aguada	45310	Centro Vocacional Especial	18.36856	-67.1562	Abierta	Todos Los Niveles	EI ES	No	107	105	3	56.4%	Others	4.55%	868-3245	Carr 417 Km 3 Hm 6 Bo Guanabano	Aguada	PR	6020000	D45310@de.pr.gov	2020-2021
Mayagüez	San Sebastián	Moca	42572	Cerro Gordo Medina	18.34165	-67.07776	Abierta	Primario	PK K 1 2 3 4 5	No	199	195	5	83.7%	Others	2.36%	877-5850	Carr 420 Int 495 Km 2.0	Moca	PR	6760000	D42572@de.pr.gov	2020-2021
Mayagüez	Aguadilla	Rincón	42911	Conrado Rodríguez	18.33903	-67.25098	Abierta	Primario	K 1 2 3 4 5 6 EE	No	212	210	4	62.5%	Others	3.52%	823-5775	Calle Luis Muñoz Rivera Final	Rincón	PR	6770000	D42911@de.pr.gov	2020-2021
Mayagüez	Mayagüez	Mayagüez	44560	Centro Residencial de Oportunidades Educativas de Mayagüez (CROEM)	18.17693	-67.08917	Abierta	Secundario	9 10 11 12	No	235	228	5	97.5%	Others	1.33%	832-3720	Cerro Las Mesas Km6 Hm.9	Mayagüez	PR	6800000	D44560@de.pr.gov	2020-2021
Mayagüez	San Sebastián	Moca	42812	S. U. Cuchillas	18.402845949527	-67.0773155851273	Abierta	Primario	PK K 1 2 3 4 5	No	233	242	2	30.1%	Others	0.81%	877-3150	Carr 444 Km 3 Hm 7	Moca	PR	6760000	D42812@de.pr.gov	2020-2021
Mayagüez	Aguadilla	Aguada	40022	Dr. Carlos González	18.3835	-67.19133	Abierta	Secundario	10 11 12	No	864	846	2	34.6%	Targeted	0.83%	868-3280	Carr 441 Km 0 Hm 1 Bo Guaniquilla	Aguada	PR	6020000	D40022@de.pr.gov	2020-2021
Mayagüez	San Sebastián	Moca	46003	Dr. Efraín Sánchez Hidalgo	18.39137	-67.11149	Abierta	Primario	6 7 8 EI	No	421	446	2	22.4%	Others	1.34%	818-0941	Calle Monseñor Jose Torres	Moca	PR	6760000	D46003@de.pr.gov	2020-2021
Mayagüez	San Sebastián	Isabela	15792	Dr. Heriberto Domenech	18.4701	-67.02635	Abierta	Secundario	9 10 11 12 ES	No	751	721	2	29.0%	Others	3.38%	830-2915	Carr 2 Km 112 Bo Mora	Isabela	PR	6620000	D15792@de.pr.gov	2020-2021
Mayagüez	Mayagüez	Mayagüez	42077	Dr. Pedro Perea Fajardo	18.20849	-67.14605	Abierta	Secundario	9 10 11 12 ES	No	952	907	2	31.4%	Others	4.67%	833-0865	Ave Luis Llorens Torres	Mayagüez	PR	6800000	D42077@de.pr.gov	2020-2021
Mayagüez	Mayagüez	Las Marías	41699	Dr. Silverio Medina Gaud	18.2092843934283	-67.0319921888216	Abierta	Primario	K 1 2 3 4 5	No	74	73	3	40.6%	Others	1.28%	831-0818	Carr. 199 Km.6 Bo. Naranjales	Las Marías	PR	6700000	D41699@de.pr.gov	2020-2021
Mayagüez	Aguadilla	Aguada	46086	Eladio Tirado López	18.36971	-67.15608	Abierta	Secundario	9 10 11 12 ES	No	429	397	3	42.6%	Comprehensive	3.45%	868-2161	Carr 417 Km 3 Hm 6 Bo Guanabano	Aguada	PR	6020000	D46086@de.pr.gov	2020-2021
Mayagüez	Cabo Rojo	Lajas	50120	Elemental Urbana Nueva	18.03755	-67.05556	Abierta	Todos Los Niveles	PK K 1 2 3 4 5 6 7 8 9 10 EE	Sí	456	448	2	28.0%	Others	2.98%	899-3010	Ave Flamboyan #233	Lajas	PR	6670000	D50120@de.pr.gov	2020-2021
Mayagüez	Mayagüez	Mayagüez	45955	Elpidio H. Rivera	18.18227	-67.13811	Abierta	Primario	K 1 2 3 4 5 6 7 8 EE EI	No	604	569	2	20.0%	Others	3.74%	833-5560	Urb. Rio Cristal Calle Roberto Cole 510	Mayagüez	PR	6800000	D45955@de.pr.gov	2020-2021
Mayagüez	Mayagüez	Mayagüez	47571	Elvira Ruperto Quiles (Rio Cañas Abajo)	18.2288314245844	-67.0925305311511	Abierta	Primario	PK K 1 2 3 4 5 6 7 8	No	246	261	2	29.4%	Additional Targeted	0.78%	831-0050	Carr 351 Int 352 Bo Rio Cañas	Mayagüez	PR	6810000	D47571@de.pr.gov	2020-2021
Mayagüez	San Sebastián	San Sebastián	46201	Emilio Scharón Rodríguez	18.3543176330565	-66.9549619023147	Abierta	Primario	K 1 2 3 4 5 6 7 8 EI	No	284	273	2	35.2%	Others	1.71%	896-4142	Carr. 111 Km.1.9 Bo.Hoyamala	San Sebastián	PR	6760000	D46201@de.pr.gov	2020-2021
Mayagüez	San Sebastián	Isabela	15404	Epifanio Estrada	18.48664	-66.9736	Abierta	Primario	PK K 1 2 3 4 5 EE	No	236	242	4	70.4%	Others	1.63%	872-4650	Carr 113 Km 9 Hm 9 Bo Cotto	Isabela	PR	6620000	D15404@de.pr.gov	2020-2021
Mayagüez	San Sebastián	San Sebastián	46805	Ernestina Méndez de Echeandía	18.34746	-66.99874	Abierta	Todos Los Niveles	6 7 8 9	No	503	503	2	23.5%	Targeted	1.54%	896-1745	Carr.111Km.17Hm 5 Bo. Bahonamey	San Sebastián	PR	6850000	D46805@de.pr.gov	2020-2021
Mayagüez	Mayagüez	Hormigueros	48017	Escuela Elemental Nueva	18.13944	-67.13317	Abierta	Primario	PK K 1 2 3 4 5 EE	No	334	338	4	74.8%	Others	2.82%	849-2610	Carr 309 Km 1.9 Interior Bo Juanajibo	Hormigueros	PR	6600000	D48017@de.pr.gov	2020-2021
Mayagüez	Aguadilla	Añasco	40519	Escuela Especializada Alcides Figueroa	18.2824647092606	-67.1377988599859	Abierta	Todos Los Niveles	6 7 8 9 10 11 12	No	345	343	4	76.4%	Others	0.89%	826-0570	Calle Maria Monagas	Añasco	PR	6100000	D40519@de.pr.gov	2020-2021
Mayagüez	Mayagüez	Mayagüez	48330	Escuela Libre De Musica Y Bella Artes Ernesto Ramos Antonini	18.1980132697274	-67.140133346492	Abierta	Todos Los Niveles	SHARED	No					N/A		(787) 834-3177	Bvd Eduardo Baez Sector Buena Vista	Mayagüez	PR	6800000	D48330@de.pr.gov	2020-2021
Mayagüez	Aguadilla	Añasco	40626	Espino	18.27477	-67.12477	Abierta	Primario	PK K 1 2 3 4 5	No	236	232	4	60.4%	Others	0.41%	826-5915	Carr.109 Km.5 Hm.0 Bo Espino	Añasco	PR	6100000	D40626@de.pr.gov	2020-2021
Mayagüez	Mayagüez	Mayagüez	47084	Esteban Rosado Báez	18.23021	-67.17206	Abierta	Primario	K 1 2 3 4 5 6 7 8	No	314	310	3	56.9%	Others	1.86%	831-6199	Carr. 341 Bo. Mani	Mayagüez	PR	6800000	D47084@de.pr.gov	2020-2021
Mayagüez	Aguadilla	Aguadilla	46664	Ester Feliciano Mendoza	18.50035	-67.14558	Abierta	Primario	6 7 8 EI	No	392	396	3	43.2%	Others	1.80%	890-2418	Calle E Base Ramey	Aguadilla	PR	6030000	D46664@de.pr.gov	2020-2021
Mayagüez	Mayagüez	Las Marías	47977	Eugenio María de Hostos (Intermedia)	18.24659	-66.99741	Abierta	Primario	K 1 2 3 4 5 6 7 8 EE EI	No	473	475	2	33.3%	Others	1.24%	827-2100	Ave Matias Brugman	Las Marías	PR	6700000	D47977@de.pr.gov	2020-2021
Mayagüez	Mayagüez	Mayagüez	48298	Eugenio María de Hostos (Superior)	18.19839	-67.14438	Abierta	Secundario	9 10 11 12	No	687	673	1	19.8%	Others	1.45%	(787) 806-2209	Calle Nanadich #50 Oeste	Mayagüez	PR	6800000	D48298@de.pr.gov	2020-2021
Mayagüez	Mayagüez	Las Marías	46219	Eva y Patria Custodio	18.24694	-66.98916	Abierta	Secundario	9 10 11 12 ES	No	338	338	2	23.6%	Others	2.57%	827-4115	Carr.120 Km.0 Hm.6 Bo. Maravilla Sur	Las Marías	PR	6700000	D46219@de.pr.gov	2020-2021
Mayagüez	San Sebastián	Isabela	15248	Francisco Mendoza	18.50178	-67.01981	Abierta	Secundario	9 10 11 12 ES	No	704	668	2	31.7%	Others	6.17%	872-2260	Calle Corchado	Isabela	PR	6620000	D15248@de.pr.gov	2020-2021
Mayagüez	Cabo Rojo	San Germán	43257	Georgina Alvarado	18.13602	-67.07152	Abierta	Primario	PK K 1 2 3 4 5 EE	No	157	157	4	70.9%	Others	3.51%	892-2530	Carr 330 Km 2.8 Int Bo Duey Bajo	San Germán	PR	6830000	D43257@de.pr.gov	2020-2021
Mayagüez	Cabo Rojo	San Germán	43323	Henry W. Longfellow	18.08018	-67.03717	Abierta	Primario	PK K 1 2 3 4 5 EE	No	327	317	5	81.9%	Others	0.88%	892-1358	Calle Luna	San Germán	PR	6830000	D43323@de.pr.gov	2020-2021
Mayagüez	Cabo Rojo	San Germán	43307	Herminia C. Ramírez	18.1076	-67.06978	Abierta	Primario	PK K 1 2 3 4 5	No	225	221	5	89.9%	Others	2.16%	892-7105	Carr 347 Km 4 Hm 3 La Haciendita	San Germán	PR	6830000	D43307@de.pr.gov	2020-2021
Mayagüez	Aguadilla	Aguadilla	40295	Homero Rivera Solá	18.45726	-67.12562	Abierta	Primario	K 1 2 3 4 5	No	272	259	4	61.6%	Others	1.12%	891-8064	Carr 459 Sector Esteves Bo. Corrales	Aguadilla	PR	6050000	D40295@de.pr.gov	2020-2021
Mayagüez	Mayagüez	Maricao	41913	Indiera Fria	18.15058	-66.93366	Abierta	Primario	K 1 2 3 4 5 EE	No	58	58	3	57.7%	Others	1.69%	838-2534	Carr 366 Km 3 Bo Indiera Fria	Maricao	PR	6060000	D41913@de.pr.gov	2020-2021
Mayagüez	Cabo Rojo	Cabo Rojo	46821	Ines Maria  Mendoza	18.09015	-67.14764	Abierta	Secundario	9 10 11 12 ES EEA	No	524	488	2	33.8%	Others	2.53%	851-5037	Calle Barbosa Norte Urb Ana Maria	Cabo Rojo	PR	6230000	D46821@de.pr.gov	2020-2021
Mayagüez	San Sebastián	Isabela	15750	Irma Deliz de Muñoz	18.49813	-67.02123	Abierta	Primario	6 7 8 EI	No	365	367	2	29.4%	Targeted	6.28%	872-0725	Ave Juan Hernandez Ortiz	Isabela	PR	6620000	D15750@de.pr.gov	2020-2021
Mayagüez	Aguadilla	Añasco	40667	Isabel Suárez	18.2813	-67.13682	Abierta	Primario	6 7 8 EI	No	347	342	3	41.2%	Others	0.57%	826-2998	Calle 65 Infanteria	Añasco	PR	6100000	D40667@de.pr.gov	2020-2021
Mayagüez	Cabo Rojo	Cabo Rojo	40915	James Garfield	18.08048	-67.1506	Abierta	Primario	K 1 2 3 4 5 EE	No	265	262	2	36.9%	Others	1.82%	851-5027	"Carr 103 Km 7 Hm 1 Bo Pedernales
Carr. 103 Km 7"	Cabo Rojo	PR	6230000	D40915@de.pr.gov	2020-2021
Mayagüez	San Sebastián	Isabela	15446	José C. Rosario	18.4697	-67.02716	Abierta	Primario	K 1 2 3 4 5 6 7 8 EI	No	585	583	2	21.4%	Others	1.33%	830-2025	Carr 2 Km 11 Hm 2 Bo Mora	Isabela	PR	6620000	D15446@de.pr.gov	2020-2021
Mayagüez	Aguadilla	Aguadilla	40378	José de Diego	18.4176	-67.15607	Abierta	Primario	K 1 2 3 4 5 6 7 8 EE EI	No	254	250	2	26.2%	Others	1.15%	891-2220	Ave Fernando Yumet	Aguadilla	PR	6030000	D40378@de.pr.gov	2020-2021
Mayagüez	Mayagüez	Mayagüez	42176	José Gautier Benítez	18.20456	-67.13304	Abierta	Primario	K 1 2 3 4 5 6 7 8	No	372	373	2	30.1%	Others	1.06%	834-0900	Balboa # 64	Mayagüez	PR	6800000	D42176@de.pr.gov	2020-2021
Mayagüez	Aguadilla	Aguada	40121	José González Ruiz	18.33827	-67.17712	Abierta	Primario	K 1 2 3 4 5	No	140	138	5	90.6%	Others	2.74%	868-5740	Carr 416 Km 5.3 Bo Lagunas	Aguada	PR	6020000	D40121@de.pr.gov	2020-2021
Mayagüez	Cabo Rojo	Sabana Grande	43018	José R. Gaztambide	18.07944	-66.95729	Abierta	Primario	PK K 1 2 3 4 5 EE	No	234	229	2	30.1%	Others	2.85%	873-3860	Calle San Isidro Final	Sabana Grande	PR	6370000	D43018@de.pr.gov	2020-2021
Mayagüez	San Sebastián	Moca	42804	Juan de Dios Quiñones	18.37883	-67.07915	Abierta	Primario	K 1 2 3 4 5 EE	No	194	203	3	59.8%	Others	1.96%	877-5108	Carr 125 Km 9 Hm 7 Bo Voladora	Moca	PR	6760000	D42804@de.pr.gov	2020-2021
Mayagüez	Aguadilla	Aguada	40204	Juan Lino Santiago	18.36866	-67.15569	Abierta	Primario	PK K 1 2 3 4 5 6 EE	No	546	547	4	63.7%	Others	0.36%	868-5600	Carr 417 Km.3Hm.6 Bo. Guanabano	Aguada	PR	6020000	D40204@de.pr.gov	2020-2021
Mayagüez	Aguadilla	Aguadilla	47647	Juan Suárez Pelegrina (Nueva)	18.48632	-67.09782	Abierta	Secundario	9 10 11 12 ES	No	578	553	2	30.8%	Others	2.41%	890-2320	Carr.459 Bo. Montaña	Aguadilla	PR	6030000	D47647@de.pr.gov	2020-2021
Mayagüez	Cabo Rojo	San Germán	43224	Julio V. Guzmán	18.08377	-67.04663	Abierta	Primario	K 1 2 3 4 5 6 7 8 EE EI	No	439	441	1	13.0%	Others	3.72%	892-1168	Ave Dr Harris 23	San Germán	PR	6830000	D43224@de.pr.gov	2020-2021
Mayagüez	Mayagüez	Maricao	45641	La Carmen	18.17701	-67.00668	Abierta	Primario	K 1 2 3 4 5	No	76	76	4	74.0%	Others	0.00%	838-2425	Carr 105 Km 21.2	Maricao	PR	6060000	D45641@de.pr.gov	2020-2021
Mayagüez	Cabo Rojo	San Germán	43406	Laura Mercado	18.16491	-67.07786	Abierta	Todos Los Niveles	6 7 8 9 10 11 12 EI ES	No	264	254	2	33.4%	Others	1.48%	832-4155	Calle Nestor Torres Bo Rosario	San Germán	PR	6360000	D43406@de.pr.gov	2020-2021
Mayagüez	Cabo Rojo	Lajas	45682	Leónides Morales Rodríguez	18.04897	-67.05692	Abierta	Secundario	9 10 11 12 ES	No	713	688	2	33.6%	Others	4.38%	899-1695	Calle Santa Rosa #20	Lajas	PR	6670000	D45682@de.pr.gov	2020-2021
Mayagüez	Cabo Rojo	San Germán	43315	Lola Rodríguez de Tío	18.0822062091914	-67.0357527527152	Abierta	Secundario	9 10 11 12 ES	No	595	562	2	38.4%	Others	3.34%	892-1320	Ave Dr Vev E Final	San Germán	PR	6830000	D43315@de.pr.gov	2020-2021
Mayagüez	Aguadilla	Añasco	46995	Luis Muñoz Marín	18.29424	-67.13936	Abierta	Secundario	9 10 11 12 ES	No	418	416	2	30.9%	Comprehensive	3.88%	826-1476	Carr. 402 Km. 1 Hm.4 Bo.Marias	Añasco	PR	6100000	D46995@de.pr.gov	2020-2021
Mayagüez	Aguadilla	Aguadilla	40477	Luis Muñoz Rivera	18.47391	-67.15187	Abierta	Primario	K 1 2 3 4 5 EE	No	245	245	3	49.5%	Others	1.54%	891-0862	Carr. 457 C/E Base Ramey Bo. Camaseyes	Aguadilla	PR	6030000	D40477@de.pr.gov	2020-2021
Mayagüez	Cabo Rojo	Lajas	41541	Luis Muñoz Rivera	18.04763	-67.0591	Abierta	Primario	6 7 8 EI	No	381	382	3	32.1%	Others	2.53%	899-1452	Calle 65 Infanteria Esq Davila	Lajas	PR	6670000	D41541@de.pr.gov	2020-2021
Mayagüez	Mayagüez	Mayagüez	42242	Luis Muñoz Rivera	18.1942324604693	-67.1341772425231	Abierta	Primario	K 1 2 3 4 5	No	246	250	2	38.8%	Others	1.53%	834-7700	Calle Antonio Cruz Nuñez	Mayagüez	PR	6800000	D42242@de.pr.gov	2020-2021
Mayagüez	Cabo Rojo	Sabana Grande	48264	Luis Negrón López	18.07416	-66.94919	Abierta	Secundario	9 10 11 12 EI	No	683	653	3	42.9%	Others	4.49%	804-2037	Carr #368 Km 1.0 Bo Machuchal	Sabana Grande	PR	6370000	D48264@de.pr.gov	2020-2021
Mayagüez	Aguadilla	Aguada	46813	Lydia Meléndez	18.38322	-67.18349	Abierta	Primario	K 1 2 3 4 5 EE	No	201	197	2	34.8%	Others	0.50%	868-3850	Carr 115 Km 23 Hm 9 Bo Asomante	Aguada	PR	6020000	D46813@de.pr.gov	2020-2021
Mayagüez	Mayagüez	Mayagüez	42267	Manuel A. Barreto	18.20043	-67.14468	Abierta	Primario	K 1 2 3 4 5 6 7 8 EI	No	443	436	2	25.6%	Others	3.08%	832-3046	Calle Pilar Defillo	Mayagüez	PR	6800000	D42267@de.pr.gov	2020-2021
Mayagüez	Aguadilla	Rincón	47662	Manuel García Pérez (Nueva)	18.33557	-67.24906	Abierta	Secundario	9 10 11 12 ES	No	350	330	2	34.9%	Others	1.12%	823-0335	Calle Pedro Albizu Campos Interior	Rincón	PR	6770000	D47662@de.pr.gov	2020-2021
Mayagüez	Aguadilla	Rincón	42945	Manuel González Melo	18.31354	-67.22667	Abierta	Primario	K 1 2 3 4 5 6 7 8 EE EI	No	550	549	3	52.0%	Others	1.60%	823-2395	Carr 115 Km 9 Hm 0 Bo Canvalache	Rincón	PR	6770000	D42945@de.pr.gov	2020-2021
Mayagüez	San Sebastián	San Sebastián	47902	Manuel Méndez Liciaga	18.34929	-67.00878	Abierta	Secundario	9 10 11 12 ES	No	985	945	2	34.3%	Others	3.69%	896-1430	Carr 125 Km 19 Bo Guatemala	San Sebastián	PR	6850000	D47902@de.pr.gov	2020-2021
Mayagüez	San Sebastián	Moca	46334	Marcelino Rodríguez	18.38013	-67.07841	Abierta	Primario	6 7 8	No	224	227	2	39.4%	Targeted	3.08%	877-2324	Carr 125 Km 0 Hm 2 Bo Voladora	Moca	PR	6760000	D46334@de.pr.gov	2020-2021
Mayagüez	Mayagüez	Mayagüez	44545	María Dolores Faria	18.19648	-67.1531	Abierta	Todos Los Niveles	K 1 2 3 4 5 6 7 8 EE EI ES	No	298	287	2	21.6%	Targeted	2.49%	834-9289	Ave Jc Clemente	Mayagüez	PR	6800000	D44545@de.pr.gov	2020-2021
Mayagüez	Mayagüez	Mayagüez	44842	María Luisa Arcelay	18.17974	-67.15468	Abierta	Primario	K 1 2 3 4 5	No	92	91	3	59.1%	Others	0.00%	833-8845	Calle San Expedito Res. Sabalos Nuevo	Mayagüez	PR	6800000	D44842@de.pr.gov	2020-2021
Mayagüez	Cabo Rojo	San Germán	43299	Mariano Abril	18.12821	-67.02065	Abierta	Primario	PK K 1 2 3 4 5 6 EE	No	99	95	4	66.6%	Others	2.97%	892-7403	Carr 361 Hoconuco Alto	San Germán	PR	6830000	D43299@de.pr.gov	2020-2021
Mayagüez	Mayagüez	Mayagüez	42283	Mariano Riera Palmer	18.2075	-67.14982	Abierta	Primario	K 1 2 3 4 5	No	247	247	3	40.6%	Others	1.57%	832-5262	Calle Mendez Vigo 297	Mayagüez	PR	6800000	D42283@de.pr.gov	2020-2021
Mayagüez	San Sebastián	Isabela	15396	Mateo Hernández	18.48822	-66.99899	Abierta	Primario	K 1 2 3 4 5	No	200	207	3	49.1%	Others	0.49%	872-5770	Carr 113 Km 3 Hm 2 Ave Noel Estrada Bo Guayabos	Isabela	PR	6620000	D15396@de.pr.gov	2020-2021
Mayagüez	Cabo Rojo	Cabo Rojo	48306	Mildred Arroyo Cardoza (S. U. Bo. Puerto Real)	18.0865930619254	-67.1873022888227	Abierta	Primario	K 1 2 3 4 5 6 7 8 EE	No	270	274	2	34.7%	Others	0.35%	851-6345	Carr Pr308 Km 5.3 Sector Pr	Cabo Rojo	PR	6230000	D48306@de.pr.gov	2020-2021
Mayagüez	Cabo Rojo	Cabo Rojo	46987	Monserrate León Irizarry	18.02742	-67.16392	Abierta	Secundario	9 10 11 12 ES	No	481	459	3	57.8%	Others	5.18%	254-2233	Carr 101 Km 18 Hm 2	Cabo Rojo	PR	6230000	D46987@de.pr.gov	2020-2021
Mayagüez	San Sebastián	Isabela	17657	Nueva Ceferina Cordero	18.50459	-67.02416	Abierta	Primario	PK K 1 2 3 4 5 EE	No	275	270	2	27.9%	Others	2.08%	872-0464	Calle Emilio González Interior # 217	Isabela	PR	6620000	D17657@de.pr.gov	2020-2021
Mayagüez	Mayagüez	Mayagüez	42259	Olga Mas Ramírez	18.17071	-67.11	Abierta	Primario	K 1 2 3 4 5	No	170	167	2	36.1%	Others	1.70%	833-8283	Carr 348 Km.5.Hm.2 Bo. Malezas	Mayagüez	PR	6800000	D42259@de.pr.gov	2020-2021
Mayagüez	San Sebastián	San Sebastián	47126	Patria Latorre Ramíez	18.33305	-66.98298	Abierta	Secundario	9 10 11 12 ES	No	720	698	3	44.6%	Others	5.11%	896-3970	Carr.125 Km.23Hm.2Bo. Piedras Blanca	San Sebastián	PR	6850000	D47126@de.pr.gov	2020-2021
Mayagüez	Cabo Rojo	Cabo Rojo	40980	Pedro Nelson Colberg	18.0875168661951	-67.1499039716356	Abierta	Primario	6 7 8 EI	No	279	282	3	42.0%	Others	1.96%	851-1470	Sector Pueblo Nuevo	Cabo Rojo	PR	6230000	D40980@de.pr.gov	2020-2021
Mayagüez	Aguadilla	Aguada	47951	Profesora Juana Rosario Carrero	18.37625	-67.18501	Abierta	Todos Los Niveles	PK K 1 2 3 4 5 6 7 8 9	Sí	685	675	2	31.4%	Targeted	2.73%	868-2260	Ave. Nativo Alers Desvio Sur	Aguada	PR	6020000	D47951@de.pr.gov	2020-2021
Mayagüez	Mayagüez	Mayagüez	42390	Rafael Martínez Nadal	18.20052	-67.12929	Abierta	Primario	K 1 2 3 4 5 EE	No	240	237	4	60.5%	Others	2.88%	832-2002	Calle Salvador Mestre Esq. Carbonell Villa	Mayagüez	PR	6800000	D42390@de.pr.gov	2020-2021
Mayagüez	Mayagüez	Hormigueros	46052	Ramón E. Rodríguez Díaz	18.13634	-67.12281	Abierta	Primario	K 1 2 3 4 5 6 7 8 EE	No	506	507	2	24.3%	Others	2.82%	849-1230	Calle Comercio Urb. Verdun	Hormigueros	PR	6600000	D46052@de.pr.gov	2020-2021
Mayagüez	San Sebastián	San Sebastián	43794	Ramón María Torres	18.33988	-66.99661	Abierta	Primario	K 1 2 3 4 5 EE	No	315	313	3	42.6%	Others	0.62%	896-1135	Ave Emerito Estrada  Carretera 111	San Sebastián	PR	6850000	D43794@de.pr.gov	2020-2021
Mayagüez	Cabo Rojo	Lajas	44529	Ramón Olivares	18.0029	-67.07238	Abierta	Primario	K 1 2 3 4 5 6 EE	No	212	213	3	56.3%	Others	0.93%	899-5020	Carr 303 Calle Amapola Bo Olivares	Lajas	PR	6670000	D44529@de.pr.gov	2020-2021
Mayagüez	Mayagüez	Maricao	41921	Raúl Ybarra	18.18268	-66.97977	Abierta	Primario	K 1 2 3 4 5 6 7 8 EE EI	No	204	197	2	28.0%	Others	0.97%	838-2150	Ave Luchetti Carr 120	Maricao	PR	6060000	D41921@de.pr.gov	2020-2021
Mayagüez	Cabo Rojo	Lajas	41566	Rosendo Matienzo Cintrón	18.03933	-67.00951	Abierta	Primario	K 1 2 3 4 5 EE	No	178	184	3	56.0%	Others	2.09%	899-8008	Carr 117 Km 5.3 Bo Lajas Arriba	Lajas	PR	6670000	D41566@de.pr.gov	2020-2021
Mayagüez	Aguadilla	Aguadilla	45468	Salvador Fuentes	18.5025	-67.13191	Abierta	Secundario	9 10 11 12 ES	No	259	224	2	35.2%	Others	6.06%	890-5600	Calle North East,Edif.611 Ramey	Aguadilla	PR	6030000	D45468@de.pr.gov	2020-2021
Mayagüez	Cabo Rojo	Cabo Rojo	44511	Sebastián Pabón Alves (Corozo)	17.98145	-67.18523	Abierta	Primario	K 1 2 3 4 5	No	74	70	4	60.9%	Others	0.00%	255-2028	Carr 301 Km 7 Hm 4 Sect Corozo	Cabo Rojo	PR	6230000	D44511@de.pr.gov	2020-2021
Mayagüez	Mayagüez	Hormigueros	41061	Segundo Ruiz Belvís	18.13867	-67.12627	Abierta	Secundario	9 10 11 12 ES	No	705	682	2	28.2%	Others	2.49%	849-2610	16 Calle Segundo Ruiz Belvis	Hormigueros	PR	660000	D41061@de.pr.gov	2020-2021
Mayagüez	Mayagüez	Mayagüez	42085	Segundo Ruiz Belvís	18.19461	-67.15433	Abierta	Primario	K 1 2 3 4 5 EE	No	182	184	3	50.6%	Others	1.04%	832-5078	Ave González Clemente Res Carmen	Mayagüez	PR	6800000	D42085@de.pr.gov	2020-2021
Mayagüez	Cabo Rojo	Cabo Rojo	47357	Severo E. Colberg Ramírez	18.0869	-67.15245	Abierta	Primario	K 1 2 3 4 5 EE	No	323	319	2	33.4%	Others	1.20%	255-2720	102 Ave Pedro Albizu Campos	Cabo Rojo	PR	6230000	D47357@de.pr.gov	2020-2021
Mayagüez	Mayagüez	Hormigueros	44891	S. U. Alfredo Dorrington	18.14859	-67.1453	Abierta	Primario	K 1 2 3 4 5 6 7 8 EE	No	494	481	2	37.6%	Others	1.56%	806-0185	Urb Valle Hermoso 34 Calle Flamboyan	Hormigueros	PR	6600000	D44891@de.pr.gov	2020-2021
Mayagüez	Cabo Rojo	Cabo Rojo	41020	S. U. Antonio Acarón Correa	18.08766	-67.13108	Abierta	Primario	K 1 2 3 4 5 6 7 8	No	331	330	2	33.7%	Others	1.18%	851-3383	Carr 102 Km 21 Hm 9 Bo Monte Grande	Cabo Rojo	PR	6230000	D41020@de.pr.gov	2020-2021
Mayagüez	San Sebastián	San Sebastián	43729	S. U. Bernaldo Méndez Jiménez	18.36094	-67.03254	Abierta	Primario	K 1 2 3 4 5 6 7 8	No	292	301	3	52.6%	Others	0.98%	896-5980	Carr 125 Km 1 Hm 5 Bo Hato Arriba	San Sebastián	PR	6850000	D43729@de.pr.gov	2020-2021
Mayagüez	San Sebastián	San Sebastián	43752	S. U. Carmelo Serrano Cubano	18.37601	-67.00415	Abierta	Primario	K 1 2 3 4 5 6 7 8	No	406	411	3	51.1%	Others	1.61%	896-6810	Carr 445 Km 3 Hm 6 Bo Saltos	San Sebastián	PR	6850000	D43752@de.pr.gov	2020-2021
Mayagüez	Cabo Rojo	Cabo Rojo	41004	S. U. Carmen Vignals Rosario	18.02859	-67.16659	Abierta	Primario	K 1 2 3 4 5 6 7 8 EE EI	No	254	249	2	33.4%	Targeted	0.76%	851-3200	Carr 101 Km 18 Hm 5 Bo Boqueron	Cabo Rojo	PR	6230000	D41004@de.pr.gov	2020-2021
Mayagüez	Aguadilla	Aguadilla	40469	S. U. Conchita Igartúa de Suárez	18.4435418872083	-67.11728134649	Abierta	Primario	PK K 1 2 3 4 5 6 7 8 EE	No	819	815	3	42.2%	Others	2.04%	891-9170	Carr 2 Km 1022 Bo. Caimital Alto	Aguadilla	PR	6030000	D40469@de.pr.gov	2020-2021
Mayagüez	Cabo Rojo	Sabana Grande	42952	S. U. David Antongiorgi Córdova	18.03966	-66.93959	Abierta	Primario	K 1 2 3 4 5 6 7 8 EE EI	No	483	470	4	69.2%	Others	1.41%	873-1521	Carr 121 Km 5 Hm O Bo Machuchal	Sabana Grande	PR	6370000	D42952@de.pr.gov	2020-2021
Mayagüez	Aguadilla	Aguada	40220	S. U. Epifanio Estrada	18.36154	-67.19954	Abierta	Primario	PK K 1 2 3 4 5 6 7 8	No	529	503	3	40.8%	Others	3.13%	868-2670	Carr 411 Km.2 Hm.8 Bo Jaguey	Aguada	PR	6020000	D40220@de.pr.gov	2020-2021
Mayagüez	Cabo Rojo	Cabo Rojo	41012	S. U. Federico Degetau	18.04522	-67.14746	Abierta	Primario	K 1 2 3 4 5 6 7 8	No	336	338	2	33.9%	Others	0.00%	851-1047	Carr 103 Km 11 Hm 9 Bo Boqueron	Cabo Rojo	PR	6230000	D41012@de.pr.gov	2020-2021
Mayagüez	Cabo Rojo	San Germán	43398	S. U. Francisco María Quiñones	18.07797	-66.99383	Abierta	Primario	K 1 2 3 4 5 6 7 8 EE EI	No	436	419	2	36.7%	Others	2.24%	892-5755	Carr 102 Km 37 Bo Minillas	San Germán	PR	6830000	D43398@de.pr.gov	2020-2021
Mayagüez	San Sebastián	Isabela	15453	S. U. José A. Vargas	18.45714	-66.97898	Abierta	Primario	PK K 1 2 3 4 5 6 7 8 EE	No	361	363	2	24.8%	Others	1.63%	830-0260	Carr 446 Km 4.2 Hm 4 Bo Llamadas Sect Santa Rosa	Isabela	PR	6620000	D15453@de.pr.gov	2020-2021
Mayagüez	Aguadilla	Aguada	40030	S. U. Juan B. Soto	18.34132	-67.19446	Abierta	Todos Los Niveles	PK K 1 2 3 4 5 6 7 8 9 EE	No	276	266	3	48.0%	Others	1.44%	868-4470	Carr 411 Km.5 Hm.7 Bo. Atalaya	Aguada	PR	6020000	D40030@de.pr.gov	2020-2021
Mayagüez	Cabo Rojo	Lajas	41582	S. U. Juan Cancio Ortiz de la Renta	18.03942	-67.07737	Abierta	Primario	K 1 2 3 4 5 6 7 8 EE EI	No	402	411	3	44.7%	Targeted	0.46%	899-4370	Carr 101 Km 7 Hm 6 Bo Palmarejo	Lajas	PR	6670000	D41582@de.pr.gov	2020-2021
Mayagüez	Mayagüez	Las Marías	41814	S. U. Lauro González Hijo	18.25483	-67.03597	Abierta	Primario	K 1 2 3 4 5 6 7 8	No	200	212	3	55.3%	Others	0.92%	827-2540	Carr. 406 Bo. Anones	Las Marías	PR	6700000	D41814@de.pr.gov	2020-2021
Mayagüez	San Sebastián	San Sebastián	43745	S. U. Maximino A Salas	18.31606	-66.93647	Abierta	Primario	K 1 2 3 4 5 6 7 8	No	309	319	4	74.5%	Additional Targeted	0.31%	896-2838	Carr 111 Km 29.2 Bo Juncal	San Sebastián	PR	6850000	D43745@de.pr.gov	2020-2021
Mayagüez	San Sebastián	Moca	47894	Superior Catalina Morales Flores	18.38552	-67.11081	Abierta	Secundario	9 10 11 12 ES	No	890	842	2	26.4%	Others	2.83%	877-5575	Carr 110 Calle Concepcion Vera	Moca	PR	6760000	D47894@de.pr.gov	2020-2021
Mayagüez	Mayagüez	Maricao	47639	Superior Nueva	18.38552	-67.11081	Abierta	Secundario	9 10 11 12 ES	No	159	152	1	18.2%	Others	5.29%	838-3025	Carr 105 Km 25	Maricao	PR	6060000	D47639@de.pr.gov	2020-2021
Mayagüez	San Sebastián	Moca	42770	Tomás Vera Ayala	18.33119	-67.04645	Abierta	Primario	PK K 1 2 3 4 5	No	175	173	4	78.4%	Others	1.11%	877-3888	Carr 423 Km 4 Bo Plata (Sector Plata Alta)	Moca	PR	6760000	D42770@de.pr.gov	2020-2021
Ponce	Santa Isabel	Villalba	54862	Centro Residencial de Oportunidades Educativas de Villalba (CROEV)	18.121716126585	-66.4978478017199	Abierta	Secundario	9 10 11 12	No	240	238	5	86.9%	Others	0.83%	(787) 847-7440	Carr 159 Int K 57.3 Calle Albizu Campos	Villalba	PR	7660000	D54862@de.pr.gov	2020-2021
Ponce	Ponce	Ponce II	52357	Abraham Lincoln	18.0046391002108	-66.6098009099823	Abierta	Primario	K 1 2 3 4 5 EE	No	165	182	3	45.4%	Others	4.35%	842-0117	46 Calle Campeche Bda Belgica	Ponce	PR	7310000	D52357@de.pr.gov	2020-2021
Ponce	Utuado	Jayuya	58594	Adrián Torres Torres	18.2244811127545	-66.5950419443307	Abierta	Primario	PK K 1 2 3 4 5 6 7 8 EI	No	368	366	3	40.1%	Others	1.06%	828-3625	Carr 141-R Km 2 Hm 1 Sector Pueblo	Jayuya	PR	6640000	D58594@de.pr.gov	2020-2021
Ponce	Yauco	Guánica	50740	Agripina Seda	17.972592239358	-66.9061750045945	Abierta	Primario	6 7 8 EI	No	153	155	2	20.5%	Others	3.45%	821-2570	45 Calle 13 De Marzo	Guánica	PR	6530000	D50740@de.pr.gov	2020-2021
Ponce	Yauco	Yauco	53330	Almacigo Alto II	18.0604986798497	-66.8813513640689	Abierta	Primario	K 1 2 3 4 5	No	108	111	4	61.3%	Others	0.00%	856-2141	Carr 371 Bo Almacigo Alto	Yauco	PR	6980000	D53330@de.pr.gov	2020-2021
Ponce	Santa Isabel	Santa Isabel	52985	Ana Valldejuly (Jauca)	17.9687317916938	-66.3677664252956	Abierta	Primario	K 1 2 3 4 5 EE	No	158	152	4	72.5%	Others	1.21%	845-6147	Calle Luis Muñoz Rivera Carr 1 Bo Jauca	Santa Isabel	PR	7570000	D52985@de.pr.gov	2020-2021
Ponce	Ponce	Ponce II	54940	Andrés Grillasca Salas	18.0062058131539	-66.6019101498378	Abierta	Primario	K 1 2 3 4 5	No	108	109	3	52.6%	Comprehensive	5.83%	840-7115	Ave Las Americas Urb Constancia	Ponce	PR	7310000	D54940@de.pr.gov	2020-2021
Ponce	Ponce	Ponce II	55483	Angela Cordero Bernard	17.9806130568006	-66.6071757926675	Abierta	Primario	PK K 1 2 3 4 5	No	511	439	3	48.7%	Others	11.74%	844-4020	Calle Solimar Urb Villa Del Carmen	Ponce	PR	7160000	D55483@de.pr.gov	2020-2021
Ponce	Utuado	Jayuya	51342	Angelica Toro (Nueva)	18.2214637432962	-66.5944071667396	Abierta	Primario	K 1 2 3 4 5 EE	No	226	242	3	49.8%	Others	0.81%	828-0330	48 Calle Cementerio	Jayuya	PR	6640000	D51342@de.pr.gov	2020-2021
Ponce	Ponce	Ponce I	55871	Antonio Paoli	18.0112519110653	-66.6268129011837	Abierta	Primario	6 7 8 EI	No	116	103	2	24.1%	Comprehensive	15.22%	844-0615	Calle Reina Final	Ponce	PR	7310000	D55871@de.pr.gov	2020-2021
Ponce	Utuado	Utuado	13342	Antonio Tulla Torres	18.298589564494	-66.6021890274894	Abierta	Primario	K 1 2 3 4 5 6 7 8 EE	No	134	136	3	50.4%	Others	2.11%	894-0229	Carr 140 Km 5 Hm 6 Bo Mameyes	Utuado	PR	6410000	D13342@de.pr.gov	2020-2021
Ponce	Yauco	Guayanilla	51185	Arístides Cales Quirós	18.0176548031399	-66.7922451667932	Abierta	Primario	K 1 2 3 4 5 6 7 8 EI	No	344	334	2	22.1%	Others	0.57%	835-2985	Calle Luis Muñoz Rivera Interior	Guayanilla	PR	6560000	D51185@de.pr.gov	2020-2021
Ponce	Yauco	Yauco	53363	Arturo Lluberas	18.0417707553552	-66.8622709870802	Abierta	Primario	K 1 2 3 4 5 EE	No	201	194	3	46.2%	Others	5.94%	856-0613	Carr 376 Bo Almacigo Bajo	Yauco	PR	6980000	D53363@de.pr.gov	2020-2021
Ponce	Yauco	Guayanilla	57125	Asunción Rodríguez de Sala	18.032306781883	-66.8006825210132	Abierta	Secundario	9 10 11 12 ES	No	436	425	1	15.2%	Comprehensive	3.71%	835-2030	Carr 127 Bo Quebrada	Guayanilla	PR	6560000	D57125@de.pr.gov	2020-2021
Ponce	Ponce	Ponce II	57018	Áurea E. Rivera Collazo	18.0371309723062	-66.6386696657233	Abierta	Primario	K 1 2 3 4 5	No	279	280	2	28.9%	Others	2.06%	841-0328	P33 Calle 7 Urb El Madrigal	Ponce	PR	7310000	D57018@de.pr.gov	2020-2021
Ponce	Yauco	Guánica	57620	Áurea E. Quiles Claudio	17.9753318634633	-66.9047980714491	Abierta	Secundario	9 10 11 12	No	296	280	2	29.8%	Others	12.54%	821-2800	Carr Ochoa 333 Km 5	Guánica	PR	6530000	D57620@de.pr.gov	2020-2021
Ponce	Ponce	Ponce II	57638	Bellas Artes de Ponce	18.0151091364709	-66.6084233715773	Abierta	Todos Los Niveles	SHARED	No					N/A		848-9156	20 Calle Lolita Tizol	Ponce	PR	7310000	D57638@de.pr.gov	2020-2021
Ponce	Yauco	Yauco	53744	Benicia Vélez	18.0347461722184	-66.8756960259981	Abierta	Primario	K 1 2 3 4 5	No	115	118	3	53.6%	Others	1.64%	856-6628	Carr 360 Km 11 Hm 9 Bo Susua Alta	Yauco	PR	6980000	D53744@de.pr.gov	2020-2021
Ponce	Santa Isabel	Coamo	50492	Benjamín Franklin	18.079525255618	-66.3616750022674	Abierta	Primario	6 7 8 EI	No	177	176	1	19.9%	Others	3.16%	825-1284	Calle Jose I Quinton #82	Coamo	PR	7690000	D50492@de.pr.gov	2020-2021
Ponce	Ponce	Ponce III	52696	Bernardino Cordero Bernard	18.0022773739214	-66.6292726115413	Abierta	Secundario	9 10 11 12 ES	No	1304	1258	4	63.4%	Others	5.15%	842-7091	Carr 488 Ave Juan B Roman	Ponce	PR	7320000	D52696@de.pr.gov	2020-2021
Ponce	Utuado	Utuado	13391	Bernardo González Colón	18.2755488302791	-66.7112426658959	Abierta	Primario	K 1 2 3 4 5 6 7 8	No	283	278	3	45.1%	Others	1.03%	894-2524	Carr 10 Km 56 Hm 3 Bo Salta Abajo	Utuado	PR	6410000	D13391@de.pr.gov	2020-2021
Ponce	Ponce	Ponce II	56069	Bethzaida Velázquez Superior	18.0370214872277	-66.6573799981503	Abierta	Secundario	9 10 11 12	No	261	229	1	17.2%	Others	9.96%	284-1080	Urb Las Delicias 100 Calle Florensita Ferrer	Ponce	PR	7310000	D56069@de.pr.gov	2020-2021
Ponce	Ponce	Ponce II	52183	Capitanejo	18.0079552214218	-66.5335259322166	Abierta	Primario	K 1 2 3 4 5	No	126	127	3	51.5%	Others	1.54%	837-6302	Carr 1 Int 510 Bo La Cuarta Sector Las Palomas	Ponce	PR	7310000	D52183@de.pr.gov	2020-2021
Ponce	Santa Isabel	Juana Díaz	56119	Carmen Belén Veiga	18.0462318266172	-66.5041207343496	Abierta	Secundario	9 10 11 12	No	373	351	2	31.5%	Others	6.57%	837-2435	Calle La Cruz	Juana Díaz	PR	7950000	D56119@de.pr.gov	2020-2021
Ponce	Ponce	Ponce III	57182	Carmen Solá de Pereira	18.0152184250201	-66.6545525802297	Abierta	Primario	K 1 2 3 4 5	No	211	204	3	56.2%	Others	8.15%	841-6411	Calle 40 5Ra Seccion Urb Jardines Del Caribe	Ponce	PR	7310000	D57182@de.pr.gov	2020-2021
Ponce	Santa Isabel	Villalba	58503	Cristina (Amada) Martínez Martínez	18.1106204237826	-66.5032499714213	Abierta	Secundario	9 10 11 12	No	395	376	2	29.6%	Others	0.50%	847-5940	Carr 149 Bo Jagueyes Desvio #5561	Villalba	PR	7660000	D58503@de.pr.gov	2020-2021
Ponce	Yauco	Guayanilla	51334	Dalila Torres	18.02428	-66.79254	Abierta	Primario	K 1 2 3 EE	No	118	116	4	73.3%	Others	2.42%	835-2145	Calle Luis Muñoz Rivera Sector Sitio	Guayanilla	PR	6560000	D51334@de.pr.gov	2020-2021
Ponce	Santa Isabel	Villalba	58263	Daniel Serrano Rivera	18.10698	-66.50581	Abierta	Primario	PK K 1 2 3 4 5 EE	No	369	371	2	31.6%	Others	0.26%	847-1606	Carr 149 Km 59 Bo Villalba Abajo	Villalba	PR	7660000	D58263@de.pr.gov	2020-2021
Ponce	Utuado	Adjuntas	50252	Domingo Massol	18.13412	-66.72947	Abierta	Primario	K 1 2 3 4 5	No	112	114	4	73.7%	Others	1.72%	829-2494	Carr 388 Km 0 Hm 1 Bo Vacas Saltillo	Adjuntas	PR	6010000	D50252@de.pr.gov	2020-2021
Ponce	Utuado	Adjuntas	58081	Domingo Pietri Ruiz	18.17278	-66.726671	Abierta	Primario	K 1 2 3 4 5 EE	No	358	358	2	33.0%	Others	2.12%	829-2505	16 Calle Rodulfo González	Adjuntas	PR	6010000	D58081@de.pr.gov	2020-2021
Ponce	Ponce	Ponce III	54866	Dr. Alfredo M. Aguayo	17.98619	-66.61915	Abierta	Primario	K 1 2 3 4 5 6 7 8	No	171	172	2	37.1%	Targeted	5.82%	842-5028	Ave 65 Infanteria Esq Valdivieso Bo Playa	Ponce	PR	7310000	D54866@de.pr.gov	2020-2021
Ponce	Utuado	Utuado	17707	Dr. Efraín González Tejera	18.29252	-66.80358	Abierta	Primario	PK K 1 2 3 4 5 EE	No	123	126	4	76.9%	Others	2.27%	894-7245	Carr 111 Km 16.6 Bo Angeles	Utuado	PR	6110000	D17707@de.pr.gov	2020-2021
Ponce	Ponce	Ponce I	52084	Dr. José C. Barbosa	18.01518	-66.62006	Abierta	Primario	K 1 2 3 4 5	No	125	130	1	16.5%	Others	1.46%	842-8671	Calle Guadalupe Bo Pueblo	Ponce	PR	7310000	D52084@de.pr.gov	2020-2021
Ponce	Santa Isabel	Juana Díaz	57877	Dr. Máximo Donoso Sánchez	18.02024	-66.52824	Abierta	Todos Los Niveles	6 7 8 9 10 11 12	No	475	470	3	46.4%	Others	2.71%	260-4694	Carr 510 Km 2 Hm 4 Bo La Plena	Juana Díaz	PR	7950000	D57877@de.pr.gov	2020-2021
Ponce	Ponce	Ponce III	57299	Dr. Pedro Albizu Campos	17.98219	-66.66255	Abierta	Secundario	9 10 11 12	No	73	74	5	88.0%	Others	1.28%	841-2548	Carr 2 Km 22 Hm 1 Sector El Tuque Bo Canas	Ponce	PR	7310000	D57299@de.pr.gov	2020-2021
Ponce	Santa Isabel	Juana Díaz	55889	Dr. Pedro Albizu Campos	18.03067	-66.53709	Abierta	Primario	K 1 2 3 4 5 EE	No	246	259	3	48.4%	Others	2.61%	260-0406	Calle 30 Sector Aguilita	Juana Díaz	PR	7950000	D55889@de.pr.gov	2020-2021
Ponce	Ponce	Ponce III	52688	Dr. Pila	18.00595	-66.6276	Abierta	Secundario	9 10 11 12	No	330	320	1	10.4%	Comprehensive	15.40%	840-4800	Carr Ponce A Guayanilla	Ponce	PR	7310000	D52688@de.pr.gov	2020-2021
Ponce	Ponce	Ponce II	52522	Dr. Rafael Pujals	18.01411	-66.60934	Abierta	Primario	6 7 8	No	212	225	3	46.5%	Others	11.52%	840-4600	Calle Lolita Tizol Esq Sol	Ponce	PR	7330000	D52522@de.pr.gov	2020-2021
Ponce	Ponce	Ponce III	52118	Eduardo Neumann Gandia	18.00712	-66.63215	Abierta	Primario	K 1 2 3 4 5 6 7 8	No	244	249	2	38.5%	Comprehensive	9.64%	840-0112	Ave Cementerio Civil Urb San Antonio	Ponce	PR	7310000	D52118@de.pr.gov	2020-2021
Ponce	Yauco	Guánica	50690	Elsa E. Couto Annoni	17.98848	-66.9214	Abierta	Primario	PK K 1 2 3 4 5	No	128	128	2	33.5%	Others	14.94%	821-3222	Carr 321 Sector Fuy Bo Cienaga	Guánica	PR	6530000	D50690@de.pr.gov	2020-2021
Ponce	Yauco	Yauco	53603	Elvira  Vicente	18.03195	-66.84925	Abierta	Primario	6 7 8	No	222	219	2	38.8%	Others	9.02%	856-1394	Ave Barbosa Final	Yauco	PR	6980000	D53603@de.pr.gov	2020-2021
Ponce	Santa Isabel	Santa Isabel	57703	Elvira M. Colón	17.96018	-66.40558	Abierta	Secundario	9 10 11 12 ES	No	334	327	3	44.1%	Others	3.66%	845-2751	Calle Celis Aguilera	Santa Isabel	PR	7570000	D57703@de.pr.gov	2020-2021
Ponce	Ponce	Ponce I	54288	Ernesto Ramos Antonini	18.02032	-66.61032	Abierta	Primario	K 1 2 3 4 5 6 7 8 EE EI	No	276	263	2	24.3%	Targeted	4.07%	842-3216	301 C Ave Tito Castro	Ponce	PR	7310000	D54288@de.pr.gov	2020-2021
Ponce	Yauco	Yauco	53470	Ernesto Ramos Antonini	18.03115	-66.84929	Abierta	Todos Los Niveles	6 7 8 9 10 11 12 EI ES	No	379	376	5	83.4%	Others	5.13%	856-1325	48 Ave Barbosa	Yauco	PR	6980000	D53470@de.pr.gov	2020-2021
Ponce	Ponce	Ponce III	56440	Eugenio Le Compte Benítez	18.01455	-66.64664	Abierta	Primario	6 7 8 EI	No	389	390	2	34.5%	Additional Targeted	1.75%	844-4554	Carr 132 Villa Final 1150	Ponce	PR	7310000	D56440@de.pr.gov	2020-2021
Ponce	Santa Isabel	Juana Díaz	51631	Felipe Colón Díaz	18.05091	-66.50742	Abierta	Primario	6 7 8 EI	No	344	359	2	23.9%	Others	3.20%	837-2365	Calle Mariano Abril	Juana Díaz	PR	7950000	D51631@de.pr.gov	2020-2021
Ponce	Ponce	Ponce III	52050	Fernando L. Malavé Oliveras	17.98809	-66.65638	Abierta	Primario	K 1 2 3 4 5 6 7 8 EE EI	No	452	454	3	40.4%	Others	2.95%	844-2048	Calle Ramos Antonini 39 Sector El Tuque	Ponce	PR	7310000	D52050@de.pr.gov	2020-2021
Ponce	Santa Isabel	Coamo	55350	Florencio Santiago	18.07785	-66.36231	Abierta	Primario	6 7 8	No	347	345	3	59.6%	Others	1.41%	825-1575	Calle Jose I Quinton 116 Bo Pueblo	Coamo	PR	7690000	D55350@de.pr.gov	2020-2021
Ponce	Utuado	Utuado	13326	Francisco Jordán	18.28343	-66.75156	Abierta	Primario	K 1 2 3 4 5 6 7 8	No	172	177	3	54.5%	Others	1.12%	894-7705	Carr 111 Ramal 621	Utuado	PR	6410000	D13326@de.pr.gov	2020-2021
Ponce	Santa Isabel	Juana Díaz	58255	Francisco Prado Picart	18.07391	-66.49311	Abierta	Primario	K 1 2 3 4 5 6 7 8	No	254	253	2	26.7%	Others	2.65%	837-3027	Bo Guayabal Cerro	Juana Díaz	PR	7950000	D58255@de.pr.gov	2020-2021
Ponce	Utuado	Utuado	13151	Francisco Ramos Sánchez	18.2667	-66.70568	Abierta	Primario	6 7 8 EE	No	299	289	2	32.8%	Others	2.30%	894-2470	Calle Dr Cueto	Utuado	PR	6410000	D13151@de.pr.gov	2020-2021
Ponce	Santa Isabel	Villalba	53256	Francisco Zayas Santana	18.12578	-66.49031	Abierta	Primario	6 7 8 EI	No	412	407	1	19.4%	Others	1.65%	847-2110	Carr 150 Km 5 Hm I Urb La Vega	Villalba	PR	7660000	D53256@de.pr.gov	2020-2021
Ponce	Yauco	Guayanilla	58164	Gloria María Borrero Oliveras	18.0539764053771	-66.7780372078564	Abierta	Primario	K 1 2 3 4 5 6 7 8 EE EI	No	583	579	3	47.3%	Others	2.02%	835-0401	Carr #132 Km 4 Hm 2 Bo Macana	Guayanilla	PR	6560000	D58164@de.pr.gov	2020-2021
Ponce	Utuado	Adjuntas	50229	Héctor I. Rivera	18.1972490642659	-66.7929813762902	Abierta	Primario	K 1 2 3 4 5 6 7 8	No	250	255	2	37.6%	Additional Targeted	4.26%	829-3030	Carr 135 Km 75 Hm 5 Bo Yahuecas	Adjuntas	PR	6010000	D50229@de.pr.gov	2020-2021
Ponce	Ponce	Ponce II	52142	Hemeterio Colón	18.0076	-66.61467	Abierta	Primario	6 7 8	No	253	248	2	26.9%	Others	8.55%	840-3500	Calle Concordia  8139	Ponce	PR	7171547	D52142@de.pr.gov	2020-2021
Ponce	Ponce	Ponce I	54635	Herminia García	18.04266	-66.59335	Abierta	Primario	K 1 2 3 4 5	No	503	499	4	66.7%	Others	3.93%	840-6455	Calle E9 Urb Glenview Garden	Ponce	PR	7330000	D54635@de.pr.gov	2020-2021
Ponce	Yauco	Guayanilla	51292	Herminio Arzola Emmanuelli (Quebradas)	18.035533489411	-66.8024058527548	Abierta	Primario	PK K 1 2 3 4 5	No	225	205	3	57.8%	Others	1.30%	835-2500	Carr 127 Ramal 377 Bo Quebrada	Guayanilla	PR	6560000	D51292@de.pr.gov	2020-2021
Ponce	Santa Isabel	Coamo	57828	Herminio W. Santaella	18.054215347721	-66.3918309739969	Abierta	Primario	6 7 8	No	263	264	3	41.7%	Others	2.21%	825-5559	Carr 14 Bo Los Llaños	Coamo	PR	7690000	D57828@de.pr.gov	2020-2021
Ponce	Yauco	Guayanilla	51177	Hipólito García	17.99275	-66.81443	Abierta	Primario	K 1 2 3 4 5 6 7 8	No	229	226	3	46.8%	Others	2.93%	835-3815	Carr 335 Hm 4 Bo Indios	Guayanilla	PR	6560000	D51177@de.pr.gov	2020-2021
Ponce	Yauco	Yauco	57331	Inés María Mendoza	18.02949	-66.86884	Abierta	Primario	K 1 2 3 4 5 EE	No	200	199	4	70.8%	Others	8.64%	856-7338	Ave Luis Muñoz Marin	Yauco	PR	6980000	D57331@de.pr.gov	2020-2021
Ponce	Utuado	Utuado	13359	Inocencio Montero	18.24821	-66.721	Abierta	Primario	K 1 2 3 4 5 6 7 8	No	282	290	3	58.5%	Others	2.96%	894-1448	Carr 110 Km 51 Hm 6 Bo Salto Arriba	Utuado	PR	6410000	D13359@de.pr.gov	2020-2021
Ponce	Yauco	Peñuelas	54429	Intermedia Tallaboa Alta	18.05139	-66.70386	Abierta	Primario	6 7 8	No	107	107	3	40.9%	Comprehensive	4.42%	836-2100	Carr 132 Km 14 Hm 3 Bo Tallaboa Alta	Peñuelas	PR	6240000	D54429@de.pr.gov	2020-2021
Ponce	Santa Isabel	Villalba	54452	Isabel Alvarado Alvarado	18.1272180864308	-66.4920949425238	Abierta	Primario	K 1 2 3 4 5 6 7 8 EE EI	No	397	396	2	35.2%	Others	0.25%	(787) 847-0183	Carr 151 Km 2.2 Bo Hato Puerco Arriba	Villalba	PR	7660000	D54452@de.pr.gov	2020-2021
Ponce	Ponce	Ponce II	52621	Ismael Maldonado Lúgaro	18.00551	-66.60409	Abierta	Primario	K 1 2 3 4 5 6 7 8	No	245	233	3	48.0%	Targeted	13.09%	843-2135	4 Calles Bo San Anton	Ponce	PR	7310000	D52621@de.pr.gov	2020-2021
Ponce	Ponce	Ponce III	52225	Jaime L. Drew	18.00872	-66.62797	Abierta	Primario	K 1 2 3 4 5 EE	No	233	231	3	57.3%	Others	3.28%	842-7343	Ave Roosevelt Bda Baldorioty	Ponce	PR	7310000	D52225@de.pr.gov	2020-2021
Ponce	Ponce	Ponce I	56424	Jardines de Ponce	18.04306	-66.59023	Abierta	Primario	6 7 8 EE	No	344	340	2	21.0%	Others	5.77%	844-3400	Carr 505 Km 7 Hm 0 Urb Jardines De Ponce	Ponce	PR	7310000	D56424@de.pr.gov	2020-2021
Ponce	Santa Isabel	Coamo	58131	José M. Espada Zayas	18.0732	-66.36784	Abierta	Primario	K 1 2 3 4 5 EE	No	239	240	4	75.0%	Others	0.79%	825-1435	Ave Luis Muñoz Marin Al Lado Cdt	Coamo	PR	7690000	D58131@de.pr.gov	2020-2021
Ponce	Utuado	Adjuntas	55806	Jose B. Barcelo Oliver	18.148034	-66.729973	Abierta	PS - Otros	SHARED	No					N/A		829-5379	Carr 518 Km 1 Hm 1 Bo Saltillo	Adjuntas	PR	6010000	D55806@de.pr.gov	2020-2021
Ponce	Utuado	Adjuntas	50294	José Emilio Lugo	18.16602	-66.72544	Abierta	Secundario	9 10 11 12 ES	No	503	472	2	34.2%	Comprehensive	5.18%	829-0408	Urb Cerros 75 Calle Francisco Pietri	Adjuntas	PR	6010000	D50294@de.pr.gov	2020-2021
Ponce	Santa Isabel	Coamo	56226	José Felipe Zayas	18.07602	-66.37419	Abierta	Secundario	9 10 11 12 ES	No	612	594	2	32.0%	Others	0.48%	825-5911	Calle 19 Ext. Jardines De Coamo	Coamo	PR	7690000	D56226@de.pr.gov	2020-2021
Ponce	Yauco	Yauco	57000	Jose Onofre Torres	18.03668	-66.86064	Abierta	Primario	6 7 8 EI	No	313	315	1	18.7%	Others	1.25%	856-2143	Carr 128 Km 1 Hm 8 Int 368	Yauco	PR	6980000	D57000@de.pr.gov	2020-2021
Ponce	Santa Isabel	Coamo	50500	José Ramón Rodríguez	18.07834	-66.35747	Abierta	Primario	K 1 2 3 4 5 EE	No	300	296	4	69.0%	Others	1.65%	825-1127	Calle Dr Veve Sur	Coamo	PR	7690000	D50500@de.pr.gov	2020-2021
Ponce	Yauco	Guánica	50757	José Rodríguez Soto	17.96766	-66.93638	Abierta	Primario	K 1 2 3 4 5 6 7 8 EE	No	253	263	2	36.9%	Others	8.62%	821-2310	Ave Los Veteranos #40 Bo Ensenada	Guánica	PR	6470000	D50757@de.pr.gov	2020-2021
Ponce	Utuado	Utuado	13318	José Vizcarrondo	18.28419	-66.8032	Abierta	Todos Los Niveles	6 7 8 9 10 11 12	No	158	156	3	41.0%	Others	2.45%	894-7702	Carr 111 Int 602 Bo Angeles	Utuado	PR	6410000	D13318@de.pr.gov	2020-2021
Ponce	Yauco	Peñuelas	57919	Josefa Vélez Bauzá (Superior Urbana)	18.06551	-66.74315	Abierta	Secundario	9 10 11 12	No	731	704	2	27.7%	Others	2.38%	(787) 836-1340	Carr 132 Bo Cotto	Peñuelas	PR	6241278	D57919@de.pr.gov	2020-2021
Ponce	Ponce	Ponce II	54502	Josefina Boya	18.01205	-66.58487	Abierta	Primario	K 1 2 3 4 5	No	274	266	2	33.9%	Others	2.10%	840-3770	Calle Hucar Bo Sabanetas Merceditas	Ponce	PR	7150000	D54502@de.pr.gov	2020-2021
Ponce	Utuado	Jayuya	54619	Josefina León Zayas	18.21938	-66.58811	Abierta	Secundario	9 10 11 12 ES	No	731	699	3	44.8%	Others	1.21%	828-5700	Carr 144 Ramal 141	Jayuya	PR	6640000	D54619@de.pr.gov	2020-2021
Ponce	Ponce	Ponce III	52258	Juan Cuevas Aboy	17.99976	-66.62222	Abierta	Primario	K 1 2 3 4 5	No	377	386	3	55.5%	Others	0.51%	843-3895	Calle Eduardo Cuevas Urb Villa Grillasca	Ponce	PR	7310000	D52258@de.pr.gov	2020-2021
Ponce	Ponce	Ponce II	52159	Juan Morel Campos (Musica)	18.0119138200392	-66.6113520016556	Abierta	Todos Los Niveles	SHARED	No					N/A		842-3974	Calle Lolita Tizol #20	Ponce	PR	7310000	D52159@de.pr.gov	2020-2021
Ponce	Santa Isabel	Juana Díaz	55731	Juan Serapio Mangual	17.99454	-66.4909	Abierta	Primario	K 1 2 3 4 5	No	194	192	4	69.5%	Others	0.49%	837-8515	Carr 1 Km 13 Hm 9 Bo Pastillo	Juana Díaz	PR	7950000	D55731@de.pr.gov	2020-2021
Ponce	Ponce	Ponce I	57562	Juan Serrallés (Intermedia)	18.05104	-66.54771	Abierta	Primario	6 7 8	No	264	265	2	22.8%	Others	3.74%	848-2005	Calle Jobos Final Bo Coto Laurel	Ponce	PR	7310000	D57562@de.pr.gov	2020-2021
Ponce	Ponce	Ponce I	52274	Juan Serrallés (Superior)	18.04971	-66.54824	Abierta	Secundario	9 10 11 12	No	430	417	3	40.5%	Others	7.16%	848-5274	Carr. 14 Bo Coto Laurel	Ponce	PR	7310000	D52274@de.pr.gov	2020-2021
Ponce	Utuado	Utuado	16220	Judith A. Vivas	18.26701	-66.6955	Abierta	Primario	K 1 2 3 4 5 EE	No	257	255	5	88.0%	Others	3.75%	894-3446	Ave Ribas Dominicci	Utuado	PR	6410000	D16220@de.pr.gov	2020-2021
Ponce	Ponce	Ponce III	55475	Julio Alvarado Tricoche	18.00938	-66.64463	Abierta	Primario	K 1 2 3 4 5	No	215	218	3	42.8%	Others	8.82%	844-7048	Calle 13 Urb Jardines Del Caribe	Ponce	PR	7310000	D55475@de.pr.gov	2020-2021
Ponce	Ponce	Ponce I	52704	Julio Collazo Silva	18.07412	-66.63531	Abierta	Primario	K 1 2 3 4 5	No	160	170	2	38.6%	Others	4.00%	848-2385	Carr 14 Bo Cerrillos	Ponce	PR	7310000	D52704@de.pr.gov	2020-2021
Ponce	Yauco	Yauco	53660	Lena M. Franceschi (Rubias)	18.15246	-66.88604	Abierta	Primario	K 1 2 3 4 5 6 7 8	No	130	131	2	30.5%	Others	2.21%	838-0040	Carr 105 Km 25 Hm 1 Bo Rubias	Yauco	PR	6980000	D53660@de.pr.gov	2020-2021
Ponce	Ponce	Ponce II	54247	Librado Net	18.00529	-66.63638	Abierta	Primario	PK K 1 2 3 4 5	No	173	169	4	64.7%	Others	6.77%	842-6395	Urb San Antonio, 50 Calle 9	Ponce	PR	7285901	D54247@de.pr.gov	2020-2021
Ponce	Ponce	Ponce III	58511	Lila María Mercedes Mayoral	17.98348	-66.66344	Abierta	Secundario	9 10 11 12	No	119	115	3	42.4%	Others	6.20%	843-8245	Blq Canas Box 7409 Sector El Tuque	Ponce	PR	7327409	D58511@de.pr.gov	2020-2021
Ponce	Ponce	Ponce I	56093	Llanos del Sur	18.04644	-66.55013	Abierta	Primario	K 1 2 3 4 5 EE	No	320	329	3	43.6%	Others	1.77%	848-1105	Calle 3 Parc Llanos Del Sur Bo Coto Laurel	Ponce	PR	7800000	D56093@de.pr.gov	2020-2021
Ponce	Yauco	Yauco	58305	Loaiza Cordero del Rosario	18.03055	-66.86819	Abierta	Secundario	9 10 11 12 ES	No	417	397	1	10.9%	Comprehensive	5.26%	267-6615	Ave Luis Muñoz Marin #1000	Yauco	PR	6980000	D58305@de.pr.gov	2020-2021
Ponce	Ponce	Ponce III	52365	Lucy Grillasca	17.98624	-66.62923	Abierta	Primario	K 1 2 3 4 5 EE	No	231	237	2	24.5%	Others	2.37%	842-4010	Ave Eduardo Ruberte Parque Amalia Marin	Ponce	PR	7310000	D52365@de.pr.gov	2020-2021
Ponce	Yauco	Yauco	53579	Luis A. Ferré Aguayo	18.01222	-66.87173	Abierta	Primario	K 1 2 3 4 5 EE	No	108	111	3	47.0%	Others	1.79%	856-3635	Calle 3 Esq  5 Y 6	Yauco	PR	6980000	D53579@de.pr.gov	2020-2021
Ponce	Santa Isabel	Juana Díaz	51698	Luis Llorens Torres	18.04658	-66.5049	Abierta	Secundario	9 10 11 12	No	445	438	3	56.2%	Others	2.63%	837-2670	Calle La Cruz Juana Diaz Pueblo	Juana Díaz	PR	7950000	D51698@de.pr.gov	2020-2021
Ponce	Santa Isabel	Juana Díaz	51763	Luis Muñoz Marín	17.99439	-66.49162	Abierta	Todos Los Niveles	6 7 8 9 10 11 12 EI	No	214	212	1	19.8%	Others	3.13%	837-8151	Carr 1 Sector Singapur Bo Pastillo	Juana Díaz	PR	7950000	D51763@de.pr.gov	2020-2021
Ponce	Utuado	Utuado	13425	Luis Muñoz Rivera	18.26712	-66.72525	Abierta	Secundario	9 10 11 12 ES	No	495	490	3	44.6%	Others	4.53%	894-2666	124 Calle Dr Cueto	Utuado	PR	6410000	D13425@de.pr.gov	2020-2021
Ponce	Yauco	Guánica	50773	Luis Muñoz Rivera	17.99822	-66.89452	Abierta	Primario	PK K 1 2 3 4 5	No	102	96	5	81.7%	Others	0.93%	821-3121	Carr 116 Ramal 1116 Bo Cano	Guánica	PR	6530000	D50773@de.pr.gov	2020-2021
Ponce	Yauco	Yauco	53512	Luis Muñoz Rivera	18.03198	-66.84978	Abierta	Primario	K 1 2 3 4 5 EE	No	177	173	3	42.4%	Others	1.11%	856-1370	Ave Barbosa	Yauco	PR	6980000	D53512@de.pr.gov	2020-2021
Ponce	Santa Isabel	Villalba	58180	Lysander Borrero Terry	18.12665	-66.49979	Abierta	Secundario	9 10 11 12	No	592	578	2	29.5%	Others	2.14%	847-2110	Carr 149 Km 57.2 Bo Tierra Santa	Villalba	PR	7661703	D58180@de.pr.gov	2020-2021
Ponce	Yauco	Guánica	50781	Magueyes II	18.02262	-66.88557	Abierta	Primario	PK K 1 2 3 4 5 EE	No	127	130	2	37.0%	Others	2.26%	821-7000	Bo Susua Baja Sector Magueyes	Guánica	PR	6530000	D50781@de.pr.gov	2020-2021
Ponce	Santa Isabel	Juana Díaz	51706	Manuel Fernández Juncos	18.05249	-66.50271	Abierta	Primario	PK K 1 2 3 4 EE	No	276	289	3	40.6%	N/A	3.88%	837-2243	Carr 14 Calle Comerio	Juana Díaz	PR	7950000	D51706@de.pr.gov	2020-2021
Ponce	Ponce	Ponce I	56101	Manuel González Pato	18.0322627579835	-66.6013575711255	Abierta	Primario	6 7 8	No	281	276	2	30.8%	Others	2.14%	841-7216	Calle 9 Urb La Rambla	Ponce	PR	7310000	D56101@de.pr.gov	2020-2021
Ponce	Santa Isabel	Santa Isabel	53009	Manuel Martín Monserrate	17.96654	-66.40544	Abierta	Primario	6 7 8 EI	No	247	242	1	19.2%	Others	1.98%	845-3160	Calle Baldorioty De Castro #6	Santa Isabel	PR	7570000	D53009@de.pr.gov	2020-2021
Ponce	Ponce	Ponce III	54684	María E. Archeval Salamo De Valdes	17.9994	-66.63009	Abierta	PS - Instituto	SHARED	No					N/A		843-0935	Carr 21 Km 35 Hm 8M Ponce By Pass	Ponce	PR	7310000	D54684@de.pr.gov	2020-2021
Ponce	Yauco	Guánica	50799	María L. McDougall	17.9729	-66.90846	Abierta	Primario	PK K 1 2 3 4 5 EE	No	135	135	5	85.6%	Others	0.00%	821-2490	23 Calle 65 Infanteria	Guánica	PR	6530000	D50799@de.pr.gov	2020-2021
Ponce	Utuado	Utuado	14373	María Libertad Gómez	18.26778	-66.70563	Abierta	Primario	K 1 2 3 4 5 EE	No	147	148	2	33.0%	Others	3.75%	894-2188	Urb Perez Matos Calle Robles #18	Utuado	PR	6410000	D14373@de.pr.gov	2020-2021
Ponce	Santa Isabel	Santa Isabel	52944	Martín G. Brumbaugh	17.96771	-66.4043	Abierta	Primario	K 1 2 3 4 5 EE	No	366	365	2	21.3%	Others	3.37%	845-3315	33 Calle Eugenio Maria De Hostos	Santa  Isabel	PR	7570000	D52944@de.pr.gov	2020-2021
Ponce	Utuado	Jayuya	51375	Miguel A. Sastre Oliver	18.20239	-66.5794	Abierta	Primario	PK K 1 2 3 4 5 EE	No	175	182	3	46.1%	Others	1.56%	828-2008	Carr 527 Km 2 Hm 1 Bo Veguita Sec Gripiñas	Jayuya	PR	6640000	D51375@de.pr.gov	2020-2021
Ponce	Yauco	Peñuelas	57323	Miguel González Bauza	18.05554	-66.71168	Abierta	Primario	K 1 2 3 4 5 EE	No	250	244	2	38.1%	Others	1.57%	836-2597	Bo Quebrada Calle 1 Sect Caracoles	Peñuelas	PR	6240000	D57323@de.pr.gov	2020-2021
Ponce	Santa Isabel	Villalba	56077	Norma I. Torres Colon	18.12707	-66.48902	Abierta	Primario	K 1 2 3 4 5	No	227	224	2	32.2%	Others	0.00%	847-9090	Carr 150 Km 5 Hacia Coamo	Villalba	PR	7660000	D56077@de.pr.gov	2020-2021
Ponce	Santa Isabel	Juana Díaz	58172	Pedro Colón Santiago	18.05349	-66.52275	Abierta	Primario	K 1 2 3 4 5 6 7 8 EE	No	293	293	3	40.4%	Others	1.64%	837-1016	Carr 14 Km 11 Bo Jacaguas	Juana Díaz	PR	7950000	D58172@de.pr.gov	2020-2021
Ponce	Santa Isabel	Santa Isabel	53058	Pedro Meléndez Santiago	17.9842	-66.43702	Abierta	Primario	K 1 2 3 4 5 6 7 8	No	369	369	3	47.1%	Others	3.05%	845-3565	Calle Libertad Bo Playita Cortada	Santa Isabel	PR	7570000	D53058@de.pr.gov	2020-2021
Ponce	Ponce	Ponce II	52514	Ponce High School	18.01103	-66.61032	Abierta	Secundario	9 10 11 12	No	668	628	2	21.7%	Comprehensive	16.09%	842-4156	Calle Cristina #37	Ponce	PR	7330000	D52514@de.pr.gov	2020-2021
Ponce	Yauco	Yauco	58099	Profesora Luisa Monsegur Vélez	18.010869	-66.845207	Abierta	Primario	PK K 1 2 3 4 5 6 7 8 EE	No	235	240	4	71.3%	Others	7.77%	267-0030	Barrio Barinas	Yauco	PR	6980000	D58099@de.pr.gov	2020-2021
Ponce	Santa Isabel	Coamo	50542	Purificación Rodríguez	18.07771	-66.35917	Abierta	Primario	K 1 2 3 4 5 EE	No	303	304	4	72.7%	Others	3.37%	825-1684	Calle Rodriguez Hidalgo Esq Carrion Maduro	Coamo	PR	7690000	D50542@de.pr.gov	2020-2021
Ponce	Utuado	Adjuntas	54551	Rafael Aparicio Jiménez	18.16476	-66.72388	Abierta	Primario	6 7 8 EI	No	329	324	2	32.4%	Comprehensive	2.32%	829-3890	Calle Rodulfo González Final	Adjuntas	PR	6010000	D54551@de.pr.gov	2020-2021
Ponce	Yauco	Peñuelas	51870	Rafael Irizarry Rivera	18.0538	-66.72358	Abierta	Primario	6 7 8 EI	No	300	289	4	60.6%	Targeted	3.58%	836-1177	Calle Pedro Alvarado	Peñuelas	PR	6240000	D51870@de.pr.gov	2020-2021
Ponce	Santa Isabel	Coamo	50468	Ramón José Dávila	18.07382	-66.36495	Abierta	Secundario	9 10 11 12 ES	No	734	727	2	28.6%	Others	3.64%	825-1247	Urb El Eden Calle A	Coamo	PR	7690000	D50468@de.pr.gov	2020-2021
Ponce	Santa Isabel	Villalba	58495	Ramón López Berrios	18.15672	-66.46993	Abierta	Primario	K 1 2 3 4 5 EE	No	98	96	5	81.8%	Others	4.85%	847-6729	Carr. 561 Km. 5 Bo. Vacas	Villalba	PR	7660000	D58495@de.pr.gov	2020-2021
Ponce	Ponce	Ponce I	52555	Ramón Marín	18.00711	-66.60203	Abierta	Todos Los Niveles	EE EI ES	No	166	170	5	85.4%	Others	1.17%	842-1371	Ave Las Americas	Ponce	PR	7310000	D52555@de.pr.gov	2020-2021
Ponce	Yauco	Peñuelas	51946	Ramón Perez Purcell	18.06048	-66.75445	Abierta	Primario	K 1 2 3 4 5 6 7 8 EE	No	341	342	2	39.1%	Others	5.23%	836-5564	Carr 132 Km 7 Hm 7 Bo Santo Domingo	Peñuelas	PR	6240000	D51946@de.pr.gov	2020-2021
Ponce	Ponce	Ponce I	52571	Rodulfo del Valle	18.02225	-66.60379	Abierta	Primario	K 1 2 3 4 5 EE	No	245	255	4	66.9%	Others	5.03%	844-1265	Ave Tito Castro Carr. 14	Ponce	PR	7330000	D52571@de.pr.gov	2020-2021
Ponce	Santa Isabel	Coamo	50609	Román Colón Correa	18.0213457351876	-66.332328159988	Abierta	Primario	K 1 2 3 4 5 6 7 8 EE EI	No	254	263	3	47.6%	Others	1.50%	825-5445	Carr 154, Sector Rio Jueyes	Coamo	PR	7690000	D50609@de.pr.gov	2020-2021
Ponce	Santa Isabel	Juana Díaz	51656	Rutherford B. Hayes	18.05122	-66.50303	Abierta	Primario	K 1 2 3 4 5 EE	No	423	421	4	60.8%	Others	3.76%	837-2336	Calle Comercio Carr 14	Juana Díaz	PR	7950000	D51656@de.pr.gov	2020-2021
Ponce	Santa Isabel	Coamo	58248	Sabino Rivera Berrios	18.15316	-66.34056	Abierta	Primario	K 1 2 3 4 5 6 7 8 EE	No	138	143	1	16.9%	Others	0.00%	857-4595	Carr 723 Km 7.4 Barrio Pulguilla	Coamo	PR	7690000	D58248@de.pr.gov	2020-2021
Ponce	Utuado	Jayuya	51482	San Patricio	18.15741	-66.64385	Abierta	Primario	K 1 2 3 4 5	No	95	91	4	74.3%	Others	3.06%	259-0112	Carr 139 Km 7 Mh 6 Bo San Patricio	Jayuya	PR	6640000	D51482@de.pr.gov	2020-2021
Ponce	Ponce	Ponce I	57026	Santa Teresita	18.03116	-66.60784	Abierta	Primario	K 1 2 3 4 5 EE	No	199	199	3	42.9%	Others	2.31%	841-4949	Calle 23 Urb Santa Teresita	Ponce	PR	7310000	D57026@de.pr.gov	2020-2021
Ponce	Yauco	Yauco	53702	Santiago Negroni	18.03154	-66.8483	Abierta	Primario	K 1 2 3 4 5	No	241	254	4	63.2%	Others	3.16%	856-1830	4 Ave Barbosa	Yauco	PR	6980000	D53702@de.pr.gov	2020-2021
Ponce	Ponce	Ponce II	56085	Sor Isolina Ferré	17.97787	-66.60445	Abierta	Primario	6 7 8 EI	No	343	352	2	31.1%	Others	9.64%	840-6075	Calle Solimar Urb Villa Del Carmen	Ponce	PR	7160000	D56085@de.pr.gov	2020-2021
Ponce	Utuado	Jayuya	51458	S. U. Antonia Serrano González	18.26075	-66.57882	Abierta	Primario	PK K 1 2 3 4 5 6 7 8 EE	No	154	155	3	43.9%	Others	0.00%	828-1285	Carr 141 Km 11 Hm 1 Bo Mameyes	Jayuya	PR	6640000	D51458@de.pr.gov	2020-2021
Ponce	Utuado	Jayuya	51441	S. U. Antonio Romero Muñiz	18.19782	-66.62139	Abierta	Primario	K 1 2 3 4 5 6 7 8	No	188	188	2	39.7%	Others	1.53%	828-2144	Carr 140 Km 16 Hm 0 Bo Collores	Jayuya	PR	6640000	D51441@de.pr.gov	2020-2021
Ponce	Santa Isabel	Coamo	50443	S. U. Eugenio Nazario Soto	18.07978	-66.30244	Abierta	Primario	K 1 2 3 4 5 6 7 8 EE EI	No	216	216	4	69.4%	Others	0.90%	825-5759	Carr 702 Km 2 Hm 3 Bo Cuyon	Coamo	PR	7690000	D50443@de.pr.gov	2020-2021
Ponce	Santa Isabel	Villalba	53140	S. U. Hatillo	18.11206	-66.48545	Abierta	Primario	K 1 2 3 4 5 6 7 8 EI	No	427	422	3	45.3%	Others	2.03%	847-3774	Carr 150 Km 3 Hm 6 Hato Puerco	Villalba	PR	7660000	D53140@de.pr.gov	2020-2021
Ponce	Yauco	Yauco	53686	S. U. Jaime Castañer	18.08917	-66.84113	Abierta	Primario	K 1 2 3 4 5 6 7 8	No	123	124	3	47.4%	Others	0.78%	856-2329	Carr 372 Km 9	Yauco	PR	6980000	D53686@de.pr.gov	2020-2021
Ponce	Yauco	Peñuelas	51938	S. U. Jorge Lucas Valdivieso	17.99716	-66.71971	Abierta	Todos Los Niveles	K 1 2 3 4 5 6 7 8 EE ES EA	No	171	169	3	59.9%	Others	2.26%	836-1105	Carr 2 Km 4 Bo Encarnacion	Peñuelas	PR	6240000	D51938@de.pr.gov	2020-2021
Ponce	Utuado	Utuado	13334	S. U. Marta Lafontaine	18.26806	-66.64424	Abierta	Primario	K 1 2 3 4 5 6 7 8	No	91	86	3	59.3%	Others	0.00%	894-0000	Carr 613 Km 3 Hm 2 Bo Caonillas	Utuado	PR	6410000	D13334@de.pr.gov	2020-2021
Ponce	Utuado	Jayuya	51433	S. U. Nemesio R. Canales	18.20894	-66.56071	Abierta	Primario	K 1 2 3 4 5 6 7 8 EE	No	210	201	3	47.8%	Targeted	0.92%	828-2007	Bo Coabey Carr 144 Km 9 Hm2	Jayuya	PR	6640000	D51433@de.pr.gov	2020-2021
Ponce	Santa Isabel	Juana Díaz	51797	S. U.  Zoilo Gracía	18.09089	-66.5386	Abierta	Primario	K 1 2 3 4 5 6 7 8	No	235	227	4	62.7%	Others	0.84%	837-0544	Carr 512 Km 5 Hm 3 Sect Capital Bo Collores	Juana Díaz	PR	7950000	D51797@de.pr.gov	2020-2021
Ponce	Ponce	Ponce I	56432	Superior Jardines de Ponce	18.04422	-66.58923	Abierta	Secundario	9 10 11 12	No	528	506	1	18.2%	Others	1.34%	840-7785	Carr 505 Km 0 Hm 7 Urb Jardines De Ponce	Ponce	PR	7310000	D56432@de.pr.gov	2020-2021
Ponce	Yauco	Yauco	55244	Superior Ocupacional y Técnica de Yauco	18.03598	-66.86231	Abierta	Secundario	9 10 11 12 ES	No	1042	1018	3	56.1%	Others	4.18%	856-1904	Carr 368 Km O Hm 12	Yauco	PR	6980000	D55244@de.pr.gov	2020-2021
Ponce	Utuado	Utuado	17863	Superior Vocacional	18.26712	-66.72525	Abierta	Secundario	9 10 11 12 ES	No	493	473	3	48.5%	Others	0.82%	814-0012	Carr 10. Km. 52.5 Bo. Salto Arriba	Utuado	PR	6410000	D17863@de.pr.gov	2020-2021
Ponce	Santa Isabel	Coamo	54445	Susana Rivera  (Nueva Escuela)	18.05581	-66.40382	Abierta	Primario	K 1 2 3 4 5	No	439	433	5	82.4%	Others	3.43%	(787) 825-3992	Bo Los Llanos Carr Pr 14 Int 545 Km 26.7	Coamo	PR	7690000	D54445@de.pr.gov	2020-2021
Ponce	Yauco	Peñuelas	51862	Webster	18.05444	-66.72201	Abierta	Primario	K 1 2 3 4 5 EE	No	344	343	2	36.8%	Others	2.22%	836-1216	Calle Luis Muñoz Rivera 225	Peñuelas	PR	6240000	D51862@de.pr.gov	2020-2021
San Juan	San Juan I	San Juan I	61598	Abraham Lincoln	18.46764	-66.11357	Abierta	Primario	PK K 1 2 3 4 5 EE	No	133	116	2	26.3%	Others	4.32%	722-1561	Calle Sol 351	San Juan	PR	9010000	D61598@de.pr.gov	2020-2021
San Juan	Carolina	Carolina II	66019	Agustín Cabrera	18.39549	-65.96069	Abierta	Primario	6 7 8 EI	No	344	346	2	28.3%	Comprehensive	5.33%	768-1725	Urb V.Carolina	Carolina	PR	9880000	D66019@de.pr.gov	2020-2021
San Juan	San Juan II	San Juan IV	62984	Albert Einstein	18.4331	-66.04607	Abierta	Secundario	9 10 11 12 ES	No	340	327	2	27.8%	Comprehensive	3.65%	727-5525	Calle Haydee Rexach Esq Borinquen	San Juan	PR	9150000	D62984@de.pr.gov	2020-2021
San Juan	San Juan II	San Juan IV	63172	Alejandro Tapia y Rivera	18.43826	-66.04516	Abierta	Primario	K 1 2 3 4 5 EE	No	254	255	3	48.0%	Comprehensive	3.94%	726-0100	Villa Palmera 369 Calle Belevue	San Juan	PR	9150000	D63172@de.pr.gov	2020-2021
San Juan	San Juan II	San Juan III	62679	Amalia Marín	18.39313	-66.05409	Abierta	Primario	K 1 2 3 4 5 EE	No	88	87	4	65.3%	Others	2.08%	764-0093	Calle Guaracanal, Bo. Venezuela	San Juan	PR	9260000	D62679@de.pr.gov	2020-2021
San Juan	San Juan II	San Juan V	62661	Amalia Marín	18.37701	-66.06276	Abierta	Todos Los Niveles	K 1 2 3 4 5 6 7 8 EE EI	No	258	276	1	19.9%	Comprehensive	3.75%	763-5218	Calle Peñasco Final Paradise Hills	San Juan	PR	9240000	D62661@de.pr.gov	2020-2021
San Juan	Guaynabo	Trujillo Alto	69039	Andrés Valcárcel	18.35289	-66.0064	Abierta	Primario	6 7 8 EI	No	257	255	2	25.1%	Targeted	3.97%	761-1060	Calle Andres Valcarcel Final	Trujillo Alto	PR	9760000	D69039@de.pr.gov	2020-2021
San Juan	Carolina	Carolina I	61853	Ángel P. Millán Rohena	18.36921	-65.93054	Abierta	Todos Los Niveles	6 7 8 9 10 11 12 EI	No	580	607	1	17.2%	Others	4.52%	276-0120	Car 857 Km 0.3 Bo Canovanillas	Carolina	PR	9860000	D61853@de.pr.gov	2020-2021
San Juan	San Juan I	San Juan I	61580	Antonio B. Caimary	18.4424	-66.05438	Abierta	Primario	K 1 2 3 4 5	No	252	260	3	58.9%	Others	5.38%	726-6783	Ave Eduardo Conde Esq Tapia Villa Palmeras	San Juan	PR	9150000	D61580@de.pr.gov	2020-2021
San Juan	San Juan II	San Juan III	62422	Antonio Sarriera Egozcue	18.40727	-65.99524	Abierta	Primario	K 1 2 3 4 5 6 7 8 EE	No	412	404	2	26.1%	Others	2.34%	769-7415	Calle Carmen Hernandez Urb El Comandante	San Juan	PR	9240000	D62422@de.pr.gov	2020-2021
San Juan	San Juan II	San Juan III	67785	Berwind Elemental	18.40081	-66.01285	Abierta	Primario	K 1 2 3 4 5 EE	No	231	221	2	30.3%	Others	4.94%	768-2570	Res Jardines De Berwind Calle 1	San Juan	PR	9240000	D67785@de.pr.gov	2020-2021
San Juan	San Juan II	San Juan III	67934	Berwind Intermedia	18.40229	-66.0127	Abierta	Primario	6 7 8 EI	No	277	267	2	34.0%	Additional Targeted	5.37%	752-0055	Calle 2 Final, Res. Jardines De Berwind	San Juan	PR	9240000	D67934@de.pr.gov	2020-2021
San Juan	San Juan II	San Juan III	67942	Berwind Superior	18.4073	-66.01225	Abierta	Secundario	9 10 11 12	No	248	233	2	30.8%	Others	4.43%	752-9720	Urb Country Club Calle Vinyater Final	San Juan	PR	9240000	D67942@de.pr.gov	2020-2021
San Juan	Guaynabo	Guaynabo	75630	Betty Rosado de Vega	18.33501	-66.10322	Abierta	Primario	K 1 2 3 4 5 EE	No	158	151	3	46.7%	Others	2.41%	720-6178	Carr 20 Km 8 Hm 6 Bo Camarones	Guaynabo	PR	9700000	D75630@de.pr.gov	2020-2021
San Juan	Carolina	Carolina I	66506	Carlos F. Daniels (Voc. De Area)	18.38561	-65.95659	Abierta	Secundario	10 11 ES	No	363	306			N/A	7.13%	762-7385	Urb Severo Quiñones Calle J S Quiñones	Carolina	PR	9860000	D66506@de.pr.gov	2020-2021
San Juan	San Juan II	San Juan III	66225	Carmen Gómez Tejera	18.3905	-66.01135	Abierta	Primario	K 1 2 3 4 5 EE	No	163	164	2	20.1%	Others	3.95%	762-7437	Urb Montecarlo Calle 15 Final	San Juan	PR	9240000	D66225@de.pr.gov	2020-2021
San Juan	San Juan I	San Juan I	61572	Central de Artes Visuales	18.44818	-66.06979	Abierta	Todos Los Niveles	6 7 8 9 10 11 12	No	574	572	4	71.6%	Others	0.00%	723-8911	1415 Ave Ponce De Leon Pda 20	San Juan	PR	9070000	D61572@de.pr.gov	2020-2021
San Juan	San Juan I	San Juan II	61366	Centro Eugenio Maria De Hostos	18.41049	-66.08693	Abierta	Secundario	ES	No	176	167	1	10.0%	Comprehensive	6.95%	792-0111	Urb Puerto Nuevo Calle Constitucion Esq Campeche	San Juan	PR	9210000	D61366@de.pr.gov	2020-2021
San Juan	San Juan I	San Juan II	61333	Dr. Antonio S. Pedreira	18.4073	-66.07822	Abierta	Primario	K 1 2 3 4 5	No	273	279	3	48.6%	Others	2.72%	782-1030	Calle Angel Esq Andorra Urb Puerto Nuevo	San Juan	PR	9280000	D61333@de.pr.gov	2020-2021
San Juan	San Juan I	San Juan I	61655	Dr. Facundo Bueso	18.44306	-66.05612	Abierta	Todos Los Niveles	6 7 8 9 10 11 12 ES	No	471	437	1	18.0%	Comprehensive	5.11%	727-4578	Calle Del Valle Esq Eduardo Conde	San Juan	PR	9150000	D61655@de.pr.gov	2020-2021
San Juan	San Juan I	San Juan I	61622	Dr. Francisco Hernández y Gaetan	18.44513	-66.07799	Abierta	Primario	K 1 2 3 4 5 6	No	257	251	3	54.4%	Others	3.33%	722-4676	Calle Labra Pda 18	San Juan	PR	9010000	D61622@de.pr.gov	2020-2021
San Juan	San Juan I	San Juan I	61663	Dr. José Celso Barbosa	18.4659	-66.10116	Abierta	Todos Los Niveles	6 7 8 9 10 11 12	Sí	255	267	2	30.5%	Others	2.56%	722-5340	Pda. 4 1/2, Ponce De Leon	San Juan	PR	9010000	D61663@de.pr.gov	2020-2021
San Juan	Carolina	Carolina II	65003	Dr. José M. Lázaro	18.41606	-65.99382	Abierta	Secundario	9 10 11 12 ES	No	458	464	2	36.1%	Others	1.85%	769-3638	Ave El Comandante Urb Country Club	Carolina	PR	9840000	D65003@de.pr.gov	2020-2021
San Juan	San Juan I	San Juan I	63073	Dr. Julio J. Henna	18.44568	-66.04791	Abierta	Primario	K 1 2 3 4 5 EE	No	245	233	4	69.3%	Others	2.68%	726-4803	Villa Palmera Calle Henna Esq Providencia	San Juan	PR	9250000	D63073@de.pr.gov	2020-2021
San Juan	Carolina	Carolina II	66001	Dr. Modesto Rivera Rivera	18.3984	-65.96031	Abierta	Primario	K 1 2 3 4 5 EE	No	317	315	3	46.7%	Others	2.99%	762-7505	Calle 9 #84 Blq. 79 Ur. Villa Carolina	Carolina	PR	9850000	D66001@de.pr.gov	2020-2021
San Juan	Carolina	Carolina II	60301	Eduardo J. Saldaña	18.42278	-65.9843	Abierta	Todos Los Niveles	7 8 9 10 11 12	Sí	150	140	4	72.1%	Others	1.97%	769-3753	Calle Rodrz., Emma Esq. Robles	Carolina	PR	9830000	D60301@de.pr.gov	2020-2021
San Juan	Guaynabo	Trujillo Alto	60095	El Conquistador	18.34365	-66.00711	Abierta	Primario	K 1 2 3 4 5 6 EE	No	301	300	1	11.2%	Others	1.60%	760-2865	Calle 13, Esq. 1, El Conquistador	Trujillo Alto	PR	9760000	D60095@de.pr.gov	2020-2021
San Juan	San Juan II	San Juan V	66076	El Señorial	18.36046	-66.06066	Abierta	Primario	K 1 2 3 4 5 EE	No	301	291	2	26.8%	Others	3.82%	761-5920	Calle Pop Baraja Esq Benito Feijoo El Señorial	San Juan	PR	9240000	D66076@de.pr.gov	2020-2021
San Juan	San Juan I	San Juan II	61358	Eleanor Roosevelt	18.41782	-66.06436	Abierta	Primario	K 1 2 3 4 5	No	251	241	3	52.1%	Others	2.21%	763-4518	Calle Antilinnin Urb Roosevelt	San Juan	PR	9280000	D61358@de.pr.gov	2020-2021
San Juan	San Juan II	San Juan III	77289	Elemental Nueva	18.40167	-66.03777	Abierta	Primario	K 1 2 3 4 5 6 7 8 EE	No	220	220	2	21.3%	Targeted	3.83%	274-8255	Ave Ramon B Lopez Sabana Llana	San Juan	PR	9230000	D77289@de.pr.gov	2020-2021
San Juan	San Juan II	San Juan IV	62513	Emilio del Toro Cuevas	18.42823	-66.05658	Abierta	Primario	K 1 2 3 4 5 EE	No	125	117	4	76.9%	Others	0.78%	753-0384	Calle Chile #1,Esq Quisquella Hato Rey	San Juan	PR	9280000	D62513@de.pr.gov	2020-2021
San Juan	San Juan II	San Juan IV	63131	Ernesto Ramos Antonini	18.43614	-66.0504	Abierta	Primario	6 7 8 EI	No	241	232	1	15.9%	Comprehensive	3.60%	726-4480	Ave Borinquen Bo Obrero	San Juan	PR	9240000	D63131@de.pr.gov	2020-2021
San Juan	San Juan I	San Juan II	64402	Ernesto Ramos Antonini (Música)	18.425998727109	-66.0612532311495	Abierta	Todos Los Niveles	6 7 8 9 10 11 12	No	448	441	4	65.9%	Others	0.67%	754-1335	Ave Chardon 125	San Juan	PR	9190000	D64402@de.pr.gov	2020-2021
San Juan	San Juan I	San Juan II	6372	Escuela Alianza Vimenti School	18.4103860214291	-66.0236439657293	Abierta	Primario	K 1 2 3	No	121	125			N/A	10.71%	(787) 772-4729	Sector Villa Prades Calle Ana Otero Final Resd. Ernesto Ramos Antonini	San Juan	PR	9280000		2020-2021
San Juan	San Juan II	San Juan V	61556	Evaristo Rivera Chevremont	18.39201	-66.08751	Abierta	Primario	K 1 2 3 4 5 6 7 8 EE	No	230	222	3	50.4%	Others	5.36%	792-0255	Calle 58 Esq 17 Res Vista Hermosa	San Juan	PR	9280000	D61556@de.pr.gov	2020-2021
San Juan	Guaynabo	Trujillo Alto	69021	Fair View	18.36276	-66.03383	Abierta	Primario	PK K 1 2 3 4 5 6 EE	Sí	306	296	2	34.7%	Others	2.21%	761-3280	Calle 7 Esq 18 Urb Fair View	Trujillo Alto	PR	9760000	D69021@de.pr.gov	2020-2021
San Juan	San Juan II	San Juan IV	63032	Federico Asenjo (Pre-Tecnica)	18.43822	-66.05556	Abierta	Todos Los Niveles	7 8 9 10 11	No	319	316	2	33.7%	Others	1.24%	(787) 726-2400	Ave Borinquen 32015 Bo Obrero	San Juan	PR	9150000	D63032@de.pr.gov	2020-2021
San Juan	San Juan II	San Juan III	62521	Felipe Gutiérrez	18.40662	-66.02355	Abierta	Primario	K 1 2 3 4 5 EE	No	251	246	3	45.5%	Others	3.70%	767-5395	Calle Aritides Chavier Villa Prades	San Juan	PR	9240000	D62521@de.pr.gov	2020-2021
San Juan	Carolina	Carolina II	65987	Francisco Matías Lugo	18.41018	-65.97385	Abierta	Primario	PK K 1 2 3 4 5 6 EE	Sí	559	571	3	52.1%	Others	2.22%	757-0410	Calle Almendro, Valle Arriba Higts	Carolina	PR	9840000	D65987@de.pr.gov	2020-2021
San Juan	San Juan II	San Juan IV	66167	Fray Bartolomé de las Casas	18.43464	-66.03578	Abierta	Primario	K 1 2 3 4 5 EE	No	236	230	4	70.8%	Others	2.41%	726-5169	Ave Eduardo Conde Final	San Juan	PR	9150000	D66167@de.pr.gov	2020-2021
San Juan	San Juan I	San Juan II	61382	Gabriela Mistral	18.40158	-66.09082	Abierta	Secundario	9 10 11 12 ES	No	544	489	2	26.1%	Comprehensive	4.27%	782-4208	Ave Jesus T Piñero	San Juan	PR	9280000	D61382@de.pr.gov	2020-2021
San Juan	San Juan II	San Juan III	62562	Gaspar Vilá Mayans	18.3985	-66.03019	Abierta	Primario	K 1 2 3 4 5 EE	No	200	199	3	52.8%	Targeted	2.28%	767-1402	Calle General Valero Urb. Las Delicias	San Juan	PR	9840000	D62562@de.pr.gov	2020-2021
San Juan	Carolina	Carolina II	69930	Gilberto Concepción de Gracia	18.40046	-65.97719	Abierta	Secundario	9 10 11 12 ES	No	801	769	2	30.2%	Others	2.57%	768-2216	Ave Sanchez Osorio Vf	Carolina	PR	9840000	D69930@de.pr.gov	2020-2021
San Juan	San Juan II	San Juan IV	64527	Gustavo A. Bécquer	18.41383	-66.04914	Abierta	Primario	K 1 2 3 4 5 EE	No	123	130	2	38.6%	Others	4.93%	764-4260	Calle Francia Esq Arecibo 31	San Juan	PR	9170000	D64527@de.pr.gov	2020-2021
San Juan	Guaynabo	Trujillo Alto	69138	Herminia Díaz Aponte	18.36696	-66.00461	Abierta	Primario	PK K 1 2 3 4 5 6	Sí	230	222	2	38.5%	Others	3.40%	761-1425	Calle Torrecilla Urb. Lago Alto #1167	Trujillo Alto	PR	9760000	D69138@de.pr.gov	2020-2021
San Juan	San Juan II	San Juan V	62901	Inés María Mendoza	18.33924	-66.07748	Abierta	Todos Los Niveles	PK K 1 2 3 4 5 6 7 8 9 10 11 12 EE EI ES	Sí	909	894	2	31.0%	Others	1.62%	720-2853	Carr. 842, Km. 2.6, Caimito Bajo	San Juan	PR	9280000	D62901@de.pr.gov	2020-2021
San Juan	San Juan I	San Juan I	64279	Instituto Loaiza Cordero	18.44667	-66.07391	Abierta	Primario	K 1 2 3 4 5 6 7 8 EE	No	281	259	2	30.1%	Targeted	2.41%	724-0893	Calle Feria Final, #1312	San Juan	PR	9100000	D64279@de.pr.gov	2020-2021
San Juan	San Juan II	San Juan III	65094	Instituto Tec Recinto De San Juan	18.412188	-66.017058	Abierta	PS - Instituto	SHARED	No					N/A		764-8815	Calle Alegria Final Urb Las Virtudes	San Juan	PR	9240000	D65094@de.pr.gov	2020-2021
San Juan	Carolina	Carolina I	60228	Jesús Manuel Suarez	18.32666	-65.93969	Abierta	Primario	K 1 2 3 4 5 6 EE	No	229	221	4	67.8%	Others	2.52%	750-2774	Carr. 853 Km 8.3 Bo. Barrazas	Carolina	PR	9850000	D60228@de.pr.gov	2020-2021
San Juan	Carolina	Carolina II	65078	Jesús María Sanroma	18.39564	-65.9538	Abierta	Primario	K 1 2 3 4 5 EE	No	332	337	2	28.4%	Comprehensive	1.64%	769-8451	Calle 46 Esq. Boulevard Ave. Calderon Final	Carolina	PR	9830000	D65078@de.pr.gov	2020-2021
San Juan	Guaynabo	Trujillo Alto	69112	Jesús Silva	18.36804	-66.02305	Abierta	Primario	K 1 2 3 4 5 6 EE	No	497	497	4	70.9%	Others	1.87%	761-0565	Calle Azucena, Esq. Gardenia, Urb. Villa Blanca	Trujillo Alto	PR	9760000	D69112@de.pr.gov	2020-2021
San Juan	Carolina	Carolina I	60335	Jesús T. Piñero	18.31455	-65.91477	Abierta	Primario	K 1 2 3 4 5 6 7 8 EI	No	307	311	3	57.9%	Others	0.63%	750-0260	Carr. 857, Bo. Carruso	Carolina	PR	9850000	D60335@de.pr.gov	2020-2021
San Juan	Guaynabo	Trujillo Alto	69054	José F. Díaz	18.33214	-66.02834	Abierta	Primario	K 1 2 3 4 5 6 7 8 EE EI	No	518	505	2	20.9%	Targeted	0.95%	760-4255	Carr. 843, Km. 3.6, Carraizo Alto	San Juan	PR	9260000	D69054@de.pr.gov	2020-2021
San Juan	San Juan I	San Juan I	61671	José Julián Acosta (Teatro)	18.4656	-66.1114	Abierta	Todos Los Niveles	6 7 8 9 10 11 12	No	186	176	3	50.1%	Others	1.08%	722-1253	Pda 1 Ave Juan Ponce De Leon	San Juan	PR	9010000	D61671@de.pr.gov	2020-2021
San Juan	Carolina	Carolina I	60343	José Severo Quiñones	18.38445	-65.95893	Abierta	Primario	K 1 2 3 4 5 6 7 8 EE	No	648	631	2	35.5%	Others	3.98%	769-3280	Urb Jose S Quiñones Calle Ulises Ortiz	Carolina	PR	9850000	D60343@de.pr.gov	2020-2021
San Juan	Guaynabo	Guaynabo	75812	Josefina Barceló	18.37651	-66.09599	Abierta	Secundario	9 10 11 12	No	374	373	2	37.7%	Others	4.93%	720-6482	Carr 177 Km 5 Ave Lomas Verdes Los Frailes Llanos	Guaynabo	PR	9690000	D75812@de.pr.gov	2020-2021
San Juan	San Juan II	San Juan V	62893	Juan  Antonio  Corretjer	18.3547	-66.03896	Abierta	Todos Los Niveles	K 1 2 3 4 5 6 7 8 9 10 11 12 EE EI ES	No	414	416	3	54.7%	Others	3.20%	761-1560	Carr 844 Km 3 Cupey Bajo	San Juan	PR	9240000	D62893@de.pr.gov	2020-2021
San Juan	San Juan II	San Juan V	61408	Juan B. Huyke	18.3798	-66.09315	Abierta	Primario	K 1 2 3 4 5 6 7 8	No	287	267	2	26.8%	Others	2.34%	782-3924	Calle San Ignacio Urb. Altamesa	San Juan	PR	9280000	D61408@de.pr.gov	2020-2021
San Juan	Guaynabo	Guaynabo	75804	Juan E. Miranda	18.38058	-66.11586	Abierta	Primario	6 7 8 EI	No	377	370	2	29.7%	Others	1.27%	790-8198	Carr 177 Ave Lomas Verdes Bo Frailes Llanos	Guaynabo	PR	9700000	D75804@de.pr.gov	2020-2021
San Juan	San Juan I	San Juan II	61390	Juan José Osuna	18.41281	-66.05916	Abierta	Secundario	9 10 11 12	No	192	189	5	91.2%	Others	2.55%	282-0950	Calle Tours Soto Urb. Baldrich	San Juan	PR	9280000	D61390@de.pr.gov	2020-2021
San Juan	Guaynabo	Guaynabo	75879	Juan Ponce de León	18.40019	-66.12109	Abierta	Todos Los Niveles	PK K 1 2 3 4 5 6 7 8 9 10 11 12	Sí	384	381	3	46.9%	Comprehensive	2.27%	792-3550	Carr 2 Km 7 Hm 3 Bo Juan Domingo	Guaynabo	PR	9700000	D75879@de.pr.gov	2020-2021
San Juan	San Juan II	San Juan IV	62547	Juan Ponce de León	18.42046	-66.0433	Abierta	Secundario	9 10 11 12 ES	No	334	321	2	28.9%	Others	4.75%	764-4630	Ave Barbosa Esq Vergel 374	San Juan	PR	9300220	D62547@de.pr.gov	2020-2021
San Juan	San Juan II	San Juan IV	62554	Juan Ramón Jiménez	18.41278	-66.03416	Abierta	Primario	6 7 8	No	263	266	2	21.0%	Comprehensive	4.88%	767-9463	Calle 46, Esq. Sicardo Res. Manuel A. Perez	San Juan	PR	9230000	D62554@de.pr.gov	2020-2021
San Juan	Carolina	Carolina I	68510	Juana A. Méndez	18.36965	-65.98575	Abierta	Primario	K 1 2 3 4 5 EE	No	353	351	4	73.9%	Others	1.31%	768-3735	Urb Metropolis Calle 1 Final	Carolina	PR	9877112	D68510@de.pr.gov	2020-2021
San Juan	San Juan II	San Juan IV	62539	Juanita García Peraza	18.42757	-66.04356	Abierta	Primario	K 1 2 3 4 5 EE	No	208	205	4	68.2%	Others	1.83%	763-8272	Laguna Final Bo Israel	San Juan	PR	9280000	D62539@de.pr.gov	2020-2021
San Juan	San Juan I	San Juan I	60038	Julián E. Blanco (Ballet)	18.45074	-66.06586	Abierta	Todos Los Niveles	5 6 7 8 9 10 11 12	No	94	90	4	77.7%	Others	0.00%	721-9021	Calle Martin Travieso, Esq. Estrella	San Juan	PR	9070000	D60038@de.pr.gov	2020-2021
San Juan	San Juan I	San Juan II	61416	Julio Sellés Solá	18.39722	-66.06661	Abierta	Primario	K 1 2 3 4 5 EE	No	642	624	3	45.1%	Others	7.58%	767-1333	Urb Villa Nevarez Calle 19 Esq 20	San Juan	PR	9270000	D61416@de.pr.gov	2020-2021
San Juan	San Juan I	San Juan II	61424	La Esperanza (Luis Pales Matos)	18.41698	-66.08094	Abierta	Todos Los Niveles	EE EI ES	No	169	166	5	92.9%	Others	1.16%	782-0295	Calle 19 Ne Pto Nuevo	San Juan	PR	9210000	D61424@de.pr.gov	2020-2021
San Juan	San Juan I	San Juan II	61432	Las Américas	18.40596	-66.08589	Abierta	Primario	K 1 2 3 4 5 6 7 8	No	233	221	2	26.1%	Comprehensive	7.31%	782-0070	Calle Constitucion Esq. Casino, Puerto Nuevo	San Juan	PR	9280000	D61432@de.pr.gov	2020-2021
San Juan	San Juan II	San Juan IV	64998	Lcdo. Guillermo Atiles Moreau	18.41045	-66.0547	Abierta	Todos Los Niveles	PK K 1 2 3 4 5 6 7 8 9 10 11 12 EE EI ES	Sí	130	127	4	73.7%	Others	1.54%	767-6710	Calle Ponce Urb Perez Morris	San Juan	PR	9240000	D64998@de.pr.gov	2020-2021
San Juan	Carolina	Carolina I	60905	Lorenzo Vizcarrondo	18.38453	-65.96083	Abierta	Secundario	9 10 11 12	No	355	335	2	38.9%	Others	3.45%	769-0870	Calle Quiñones, #8, Urb. Severo Quiñones	Carolina	PR	9889180	D60905@de.pr.gov	2020-2021
San Juan	San Juan I	San Juan I	63081	Luis Llorens Torres	18.4478	-66.04097	Abierta	Primario	PK K 1 2 3 4 5 6 EE	Sí	346	344	2	34.6%	Targeted	1.13%	726-1195	Calle Marisabel, Res. Llorens Torres	San Juan	PR	9130000	D63081@de.pr.gov	2020-2021
San Juan	San Juan I	San Juan II	61457	Luis Muñiz Souffront	18.39644	-66.09184	Abierta	Primario	K 1 2 3 4 5 EE	No	155	157	2	34.9%	Others	3.47%	782-0715	Calle 17 Esq 28 So Caparra Terrace	San Juan	PR	9210000	D61457@de.pr.gov	2020-2021
San Juan	San Juan I	San Juan I	61689	Luis Muñoz Rivera	18.44167	-66.06457	Abierta	Primario	PK K 1 2 3 4 5 6	No	350	324	2	25.5%	Others	1.97%	727-6755	Parada 25 Ave Fernandez Juncos	San Juan	PR	9090000	D61689@de.pr.gov	2020-2021
San Juan	San Juan II	San Juan III	62810	Luis Muñoz Rivera	18.40019	-66.04895	Abierta	Primario	PK K 1 2 3 4 5	Sí	178	179	3	53.0%	Others	1.97%	751-2214	Calle Robles, #42	San Juan	PR	9280000	D62810@de.pr.gov	2020-2021
San Juan	Guaynabo	Guaynabo	75820	Luis Muñoz Rivera II	18.43065	-66.11422	Abierta	Primario	PK K 1 2 3 4 5 EE	Sí	256	262	2	39.6%	Others	4.68%	783-5290	Ave Ponce De Leon Bo Amelia	Guaynabo	PR	9650000	D75820@de.pr.gov	2020-2021
San Juan	San Juan I	San Juan I	63099	Luis Rodríguez Cabrero	18.44864	-66.049	Abierta	Primario	K 1 2 3 4 5 EE	No	141	153	2	28.5%	Others	3.68%	727-6095	Calle Corona Res Luis Llorens Torres	San Juan	PR	9210000	D63099@de.pr.gov	2020-2021
San Juan	Carolina	Carolina II	66209	Luz América Calderón	18.39749	-65.96129	Abierta	Secundario	9 10 11 12 ES	No	427	417	3	42.1%	Others	4.68%	768-4044	Ave Central Boulevar 18 Vc	Carolina	PR	9850000	D66209@de.pr.gov	2020-2021
San Juan	San Juan II	San Juan V	66233	Luz Eneida Colón	18.36228	-66.07618	Abierta	Primario	K 1 2 3 4 5 EE	No	351	343	4	60.9%	Others	3.04%	720-1382	Calle Las Vegas Final, Urb. Las Cubre	San Juan	PR	9260000	D66233@de.pr.gov	2020-2021
San Juan	San Juan II	San Juan IV	62604	Manuel A. Pérez	18.41334	-66.03627	Abierta	Primario	K 1 2 3 4 5 EE	No	302	301	1	19.9%	Others	5.65%	751-2420	Calle Elizondo Esq 46 Res Manuel A Perez	San Juan	PR	9190000	D62604@de.pr.gov	2020-2021
San Juan	San Juan II	San Juan IV	63107	Manuel Boada	18.4356	-66.05075	Abierta	Primario	K 1 2 3 4 5 EE	No	298	292	3	50.5%	Others	2.93%	726-0989	Ave Borinquen Esq Calle Cortijo	San Juan	PR	9150000	D63107@de.pr.gov	2020-2021
San Juan	San Juan II	San Juan IV	63024	Manuel Elzaburu y Vizcarrondo	18.43286	-66.04019	Abierta	Primario	PK K 1 2 3 4 5 6	Sí	298	299	2	31.3%	Others	0.32%	726-0125	Calle Madison Res Las Margaritas	San Juan	PR	9160000	D63024@de.pr.gov	2020-2021
San Juan	Carolina	Carolina II	66498	Manuel Febres González	18.40091	-65.97608	Abierta	Primario	6 7 8	No	290	280	2	32.6%	Comprehensive	1.67%	768-3031	Via #5, Urb. Villa Fontana	Carolina	PR	9840000	D66498@de.pr.gov	2020-2021
San Juan	Guaynabo	Guaynabo	75838	Margarita Janer Palacios	18.358	-66.1095	Abierta	Secundario	9 10 11 12	No	572	542	2	22.1%	Others	4.64%	720-2217	Carr  Alejandrino Final Km 1 Hm 0	Guaynabo	PR	9694429	D75838@de.pr.gov	2020-2021
San Juan	Carolina	Carolina II	64956	María Teresa Serrano	18.40368	-65.9754	Abierta	Primario	K 1 2 3 4 5	No	364	365	4	71.2%	Others	4.10%	752-2975	Via 8, Urb. Villa Fontana	Carolina	PR	9830000	D64956@de.pr.gov	2020-2021
San Juan	Guaynabo	Guaynabo	75747	Mariano Abril Elemental	18.31826	-66.0943	Abierta	Primario	K 1 2 3 4 5 EE	No	180	177	4	74.0%	Others	1.08%	720-7870	Carr 8834 Km 1.8 Bo Rio	Guaynabo	PR	9700000	D75747@de.pr.gov	2020-2021
San Juan	Guaynabo	Trujillo Alto	69047	Medardo Carazo	18.35391	-66.00569	Abierta	Secundario	9 10 11 12 ES	No	487	462	2	20.5%	Others	3.59%	760-6575	Callle Cruz Final # 50	Trujillo Alto	PR	9770000	D69047@de.pr.gov	2020-2021
San Juan	San Juan II	San Juan IV	62398	Miguel Such	18.40972	-66.04326	Abierta	Secundario	9 10 11 12 ES	No	871	807	3	40.3%	Others	7.36%	751-3780	Ave Barbosa Esq Ave Piñero	San Juan	PR	9280000	D62398@de.pr.gov	2020-2021
San Juan	San Juan I	San Juan II	65946	Nemesio R. Canales I	18.422	-66.07912	Abierta	Primario	K 1 2 3 4 5 EE	No	111	116	2	33.4%	Comprehensive	1.63%	782-6539	Res Nemesio Canales	San Juan	PR	9280000	D65946@de.pr.gov	2020-2021
San Juan	Guaynabo	Trujillo Alto	79087	Nueva Elemental Bo. Quebrada Negrito	18.33055	-65.98879	Abierta	Primario	K 1 2 3 4 5 EE	No	320	323	3	55.8%	Others	1.48%	760-5755	Carr #181 Km 10 Hm 7 Bo Quebrada Negrito	Trujillo Alto	PR	9770000	D79087@de.pr.gov	2020-2021
San Juan	Guaynabo	Guaynabo	78253	Nueva Elemental Urbana de Guaynabo	18.3528062597615	-66.1104257359715	Abierta	Primario	PK K 1 2 3 4 5 EE	Sí	380	364	3	51.0%	Others	1.27%	720-2195	Calle Carazo	Guaynabo	PR	9700000	D78253@de.pr.gov	2020-2021
San Juan	San Juan II	San Juan IV	62463	Pachín Marín	18.42225	-66.05184	Abierta	Primario	6 7 8	No	320	306	2	24.2%	Others	4.84%	753-9304	Calle Paris, Esq. Pachin Marin Floral Park	San Juan	PR	9250000	D62463@de.pr.gov	2020-2021
San Juan	San Juan I	San Juan I	61747	Padre Rufo (Bilingüe)	18.44663	-66.06507	Abierta	Todos Los Niveles	6 7 8 9 10 11 12	No	305	302	3	58.9%	Others	4.23%	723-4930	236 Calle Del Parque Pda 23	San Juan	PR	9090000	D61747@de.pr.gov	2020-2021
San Juan	Carolina	Carolina II	60400	Pascasio P. Sancerrit	18.42466	-65.98505	Abierta	Primario	K 1 2 3 4 5 EE	No	293	292	2	27.9%	Others	2.27%	769-4260	Calle Granada, Urb. Vistamar	Carolina	PR	9830000	D60400@de.pr.gov	2020-2021
San Juan	San Juan I	San Juan II	66357	Pedro C. Timothee Anexo	18.4155	-66.09346	Abierta	Todos Los Niveles	EE EI ES	No	90	85	2	33.6%	Others	5.21%	783-3966	Calle 16 No Esq Calle 9 No	San Juan	PR	9200000	D66357@de.pr.gov	2020-2021
San Juan	San Juan I	San Juan II	61481	Pedro Carlos Timothee	18.41638	-66.08736	Abierta	Primario	K 1 2 3 4 5 EE	No	159	152	2	26.3%	Others	2.44%	782-1280	Calle 5 Ne Puerto Nuevo	San Juan	PR	9280000	D61481@de.pr.gov	2020-2021
San Juan	Carolina	Carolina II	60418	Pedro Moczo Baniet	18.40196	-65.98987	Abierta	Primario	K 1 2 3 4 5 EE	No	348	342	3	41.0%	Others	1.93%	769-2612	Apartado 3114 Valle	Carolina	PR	9840000	D60418@de.pr.gov	2020-2021
San Juan	Carolina	Carolina I	66480	Petra Román Vigo	18.38	-65.99807	Abierta	Primario	6 7 8 EI	No	305	285	2	35.2%	Comprehensive	13.08%	769-3255	Carr. 887, Km. 3.5 Bo San Anton	Carolina	PR	9790000	D66480@de.pr.gov	2020-2021
San Juan	Guaynabo	Trujillo Alto	60913	Petra Zenón de Fabery	18.36882	-66.01117	Abierta	Todos Los Niveles	7 8 9 10 11 12 EE ES	No	486	472	1	15.1%	Others	6.65%	760-0685	Carr 181 Km 1 Hm 8 Bo Las Cuevas	Trujillo Alto	PR	9760000	D60913@de.pr.gov	2020-2021
San Juan	Carolina	Carolina I	62182	Prisco Fuentes	18.36848	-65.9284	Abierta	Primario	K 1 2 3 4 5 EE	No	405	402	4	61.4%	Targeted	2.14%	750-4480	Calle Grovish 13 Urb. Parque Ecuestre	Carolina	PR	9790000	D62182@de.pr.gov	2020-2021
San Juan	San Juan I	San Juan I	61762	Rafael Cordero	18.4509396263898	-66.0810115782667	Abierta	Secundario	9 10 11 12	No	189	183	3	56.1%	Others	0.52%	722-6643	Calle Aurora Esq Hoare Pda 15	San Juan	PR	9080000	D61762@de.pr.gov	2020-2021
San Juan	San Juan II	San Juan IV	62612	Rafael Hernández	18.42006	-66.04171	Abierta	Primario	K 1 2 3 4 5 EE	No	284	270	3	58.8%	Others	1.38%	763-8514	Calle Valverde	San Juan	PR	9230000	D62612@de.pr.gov	2020-2021
San Juan	San Juan I	San Juan II	61549	Rafael Hernández Marín	18.39799	-66.10076	Abierta	Primario	K 1 2 3 4 5 EE	No	227	227	4	73.1%	Others	0.85%	792-0494	Calle Asomante Urb. Summit Hills	San Juan	PR	9270000	D61549@de.pr.gov	2020-2021
San Juan	San Juan I	San Juan I	61705	Rafael María de Labra	18.4499012083878	-66.074723560711	Abierta	Todos Los Niveles	7 8 9 10 11 12	No	244	238	2	34.3%	Comprehensive	2.38%	722-1443	Ponce De Leon Pda #18 Santurce	San Juan	PR	9090000	D61705@de.pr.gov	2020-2021
San Juan	Guaynabo	Guaynabo	75705	Rafael Martínez Nadal	18.35539	-66.10934	Abierta	Primario	6 7 8 EI	No	223	220	1	19.5%	Comprehensive	8.49%	720-3356	Calle Ramon Murga Bo Cano	Guaynabo	PR	9700000	D75705@de.pr.gov	2020-2021
San Juan	San Juan II	San Juan V	61499	Rafael Rivera Otero	18.3888	-66.09799	Abierta	Primario	K 1 2 3 4 5 EE	No	218	209	3	43.6%	Others	1.80%	782-3180	Calle Sandalio Alonso, Urb. Las Lomas	San Juan	PR	9210000	D61499@de.pr.gov	2020-2021
San Juan	Guaynabo	Guaynabo	75713	Ramón Marín Sola	18.37666	-66.1029	Abierta	Primario	K 1 2 3 4 5 EE	No	396	403	4	68.0%	Others	2.13%	720-3911	Calle Azalea Final Esq. Campobello Urb	Guaynabo	PR	7900000	D75713@de.pr.gov	2020-2021
San Juan	San Juan I	San Juan I	63123	Ramón Power y Giralt	18.44957	-66.05088	Abierta	Secundario	9 10 11 12 ES	No	219	215	1	12.6%	Others	6.67%	727-4830	Calle Loiza Final	San Juan	PR	9140000	D63123@de.pr.gov	2020-2021
San Juan	San Juan II	San Juan III	62950	Ramón Vilá Mayo	18.40087667908	-66.0513725236263	Abierta	Todos Los Niveles	6 7 8 9 10 11 12	Sí	341	341	2	27.1%	Comprehensive	4.40%	772-9864	Calle Brumbaugh, #1014	San Juan	PR	9260000	D62950@de.pr.gov	2020-2021
San Juan	Carolina	Carolina II	65995	René Marqués	18.42293	-65.97511	Abierta	Primario	6 7 8	No	285	267	2	24.9%	Others	3.36%	757-2760	Calle 16 Final  Jardines Country Club	Carolina	PR	9830000	D65995@de.pr.gov	2020-2021
San Juan	San Juan I	San Juan II	61515	República de Brasil	18.39543	-66.08183	Abierta	Primario	K 1 2 3 4 5	No	223	217	4	71.2%	Others	7.42%	782-7714	Calle 48 # 1258 La Riviera	San Juan	PR	9280000	D61515@de.pr.gov	2020-2021
San Juan	San Juan II	San Juan III	62877	República de Colombia	18.39772	-66.04092	Abierta	Secundario	9 10 11 12 ES	No	254	252	2	37.6%	Comprehensive	11.92%	764-4910	Calle Maximo Alomar Urb San Agustin	San Juan	PR	92800000	D62877@de.pr.gov	2020-2021
San Juan	San Juan I	San Juan I	63149	República del Perú	18.44994	-66.04992	Abierta	Todos Los Niveles	6 7 8 9 10 EE	Sí	249	246	2	21.8%	Comprehensive	3.77%	727-2327	Calle Loiza Final	San Juan	PR	9140000	D63149@de.pr.gov	2020-2021
San Juan	Carolina	Carolina I	64949	Roberto Clemente	18.38162	-65.9802	Abierta	Primario	K 1 2 3 4 5 EE	No	248	240	3	44.4%	Others	2.34%	752-0057	Calle Peru #5 Urb Rolling Hills	Carolina	PR	9870000	D64949@de.pr.gov	2020-2021
San Juan	Guaynabo	Guaynabo	75739	Rosalina C. Martínez	18.433	-66.11865	Abierta	Todos Los Niveles	6 7 8 9 10 11 12 EI	No	285	279	1	19.0%	Comprehensive	1.33%	783-8385	Calle Rosalina Caraballo De Martinez	Guaynabo	PR	9650000	D75739@de.pr.gov	2020-2021
San Juan	Carolina	Carolina II	62174	Rvdo. Félix Castro Rodríguez	18.41931	-65.95964	Abierta	Primario	6 7 8	No	274	268	2	34.6%	Others	2.09%	752-0225	Calle 612 Ave Campo Rico Final	Carolina	PR	9850000	D62174@de.pr.gov	2020-2021
San Juan	Carolina	Carolina I	60442	Salvador Brau	18.33399	-65.95122	Abierta	Todos Los Niveles	7 8 9 10 11 12 EI ES	No	256	251	1	16.0%	Comprehensive	3.26%	750-0305	Carr. 853, K.6. H.0	Carolina	PR	9850000	D60442@de.pr.gov	2020-2021
San Juan	San Juan II	San Juan III	62927	San Agustín	18.39364	-66.037	Abierta	Primario	K 1 2 3 4 5 EE	No	265	269	3	57.6%	Others	4.56%	765-6946	Calle 6, Ext. San Agustin	San Juan	PR	9240000	D62927@de.pr.gov	2020-2021
San Juan	San Juan II	San Juan III	64410	San Martín (Ángeles Pastor)	18.39359	-66.00428	Abierta	Primario	K 1 2 3 4 5 EE	No	243	232	2	40.0%	Others	2.01%	768-3016	Urb San Martin Calle Luis Pardo	San Juan	PR	9260000	D64410@de.pr.gov	2020-2021
San Juan	Guaynabo	Guaynabo	75770	Santa Rosa III	18.37089	-66.13491	Abierta	Primario	PK K 1 2 3 4 5 6	Sí	306	304	4	67.4%	Others	7.16%	720-2718	Carr 833 Km 11 Hm 6 Bo Santa Rosa Iii	Guaynabo	PR	9700000	D75770@de.pr.gov	2020-2021
San Juan	Guaynabo	Guaynabo	75788	Santiago Iglesias Pantín	18.38041	-66.10136	Abierta	Primario	PK K 1 2 3 4 5 6 EE	No	427	418	2	33.5%	Others	2.93%	783-1645	Calle Jose A Torres Cintron Urb Santiago Iglesias	Guaynabo	PR	9210000	D75788@de.pr.gov	2020-2021
San Juan	San Juan II	San Juan IV	62646	Santiago Iglesias Pantín	18.43491	-66.0587	Abierta	Primario	K 1 2 3 4 5 6 7 8 EE	No	357	362	2	20.1%	Targeted	2.08%	767-8721	Calle Urdiales, Esq. Flandes, San Jose	San Juan	PR	9230000	D62646@de.pr.gov	2020-2021
San Juan	San Juan I	San Juan II	66316	Sotero Figueroa	18.40382	-66.06068	Abierta	Primario	6 7 8	No	361	350	4	75.5%	Others	1.62%	765-8132	Ave Palma Real Y Fordham	San Juan	PR	9280000	D66316@de.pr.gov	2020-2021
San Juan	San Juan II	San Juan V	62943	S. U. Dr. Arturo Morales Carrión	18.34729	-66.09256	Abierta	Todos Los Niveles	K 1 2 3 4 5 6 7 8 9 10 EE EI	No	340	330	2	20.5%	Targeted	1.97%	720-3708	Carr 1 Rm 19.3 Bo Tortugo	San Juan	PR	9280000	D62943@de.pr.gov	2020-2021
San Juan	San Juan I	San Juan II	61440	Trina Padilla de Sanz	18.40667	-66.07304	Abierta	Secundario	9 10 11 12 ES	No	421	410	3	54.5%	Others	3.41%	763-1130	Ave Jesus T Piñero Oeste #950	San Juan	PR	9200000	D61440@de.pr.gov	2020-2021
San Juan	Guaynabo	Trujillo Alto	69013	Tulio Larrinaga	18.35322	-66.00804	Abierta	Primario	K 1 2 3 4 5 EE	No	213	211	4	69.3%	Others	2.67%	761-1154	Calle Andres Valcarcel	Trujillo Alto	PR	9770000	D69013@de.pr.gov	2020-2021
San Juan	San Juan I	San Juan II	61531	University Gardens	18.40558	-66.06566	Abierta	Secundario	9 10 11 12	No	581	574	5	96.9%	Others	1.36%	764-8635	Ave Palma Real Y Fordham	San Juan	PR	9830000	D61531@de.pr.gov	2020-2021
San Juan	San Juan II	San Juan III	62166	Venus Gardens	18.37242	-66.03626	Abierta	Secundario	9 10 11 12	No	600	584	3	40.1%	Others	0.50%	755-3120	Urb Venus Gardens 722 Calle Aster	San Juan	PR	9260000	D62166@de.pr.gov	2020-2021
San Juan	San Juan I	San Juan II	65953	Víctor Pares Collazo	18.40841	-66.06045	Abierta	Todos Los Niveles	PK K EE EI ES	Sí	100	107	3	59.8%	Others	10.57%	764-2151	Calle Peru Final Urb. Hyde Park	San Juan	PR	9280000	D65953@de.pr.gov	2020-2021
San Juan	San Juan II	San Juan III	62968	Villa  Capri	18.3946	-66.02575	Abierta	Primario	K 1 2 3 4 5 6 7 8	No	413	410	2	35.5%	Others	4.62%	761-8765	Calle Verona, Esq. Niza, Urb. Villa Capri	San Juan	PR	9240000	D62968@de.pr.gov	2020-2021
San Juan	San Juan II	San Juan III	65557	Villa Granada	18.40118	-66.03315	Abierta	Primario	K 1 2 3 4 5 6 7 8	No	391	396	1	16.8%	Targeted	2.40%	751-1016	Urb Villa Granada Calle Asturias	San Juan	PR	9280000	D65557@de.pr.gov	2020-2021
San Juan	San Juan I	San Juan II	61564	William D. Boyce	18.39478	-66.09534	Abierta	Primario	6 7 8 EI	No	443	424	2	23.1%	Comprehensive	4.04%	792-4931	Calle 31 Las Lomas	San Juan	PR	9280000	D61564@de.pr.gov	2020-2021
